occupation	latitude	longitude	zipcode
Ocean_Blue_Restaurant_&_Oyster_Bar	B	43.101767	-75.231625
Freeman's_Barber_Shop	B	43.103963	-75.231088
Europa_Restaurant	B	43.095338	-75.215458
H&R_Block	A	43.091521	-75.222715
The_Auburn	B	43.085787	-75.26049
Laura's_Cafe	B	43.089023	-75.222661
Slice_Pizzeria	B	43.086374	-75.261325
Jo_Mar_Beauty_Salon	B	43.087143	-75.219192
Blue_Moon_Emporium	C	43.104262	-75.239773
Inkorporated_Tattoo_Studio	B	43.102151	-75.225497
Fastrac	B	43.1159	-75.210372
Baker_Greenhouses	C	43.113819	-75.182743
Big_O_Bakery	E	43.097578	-75.214903
Kajtezovic_Agency	C	43.089754	-75.212576
Faxton_St_Luke's_Healtchcare	B	43.09675	-75.276135
Shine	B	43.08425	-75.265315
Markwood_Thor	A	43.083125	-75.267804
St_Francis_Desales_Catholic_Church	A	43.095798	-75.238041
AMF	B	43.08892	-75.257804
Ulahannan_Mathew_MD	A	43.096734	-75.276133
Love_Gerry_A_MD	A	43.083162	-75.267791
Desserts_Beyond_the_Ordinary	E	43.099584	-75.233084
Century_Nails	B	43.089782	-75.21256
Lily's_Party_Store	C	43.096439	-75.241798
Moore's_Whol_Tire_Sales	C	43.098069	-75.221468
Clips	B	43.087292	-75.258949
Stewart's_Shops	C	43.081793	-75.205188
Farmers_Insurance_Group	C	43.081608	-75.271993
Enterprise_Rent-A-Car	C	43.104601	-75.236203
The_Patio_Drive_In	B	43.109115	-75.251014
Pizza_Classic	B	43.10191	-75.230732
St_Elizabeth_Medical_Group	A	43.086625	-75.262912
Utica_Fire_Department_Station_2_Utica_Fire_Department_Ambulance_Service	A	43.099167	-75.221544
Utica_Coffee_Roasting	B	43.103451	-75.227616
Patel_Ashok_R_MD	A	43.083157	-75.267793
Excellus_Blue_Cross_Blue_Shield	C	43.0931	-75.288589
Cricket_Wireless	C	43.092027	-75.222252
First_Nursery_School_Of_Utica	A	43.091393	-75.250384
John_F_Kennedy_Middle_School	A	43.118627	-75.196932
The_Rut	B	43.104683	-75.269517
Tonys_Pizzeria	B	43.109852	-75.262044
Express_Employment_Professionals	B	43.101851	-75.231547
Warfel_Mark_MD	A	43.103504	-75.227623
T_Milo_Construction	C	43.224064	-75.130004
Sharon's	B	43.088885	-75.261903
New_Hartford_Scanner	A	43.096743	-75.276132
Strosberg_Wm	C	43.098081	-75.216337
Greater_Grace_Church_Of_Utica	A	43.106103	-75.265186
Cafe_Hummus	B	43.088877	-75.222122
D_&_D_Auto_Sales	C	43.112382	-75.26213
2m_Auto_Repair	D	43.092667	-75.224509
Ancora	B	43.098941	-75.235529
Rosso_Verde	B	43.088644	-75.223552
M_&_M_Cleaners	E	43.07449	-75.266961
Brownstein_Lance_MD	A	43.045177	-75.273131
Mohawk_Valley_Community_College	A	43.07674	-75.216927
Serendipity_Hair_Salon_&_Boutique	B	43.090743	-75.215696
Todd_Hunter's_Eternal_Images	B	43.103976	-75.242741
Advance_Auto_Parts	C	43.092354	-75.248096
Payne's_Temple_Church_of_God_In_Christ	A	43.097797	-75.228352
BMP_Autoworx	D	43.107567	-75.24376
Minit_Car_Wash	D	43.087216	-75.254719
BJ's_Optical	A	43.126644	-75.222557
All_Saints_Episcopal_Church	A	43.089295	-75.248459
Come_into_Jamaican_Restaurants	B	43.093669	-75.23651
Dunkin'	B	43.107084	-75.244384
The_Beer_Hub	B	43.076782	-75.280305
Orkin	D	43.098028	-75.252664
Senator_James_H_Donovan_Middle_School	A	43.101448	-75.261956
Advanced_Physical_Medicine_and_Rehab	A	43.092965	-75.249001
Frank_J_Robak_Park	B	43.108802	-75.270344
Lincoln_Playground	B	43.094666	-75.253723
Wanna_Play_Cafe	B	43.115758	-75.21005
Kernan_Elementary_School	A	43.10367	-75.252012
Harbor_Point_Minerals	C	43.10665	-75.215657
Aspen_Dental	A	43.112406	-75.21465
Mello's_Subs	B	43.100527	-75.233468
Ahn_Douglas	A	43.093713	-75.286026
Wendy's	B	43.110586	-75.218393
Pharmacy_Solutions	A	43.088702	-75.186094
Hair_by_Lisa_calhoun	B	43.10266	-75.23023
T_P_Brake_&_Muffler	C	43.108673	-75.249337
Maugeri's_Auto_Body	D	43.104936	-75.237744
O'Connor_Park	B	43.08459	-75.228948
Affordable_Furniture	C	43.099246	-75.247192
S&E_Cabin_Log_Home_Services	D	43.110619	-75.164193
Red_Roof_Inn	B	43.11378	-75.216939
Peters_Glass	C	43.096768	-75.221924
Aquavino_Restaurant_&_Catering	B	43.111267	-75.214996
J's_Auto	D	43.108588	-75.250378
Addison_Miller_Park	B	43.094695	-75.26228
Tiny's_Grill	B	43.099995	-75.240431
Deerfield_Place	C	43.121884	-75.211184
Panda_House	B	43.10018	-75.234385
United_States_Postal_Service_(USPS)	C	43.088042	-75.256814
Jenny's_Diner	B	43.103773	-75.24243
Florentine_Pastry_Shop	E	43.098718	-75.218582
Lejla_&Ajla_Coffee_Shop	B	43.094621	-75.228436
Utica_Karate	B	43.086338	-75.261264
Simon_Geoffrey_MD	A	43.096748	-75.276133
Hemstrought's_Bakeries	E	43.09649	-75.252087
Dunkin'	B	43.104881	-75.233344
Santos_Auto_Repair	D	43.098365	-75.228617
Ifix_Repair	C	43.101772	-75.229559
Ambassador_Restaurant	B	43.096894	-75.216319
Ho_Andrew_T_MD	A	43.083161	-75.267803
New_York_Holistics	A	43.084254	-75.265334
Habitat_for_Humanity	B	43.086035	-75.279711
Block_H_&_R	A	43.091429	-75.222873
Scharf_Plumbing_&_Drain_Service	C	43.106561	-75.246849
Gustafson_&_Wargo_CPAs	A	43.08822	-75.256943
Feiner_Marc_A_MD	A	43.093399	-75.270334
Dollar_General	C	43.110251	-75.255668
Jonny's_Pizza	B	43.103372	-75.227793
Charlie's_Pizza	B	43.113634	-75.205129
Valley_Transmission_Svce	D	43.102091	-75.222804
Five_Points_Public_House_And_Event_Center	B	43.104067	-75.240747
Dang_Sudershan_MD	A	43.075504	-75.28016
GameStop	C	43.128536	-75.224521
Willow_Park_Assisted_Living_Facility	B	43.106672	-75.170271
Edward_J_Hirt_Playground	B	43.101237	-75.245832
Cooperative_Magnetic_Imaging	A	43.096726	-75.276126
Junior_Junction_Inc_At_St_Elizabeth's_Hospital	A	43.082465	-75.268041
CNY_Party_Planner	B	43.080681	-75.228738
Obstetrics_Gynecology_&_Infertility	A	43.096887	-75.276637
Allergy_Care	A	43.08437	-75.2673
McDonald's	B	43.091022	-75.222295
Faxton_St_Lukes's_Healthcare	A	43.117128	-75.213325
Quick_Change_Inc	C	43.094003	-75.225515
Community_Medicine_Centers_of_St_Elizabeth	A	43.093302	-75.241227
Fisher_Auto_Parts	C	43.105059	-75.215004
Papito_Barbershop	B	43.098259	-75.218352
St_Peter's_Catholic_Church	A	43.117414	-75.209352
Tilton_School	A	43.103143	-75.274766
Casa_Imports	C	43.097578	-75.202452
Sunoco	C	43.080357	-75.206285
Computer_Aided_Automotive	D	43.082474	-75.204804
Varick_Bar_&_Grill	B	43.104349	-75.241851
Little_Italy_Imports	C	43.089186	-75.221034
Fancy_Nails	B	43.11426	-75.208754
Dollar_General	C	43.103694	-75.162565
Dollar_Tree	C	43.090767	-75.224096
Mohawk_Valley_Network	B	43.096759	-75.276127
China_Wok	B	43.086455	-75.260933
Asim_Automotive	D	43.094899	-75.215702
Quest_Diagnostics	A	43.086653	-75.26184
Speciale_Fireworks	D	43.102525	-75.161053
Delta_Hotels	B	43.10132	-75.232341
Ramon's_Bakery	B	43.080493	-75.207147
Hotvedt_Peter_S_MD	A	43.083144	-75.267827
KeyBank	C	43.099307	-75.235058
Kunkel_Ambulance_Service	A	43.101505	-75.22342
Slavic_Pentecostal_Church	A	43.093183	-75.26075
Woodland_Farm_Brewery	D	43.151135	-75.212037
Five_Point_Tv	C	43.088689	-75.211811
DLG_Wealth_Management	A	43.099694	-75.235295
Hallmark_Cards	C	43.114387	-75.209397
Dollar_Tree	C	43.114285	-75.209188
Mohawk_Valley_Psychiatric_Center_For_Children_&_Youth	A	43.102996	-75.260128
U-Haul	C	43.084245	-75.288712
McDonald's	B	43.10999	-75.219031
Utica_Pharmacy	A	43.08777	-75.259876
Heritage_Health_Care_Center	A	43.090409	-75.256828
Colortyme	C	43.099288	-75.247222
Tractor_Supply_Co.	C	43.128039	-75.22259
Western_Union	C	43.096199	-75.241275
Jorgensen_William_DO	A	43.094177	-75.241832
Cliff's_Local_Market	C	43.116328	-75.211521
Cavo_Builders'_Supplies	C	43.089527	-75.210899
Avramidis_Lee_MD	A	43.096748	-75.276156
Home_Pro_Realty	C	43.096508	-75.212871
Shah_Paru_DDS	A	43.096759	-75.276128
View's_Valley_Paving	C	43.092565	-75.228721
Fairfield_Inn_&_Suites_by_Marriott	B	43.107491	-75.222421
A_&_P_Master_Images	C	43.106111	-75.230338
Max_Christopher_C	A	43.091068	-75.258076
O'Scugnizzo_Pizzeria	B	43.098775	-75.220374
Center_For_Family_Life_&_Recovery	A	43.10299	-75.238994
Sunglass_Hut	A	43.125554	-75.224675
Salon_One	B	43.095973	-75.24065
Pleeter_Restaurant_Hoods_Venti	B	43.104419	-75.230775
Mohawk_Valley_Central_Patient_Scheduling	A	43.090874	-75.257925
Stewart's_Shops	C	43.100592	-75.239275
Quality_Auto_Sales	C	43.111934	-75.267605
Dr_Uniforms	C	43.108914	-75.250256
72_Tavern_&_Grill	B	43.105246	-75.234006
Rosas_Trattoria_Italian_Deli_Bakery	B	43.077146	-75.28073
Star_Bakery	E	43.095528	-75.203739
Parkway_Senior_Center	B	43.084742	-75.249471
St_Joseph_Nursing_Home	B	43.079348	-75.274358
United_Way	B	43.102349	-75.233019
Mark_P_Hobaica_DPM	A	43.081332	-75.270856
Puff_N_Stuff	C	43.096178	-75.241297
Genesee_Nails	B	43.100075	-75.233452
Boost_Mobile	C	43.091308	-75.222722
Neurodevelopmental_Health_Services	A	43.081548	-75.289482
Adirondack_Community_Physicians	A	43.117154	-75.213326
Lenox_Cafe	B	43.098886	-75.253476
Lavoda_Home_Furniture	C	43.09923	-75.209719
Rainbow_Shops	C	43.090877	-75.223812
Pharmacy	C	43.086622	-75.260113
Thomas_James_W_DDS	A	43.115603	-75.208832
Western_Union	C	43.088618	-75.258563
Sacred_Heart_Schl	A	43.1035	-75.267301
Luna_Mexican_Bar_and_Grill	B	43.103837	-75.243245
Dunkin'	B	43.096161	-75.24285
Carbone_Buick_GMC_Cadillac_Opens_in_New_Window	C	43.137678	-75.216054
American_Fireworks_Display	D	43.096819	-75.217415
Children's_Therapy_Network	A	43.08665	-75.25724
Upstate_Cerebral_Palsy_Inc	A	43.079791	-75.21092
Ridgewood_Market_&_Deli	C	43.074472	-75.267472
Hawaiian_Holiday_Tanning_Salon	B	43.089813	-75.212051
The_Pines_at_Utica_Center_for_Nursing_and_Rehabilitation	B	43.08676	-75.254792
Mercurios_Automotive_Utica	C	43.084829	-75.280646
State_Farm	C	43.11796	-75.210063
Rodriguez_Multiservice	C	43.096466	-75.241818
Mohawk_Valley_Endocrinology	A	43.08163	-75.270392
Good_Friend_Chinese_Restaurant	B	43.11392	-75.207018
Utica_Hydra_Matic_Service	D	43.098838	-75.224804
Roma_Sausage	C	43.090936	-75.193887
Mauro's_Glass	C	43.097179	-75.237088
Hope_Chapel_A_M_E_Zion_Church	A	43.091452	-75.217644
Hummus_&_Tabbouleh	B	43.098687	-75.218266
Utica_Safe_Schools_Healthy_Student_Partnerships_Inc	A	43.118982	-75.197504
Five_Guys	B	43.128523	-75.224614
A_Dogs_Day_Out	B	43.126311	-75.23661
Schuyler_Tax_Services	A	43.092036	-75.137013
Trackside_Restaurant_&_Banquets	B	43.104205	-75.223289
West_Schuyler_United_Methodist_Church	A	43.111414	-75.151066
Antiques_&_Such	C	43.101377	-75.228719
Cotrupe_Produce_&_Sons	C	43.09111	-75.2062
St_Mary_of_Mount_Carmel_Church	A	43.099823	-75.217831
Christian_Heritage_School	A	43.10182	-75.155908
Advanced_Group	A	43.092996	-75.246911
Thomas_Jefferson_Elementary_School	A	43.123762	-75.218047
Moriah_Olivet_United_Presbyterian_Church	A	43.100786	-75.234107
Chanantry_Plaza	C	43.084767	-75.282375
Sunny_Side_Up_Cafe	B	43.094052	-75.203118
Taylor_Toby_Board_Certifd_Intrnl_Mdcne_&_Pdtrcs_MD	A	43.081154	-75.272821
John_Garret_Martial_Art_Academy	B	43.104703	-75.269487
Deerfield_Fire_Arms_Trng_Facility	B	43.178284	-75.187454
K_Music	C	43.088873	-75.222127
Spano_Brothers	E	43.093911	-75.200067
GIN&WEARR_Haberdashery	C	43.108472	-75.251452
Mohawk_Valley_Association_of_Realtors	C	43.091926	-75.281282
Saranac_Brewery	B	43.10332	-75.244695
Commerical_Woodengoods	C	43.107816	-75.231987
Faxton_St_Lukes_Healthcare	A	43.091289	-75.258286
Subway	B	43.080907	-75.20672
Mohawk_Valley_Psychiatric_Center	A	43.103005	-75.260126
Triangle_Coffee_Shop	B	43.100518	-75.233455
T_W_Video_Productions	C	43.08379	-75.277225
Upstate_Painting	D	43.089938	-75.265094
Cornerstone_Community_Church	A	43.096757	-75.24257
Total_Wireless_Store	C	43.08908	-75.223283
James_C_Brummett_DMD_PC	A	43.087026	-75.223971
North_Utica_Senior_Citizens_Recreation_Center_Inc	A	43.118237	-75.213719
The_Sanctuary	B	43.102872	-75.243508
Mvcaa_Inc_Mlk_Head_Start	A	43.091303	-75.235219
Utica_Public_Library	B	43.097111	-75.238804
Bass_Pro_Shops	C	43.125236	-75.225889
St_Vladimir_Ukrainian_Catholic_Church	A	43.098125	-75.238672
New_York_State_Dept_of_Motor_Vehicles	A	43.104131	-75.223198
Cook_Brothers_Truck_Parts	C	43.105162	-75.215264
Sperling_Steven_R_MD	A	43.086607	-75.262924
Ahn_Douglas_MD	A	43.091693	-75.288275
Desai_Anand_I_PC	A	43.096874	-75.276608
Pawn	C	43.102255	-75.241454
Masonic_Care_Community_Of_New_York	A	43.088354	-75.191127
B_J's_Wholesale_Club	C	43.126923	-75.221978
Fort_Schuyler_Trading_Co	C	43.114241	-75.208946
Kelberman_Michael_W_MD	A	43.083157	-75.26781
Culver_Stephen_J_MD	A	43.074825	-75.283924
Wingstop	B	43.107237	-75.220662
GPO_Federal_Credit_Union	C	43.075897	-75.281567
Parkway_Pizza	B	43.081236	-75.205712
Joel's_Spanish_Food	B	43.09574	-75.241848
Utica_City_Parking_Garage	B	43.101398	-75.233352
Mohawk_Deli_&_Grill	B	43.089089	-75.223295
Dino's_Sausage	C	43.099493	-75.216266
Court_Street_Children's_Center	A	43.100735	-75.238145
J_&_L_Auto_Svce	D	43.108802	-75.268484
Oneida_County_DMV_Office	A	43.104129	-75.223237
Faxton_St_Luke's_Hearing_and_Speech_Center	A	43.091014	-75.258803
Finger_Bullet	B	43.091504	-75.259515
Cafe_Domenico	B	43.086072	-75.261785
Dari_Del_Dairy	C	43.091385	-75.19641
Strategic_Financial_Services	A	43.090133	-75.283609
Focal_Point_Optical	A	43.077571	-75.281103
CNYHHN_Inc	B	43.0925	-75.207902
Smith_Robert_S_MD	A	43.093408	-75.270313
Soul_One_12	B	43.101576	-75.230054
Lansing_Body_Works	D	43.090996	-75.205377
ADHD_&_Autism_Psychological_Services_And_Advocacy	A	43.092108	-75.284613
JP3_Performance_Studio	B	43.101555	-75.230074
Carbone_Pontiac_At_Hornell	C	43.136836	-75.217442
St_Elizabeth_Childrens_Health_Center	A	43.083962	-75.268141
CNY_HealthHome_Network	B	43.092516	-75.207896
Munson_Williams_Proctor_Arts_Institute	C	43.097592	-75.240205
What_The_Truck	B	43.109565	-75.212797
Bargain_Price_Auto_Glass	C	43.101172	-75.232523
Delmedico_Spinal_Health_&_Wellness_Center	A	43.076077	-75.281277
Patil_Mangala	A	43.117122	-75.213293
Redeemer_Church	A	43.112118	-75.186806
Acropolis_Greek_Restaurant	B	43.083319	-75.231656
Maugeri's_Auto_Repair	D	43.097695	-75.216854
New_York_State	B	43.10029	-75.260619
Cars_Collision	D	43.102216	-75.222728
Baumgarten_Paul_H_Dr_DPM	A	43.097893	-75.239277
Liang_John_Dntst	A	43.074734	-75.284129
Affordable_Mattress_&_Furniture	C	43.09894	-75.248204
Duda_Woodworking_&_Chair_Hospital	C	43.105583	-75.241174
The_UPS_Store	C	43.110104	-75.217677
Griffin's_Pub	B	43.100765	-75.233165
Monopoli_Michael	D	43.094921	-75.242531
Cycle_Motive	C	43.092318	-75.182335
Mi_Casa_Restaurant	B	43.095335	-75.243117
A_Soothing_Touch_Laser_Hair_Removal	B	43.1128	-75.263823
Oneida_County_Farmers_Market	C	43.104148	-75.222328
GNC_(General_Nutrition_Centers)	A	43.128628	-75.224445
Trattoria_Calabria	B	43.089637	-75.198717
SmartStyle_Family_Hair_Salons	B	43.125556	-75.224699
Dunkin'	B	43.126504	-75.237043
Smith_Packing_Regional_Meat	B	43.104579	-75.229786
St_Peter_&_Paul_Ukrainian_Orthodox_Church	A	43.104363	-75.243617
Biogenic_Dental	A	43.098546	-75.237638
Pho_Mekong_House_of_Noodles	B	43.099718	-75.227167
Mark_S_Lewandrowski_Ameriprise_Financial_Services	A	43.081341	-75.272393
First_Source_Federal_Credit_Union	C	43.11445	-75.209761
Towpath_Vision_Care	A	43.081968	-75.271209
FootDoctors	A	43.094431	-75.286639
STS_Tire_&_Auto_Centers	D	43.086437	-75.262566
Rite_Aid	A	43.11445	-75.206408
Byrne_Dairy	C	43.1158	-75.209748
Hair_Reflexion_Beauty_Salon	B	43.092054	-75.206543
Neighborhood_Center_Rome_Location	A	43.097588	-75.22022
Bliss_Boutique_Shop	C	43.083626	-75.277532
Applebee's	B	43.12462	-75.227408
East_Side_Diner	B	43.094345	-75.228714
The_Pizza_Box	B	43.090082	-75.213457
Speedway	C	43.076972	-75.279766
CNY_Eye_Physicians_&_Surgeons	A	43.084366	-75.267292
Western_Union	C	43.094205	-75.214734
Psychiatric_Services_Of_Central_New_York	A	43.102004	-75.239451
Ridgewood_Auto_Repair	D	43.074388	-75.267527
Central_New_York_Cardiology	A	43.082326	-75.26734
Karate_studio_of_utica	B	43.086321	-75.261299
Hannaford_Supermarkets	C	43.090314	-75.224542
YWCA	B	43.099546	-75.237843
Talarico_Fred_L_MD	A	43.084026	-75.265748
Mvcaa_Inc_River_Rd_Head_Start	A	43.124803	-75.234256
Garro_Drug_Store_of_Utica	A	43.098077	-75.217729
Community_Medicine_Ctrs_of_St_Elzbth_Mdcl_Ctr_Fmly	A	43.093287	-75.241231
Faith_Furniture_Store	C	43.095013	-75.237572
Ventura's_Restaurant	B	43.093467	-75.213809
Alison's_Jewelry_&_Repair	C	43.117958	-75.209699
Freeman_&_Foote_Jewelers	C	43.101822	-75.229995
Racha_Eric_B_DDS	A	43.086255	-75.251113
Marr_Logg_House	B	43.082541	-75.204619
Klar_Kurt_F_DDS	A	43.083728	-75.271064
DTR/VILLA	C	43.089605	-75.223089
Burlington	C	43.126938	-75.223628
A_Taste_Of_Laos	B	43.099779	-75.233179
Larry's_Auto_Repair	D	43.162417	-75.210867
Domino's_Pizza	B	43.085085	-75.286903
Dick's_Auto_Sales	D	43.092182	-75.209886
Holy_Trinity_Cath_Church	A	43.09943	-75.244878
Church_of_Our_Lady_of_Lourdes	A	43.083922	-75.269902
Chancellor_Park	B	43.099958	-75.225122
Farkouh_Toufik_MD	A	43.096717	-75.276136
Social_Security	A	43.10316	-75.226062
Steuben_Park	B	43.09814	-75.231904
Rick's_Place	B	43.09517	-75.219823
Tallman_Kenneth_W	C	43.087372	-75.20278
The_Finery	A	43.098783	-75.218822
Rent-A-Center	C	43.091786	-75.222413
Entrepreneur_Center	A	43.101167	-75.232489
Liberty_Coins_&_Jewelry	C	43.093511	-75.214286
Union_Station	E	43.104185	-75.223212
Costello_Jr_John_DO	A	43.075555	-75.282528
Fastenal	C	43.113067	-75.263932
New_York_Connection	C	43.101772	-75.229797
Foursquare_Gospel_Church	A	43.096201	-75.248633
Sunny_Restaurant_Asian_Cuisine	B	43.096983	-75.216914
Utica_Fire_Department_Station_1	A	43.108181	-75.255652
GPO_Federal_Credit_Union	C	43.086158	-75.188966
315_Auto_Detailing	D	43.090224	-75.212177
St_Joseph_&_St_Patrick_Church	A	43.104994	-75.241587
First_Presbyterian_Church	A	43.091377	-75.250231
Oriskany_Garage_Tire_&_Auto_Service	C	43.10726	-75.270151
Vecchio_Paula_MD	A	43.086586	-75.262944
Giovannone_Frank_DDS	A	43.098405	-75.237932
Fastrac_Markets	C	43.109854	-75.250972
AutoZone	C	43.088202	-75.257073
AAA	C	43.100569	-75.237726
Faxton_St_Luke's_Healthcare	A	43.096653	-75.275927
Maye's_Salon_of_Beauty_Multi_Cultural_for_Entire_Family	B	43.091181	-75.252916
Zeina's_Cafe	B	43.104114	-75.241519
So_Sweet_Candy_Cafe	C	43.104471	-75.240537
Flooring_America	C	43.112065	-75.259959
Carbone_Collision_Center	D	43.139223	-75.214763
Bagel_Grove	B	43.089873	-75.257936
M&T_Bank	C	43.100191	-75.23287
Hess	C	43.076996	-75.279786
Myly_Nail_Salon	B	43.113306	-75.205528
Brock_Jim_Agency	C	43.087731	-75.259837
Irina_Popov_Music_Studio	C	43.084808	-75.26416
Howe_Does_It_Automotive	D	43.109373	-75.261458
First_Niagara_Bank	C	43.090793	-75.221441
Sherry_Spa	B	43.11765	-75.210069
Best_Pain_Killer_Medicine_for_Pain_Relief	B	43.099629	-75.238114
Schultz_Autoworks	D	43.095429	-75.25511
Lm_Hair_Salon	B	43.09075	-75.21568
S_&_R_Custom_Motorcycle_Parts	C	43.097032	-75.246719
Adirondack_Distilling_Company	C	43.104184	-75.241373
Adam_C_Ellis_DC	A	43.092072	-75.284621
Slavin_Mark_DDS	A	43.079755	-75.275656
Rockford_Auto_Glass	C	43.103451	-75.231857
Daniele's_At_Valley_View	B	43.079622	-75.234704
Sal's_Auto_Repair	D	43.108551	-75.246721
Congregation_Zvi_Jacob	A	43.086612	-75.252299
Cupolo_&_Son_Automotive_Svce	D	43.074826	-75.285463
Autopart_International	C	43.124585	-75.233612
Good_News_Foundation	A	43.126963	-75.193194
Genesee_Street_Children's_Center	A	43.077165	-75.278671
St_Paul's_Baptist_Church	A	43.092305	-75.234446
Sunoco	C	43.088405	-75.223161
Boces_Madison_Oneida	A	43.0993	-75.223355
Casper_Chiropractic	A	43.079961	-75.275181
East_Side_Glass_&_Mirror	D	43.10233	-75.223225
Fayez_F_Chahfe_MD	A	43.084383	-75.267323
Johnny_Nole's_Bar_&_Grill	B	43.098305	-75.233739
Meehan_John_J_Ins	C	43.086868	-75.264735
A_To_Z_Auto	D	43.108302	-75.248025
Christine's_Cookie_Shoppe	E	43.101592	-75.230083
Realm_Chiropractic	A	43.076121	-75.281269
Family_Dollar_Stores	C	43.103993	-75.247055
Peacemaker_Program	B	43.102141	-75.2397
Precision_Collision	D	43.095806	-75.223154
Utica_Safe_Schools_Healthy_Student_Partnerships_Inc	A	43.079675	-75.219659
Asian_Bodywork	B	43.080828	-75.273582
Johnston's_Auto_Body	D	43.09872	-75.224439
Thomas_R_Proctor_High_School	A	43.082323	-75.214664
Grill_155	B	43.077665	-75.218888
Physical_Therapy_college	A	43.091214	-75.259801
Business_Training_Institute	A	43.101284	-75.232437
Beit_Shalom	A	43.10273	-75.22961
La_Barbera_Joseph_A	A	43.075471	-75.282874
United_States_Postal_Service_(USPS)	C	43.102183	-75.231188
Subway	B	43.092047	-75.222262
Napoli's_Italian_Bakery	B	43.092161	-75.196799
Mikey_Thomas	B	43.101817	-75.229698
G_P_O_Federal_Credit_Union	C	43.101142	-75.226025
Autoland_Rental_Cars	C	43.094092	-75.22801
Neighborhood_Family_Dentistry	A	43.076871	-75.281295
Bite_Bakery_&_Cafe	B	43.102538	-75.229728
Kachare_Dilip_MD	A	43.085279	-75.263281
Acquaviva_Peter_M	A	43.094479	-75.286621
Terrace_Cafe	B	43.097158	-75.241051
Holy_Temple_of_Jesus_Christ	A	43.091084	-75.234056
Apsara_Restaurant_Cambodian_&_Thai	B	43.099396	-75.232777
Coriale_Flowers	C	43.093191	-75.220394
Mateflex	C	43.09207	-75.191635
Booth_Joseph_MD	A	43.132509	-75.210693
Giuseppe's_Bakery	E	43.097994	-75.218235
Marinuzzi_Chiropractic	A	43.126188	-75.235942
Masonic_Care_Community_Of_New_York	A	43.088317	-75.191143
Lucky_Mey's_Market	C	43.088516	-75.247955
Bazar_Grill_&_Lounge	B	43.095439	-75.222754
Medino's_Restaurant	B	43.095288	-75.215469
Auto_Dimensions_Plus	D	43.092269	-75.196703
Winstons_Automobile	D	43.093143	-75.229676
Colino_Daniel_F	A	43.11583	-75.208558
Dave's_Diner	B	43.099721	-75.152467
Dix_Mix_Memorial_Field	B	43.083498	-75.284402
Utica_Zoo	B	43.082066	-75.245197
Pantry_284	B	43.098478	-75.237685
Tallman's_Tire_&_Auto_Repair	D	43.0878	-75.258051
Monro	D	43.113154	-75.215157
The_Lotus_Garden	B	43.098243	-75.235247
Herbowy_Nestor_J_DDS	A	43.094452	-75.286619
DK_Griffith_&_Company	A	43.084972	-75.265433
CNY_Business_Solutions	C	43.101661	-75.239661
Ziebart	D	43.090159	-75.215002
Shade_Bar_&_Grill	B	43.101156	-75.232512
Visionworks	A	43.113913	-75.207221
Sunoco	C	43.093074	-75.247703
Dunkin'	B	43.090331	-75.221925
Harry's_Brake_Service_&_General_Repair	D	43.110205	-75.262786
Mungari_Joseph_A	A	43.094465	-75.286625
Jimmy_John's	B	43.101697	-75.229952
Sherwin-Williams	C	43.088	-75.260484
AAA_Welch's_Bicycle_&_Ski_Shop	C	43.106676	-75.247661
Lawrence_Gilbert	A	43.091302	-75.258293
Styles_by_Renee	B	43.112804	-75.26382
Maria's_Pasta_Shop	C	43.074413	-75.267705
Sammy_and_Annie_Foods	B	43.098221	-75.21702
Uptown_Theatre_for_Creative_Arts	A	43.086565	-75.262136
Mohawk_Valley_Medical_Acupuncture	A	43.098348	-75.238147
Valley_View_Golf_Course	B	43.07606	-75.237761
Sunoco	C	43.115856	-75.209614
Utica_Access_Site	A	43.099469	-75.223638
Mvcaa_Inc_Ney_Ave_Head_Start	A	43.10606	-75.265159
M_J_Auto	D	43.087374	-75.23213
Lafountain_Chiropractic	A	43.08088	-75.288959
Ivins_Rhea_MD	A	43.083952	-75.268126
Utica_General_Peterbilt_North_Utica	C	43.133913	-75.219637
Mayflower_Chinese_Restaurant	B	43.113548	-75.205202
Phu_Quoc	B	43.098881	-75.218987
Turning_Point_Church	A	43.103348	-75.23675
McPike_Addiction_Treatment_Center	A	43.105824	-75.25485
Haider_Nameer_R_MD	A	43.084079	-75.267798
Dominican_Barber_Shop	B	43.098286	-75.217329
Shop_and_Go	C	43.097234	-75.215079
Kaashmiri_Mohammed_MD	A	43.083945	-75.26814
Seventh_Day_Adventist_Church	A	43.110324	-75.184388
Smartlifecycles_Wellness_Store	B	43.095571	-75.237556
North_Utica_Park	B	43.115351	-75.170369
Johnson_Park	B	43.09164	-75.236703
BGM_Supply	C	43.089553	-75.225735
7_Solutions_Cleaning_Service	D	43.084918	-75.213758
Cheron_Robert_G_MD	A	43.082626	-75.269493
Mohawk_Valley_Community_Action_Inc	A	43.082656	-75.263017
Ruznic_Market_&_Restaurant	C	43.094243	-75.2147
R_S_Auto_Sales	C	43.109089	-75.248928
1_First_Evolution_Nutrition_Club	A	43.092313	-75.214808
Willie's_Bagel_Cafe	B	43.112851	-75.21553
Price_Chopper_New_England	C	43.114008	-75.208039
Troya_Motor_Cars	C	43.18189	-75.183493
FMN_Creative	C	43.102653	-75.224681
Babe's_Macaroni_Grill_&_Bar	B	43.106889	-75.220948
Denicola_Photography	A	43.099427	-75.232824
Godecki_Mark_A_MD	A	43.093393	-75.270297
Twin_Cities_Collision	D	43.102184	-75.220164
Pie_Squared_Utica	B	43.09585	-75.249785
Parkway_Drugs	A	43.113076	-75.205817
Mid_York_Library_System	B	43.09447	-75.257177
BJ's_Wholesale_Club	C	43.126643	-75.222545
Swifty's_Restaurant_&_Pub	B	43.099164	-75.235102
Primary_Urgent_Care	A	43.08757	-75.259861
Presbytery_of_Utica	A	43.0914	-75.250245
MacIsaac_Hugh_C_MD	A	43.083146	-75.267805
Precision_Stereo_Repair	C	43.175356	-75.202188
Mobile_Mini	C	43.1131	-75.266013
Holiday_Inn_Express	B	43.10959	-75.221463
Avico_Distributing	C	43.100215	-75.214314
Mannava_Venkata_R_MD	A	43.114231	-75.205485
Believers_Miracle_Deliverance_Ministries	A	43.094032	-75.233801
Nail_Creek_Pub_&_Brewery	B	43.103659	-75.243741
McDonald's	B	43.124155	-75.225739
Varma_Prabhat_K_MD	A	43.083155	-75.267805
Papandreas_Automotive	D	43.116813	-75.210865
Dollar_General	C	43.092392	-75.220593
OMNI_Surgery_Center	A	43.086554	-75.278282
Casper_Chiropractic	A	43.118541	-75.210979
A_1_Auto_Parts	C	43.113696	-75.242804
Grossman's_Bargain_Outlet	C	43.105219	-75.26909
Cricket_Wireless	C	43.08785	-75.260152
Chophouse_by_Chesterfield	B	43.102432	-75.231065
Price_Chopper_New_England	C	43.086513	-75.259442
Motus	B	43.100592	-75.23342
Kawasaki_Motors	C	43.112447	-75.261721
Sickenberger_Lane	B	43.104281	-75.242128
North_End_Pizza_and_Tap	B	43.114259	-75.209032
Field_of_Dreams_Sports_Complex	B	43.096267	-75.141948
St_John's_Episcopal_Church	A	43.101003	-75.227347
Cricket_Wireless	C	43.101068	-75.232384
Dulkin_Oleg	A	43.117081	-75.210731
Red_Raven_Tattoo_and_Piercing	B	43.101702	-75.229779
One_Realty_Partners	C	43.103184	-75.228266
Squal's_Trapping_Supplies_&_Wildlife_Control	D	43.184571	-75.17819
Domser_Ira_L_DDS	A	43.116008	-75.208971
Utica_Fire_Department_Station_6	A	43.097412	-75.233634
Number_1_Chinese_Restaurant	B	43.091211	-75.222768
Francis_Eye_and_Laser_Center	A	43.093991	-75.286492
Arby's	B	43.087408	-75.258617
Hearth_&_Homes_USA	C	43.125646	-75.236513
Herbowy_Daniel_G_Dr_Poditrst	A	43.09445	-75.286633
Urbanik's_Paint_&_Wallpaper	C	43.110247	-75.251924
Betro_Shkane_Julie_DO	A	43.081017	-75.205956
Kodsy_Raouf_A_Md	A	43.089508	-75.256131
Best_Western	B	43.11063	-75.219384
Sassower_Michael_MD	A	43.082099	-75.266143
Gilbert_Lawrence_Md	A	43.091264	-75.258302
Kernan_Park	B	43.088989	-75.207749
Palermo_Pizzeria	B	43.095519	-75.242809
St_Elizabeth_Medical_Group	A	43.081029	-75.205952
Upstate_Cerebral_Palsy_Inc_New_Discoveries_Learning_Center	A	43.079768	-75.211005
Longo's_Auto_Services	D	43.104353	-75.249171
Cafe_plus	B	43.096045	-75.21162
City_Liquors	C	43.086637	-75.257991
Fastrac	B	43.087165	-75.250342
Castlewood_Cafe	B	43.104572	-75.269582
Martin_Luther_King_Jr_Elementary_School	A	43.091291	-75.234838
Meraki_Nails_By_Angela	B	43.102456	-75.221563
Utica_Safe_Schools_Healthy_Students_Partnership_Inc	A	43.082678	-75.263042
Mohawk_Valley_Community_Action_Agency_Incorporated_Head_S	B	43.096631	-75.219957
Rosemont_Inn	B	43.093933	-75.245601
D_&_D_Auto_Body	D	43.09259	-75.215708
Weight_Watchers	B	43.118221	-75.213685
Bernard's_Boxing_Academy	B	43.10218	-75.243285
Tasty_Treat	B	43.1182	-75.209053
F_T_Proctor_Park	B	43.08856	-75.19601
Ziebart	D	43.110249	-75.252392
123_Credit_Restoration	C	43.097913	-75.237733
Black_Rice_Sushi_&_Thai	B	43.098655	-75.218267
Easy_Auto_Glass	C	43.099666	-75.247041
Commercial_Travelers_Mutual_Insurance	C	43.104077	-75.227497
Urbaniks_Paint_&_Wallpaper_Co	C	43.104119	-75.2384
The_Neighborhood_Center_Inc	A	43.09732	-75.220509
Jamison_Virtual	C	43.079487	-75.276128
AT&T	C	43.112398	-75.214675
Lyon_Albert	A	43.083935	-75.26814
Carbone_Insurance_Agency	C	43.13681	-75.217447
Deerfield_Elementary_School	A	43.133274	-75.211112
Stathis_Greek_Restaurant	B	43.087711	-75.259578
Seif_Steven_G_DDS	A	43.077881	-75.276642
Tony's_Pizzeria_Burrstone_Rd	B	43.089957	-75.258343
Mohawk_Valley_Cardio_Thoracic_Surgeons_PC	A	43.083137	-75.267792
Kossuth_Fish_Market	C	43.09763	-75.210367
Greyhound	E	43.104213	-75.223548
Fastrac	B	43.110318	-75.180129
Lighthouse_Baptist_Church	A	43.094315	-75.212404
Mohawk_Valley_Community_College	A	43.076145	-75.218185
Lowe's	C	43.126226	-75.224228
Women's_&_Children's_Health_Center	A	43.083942	-75.268132
Planet_Fitness	B	43.127313	-75.223196
Western_Union	C	43.11025	-75.255667
Gigliotti's_Utica_Driving_School	C	43.096071	-75.24179
Kashtanova_Yekaterina_Md	A	43.091294	-75.258273
NBT_Bank	C	43.099239	-75.236518
Shaheen_Brothers	C	43.106247	-75.247517
Juliano_Farms	D	43.096925	-75.146027
Pixley_Park	B	43.10215	-75.263484
The_Neighborhood_Center_Inc	A	43.097821	-75.220843
St_Georges_Roman_Catholic_Church	A	43.104994	-75.241626
Fabulous_Mini_Mart	C	43.094101	-75.248593
Utica_Academy_Of_Science_Charter_School	A	43.099242	-75.245762
Automatio_Experts	D	43.092503	-75.183473
Tramontane_Cafe	B	43.100027	-75.242143
Saint_Elizabeth_College_Of_Nursing	A	43.082588	-75.266371
Bei_Jing_House	B	43.093335	-75.248672
Character_Coffee	B	43.101546	-75.230049
STS_Tire_&_Auto_Centers	D	43.111126	-75.256075
DoubleTree_by_Hilton	B	43.102462	-75.231063
Saranac_Brewery_Matt_Brewing_Co	D	43.104526	-75.245674
Western_Union	C	43.090139	-75.213011
Discount_Automobile	C	43.108972	-75.248729
Noyes_Street_Alignment_and_Brake	C	43.096822	-75.249102
St_Elizabeth_College_Of_Nursing	A	43.082506	-75.26799
Suny_IT	A	43.139121	-75.219762
Moe's_Southwest_Grill	B	43.10725	-75.220541
Utica_College	A	43.097517	-75.270265
R.E._Michel	C	43.105385	-75.22063
Beacon_Center	A	43.09299	-75.249024
Outta_the_Way_Cafe'	B	43.09902	-75.231398
North_Utica_Medical_Office	A	43.117141	-75.213295
Advanced_Automotive_Sales	C	43.091977	-75.195985
Two_Brother's_Cafe_And_Pizzeria	B	43.081141	-75.21733
Henry's_Auto_Sales	D	43.10755	-75.243778
CITGO	C	43.116329	-75.211503
Pathway_of_PEARLS	C	43.099764	-75.152373
Slocum_Dickson_Medical_Group	A	43.098019	-75.275387
Dental_Arts	A	43.098401	-75.237932
Speedway	C	43.108921	-75.219043
St_John's_Catholic_Church_Rectory_Historic	A	43.10047	-75.227703
Curves	B	43.126405	-75.236613
Alpine_Restaurant	B	43.096896	-75.216315
Christopher_Columbus_Elementary_School	A	43.07985	-75.219839
Clemente_Novelties	C	43.102708	-75.23368
Piano_Lab	C	43.126186	-75.235944
Evelyn's_House	C	43.083934	-75.269898
Rite_Aid	A	43.087539	-75.260806
Ravangard_Firooz_MD_PC	A	43.096732	-75.276128
Allstate_Insurance	C	43.116087	-75.209317
Econo_Lodge	B	43.114149	-75.213914
Albany_Elementary_School	A	43.086349	-75.209486
St_Elizabeth_Medical_Center	A	43.082258	-75.266488
Tucci_Maria_Beautcn	B	43.079095	-75.277053
Burger_King	B	43.11423	-75.205548
Breezes_Banquet_&_Events_Center	B	43.109644	-75.212708
The_Cellular_Shop_Utica	C	43.112424	-75.214661
Nassif_Ramzi_Md	A	43.0911	-75.258081
St_George_Orthodox_Church	A	43.093899	-75.227578
Bank_of_Utica	C	43.100833	-75.232955
KeyBank	C	43.090804	-75.221448
Zaro_Bosnian_Restaurant	B	43.089047	-75.222659
Black_Cat_Bar_&_Grill	B	43.085603	-75.279779
Utica_Acupuncture	A	43.08423	-75.265316
F_M_Collision	D	43.089656	-75.211788
Jacoby_Appliance_Parts	C	43.105617	-75.271095
Jweid_Albert	C	43.098606	-75.227762
Chester's_Flower_Shop_&_Greenhouses	C	43.102351	-75.254201
Puro	B	43.094403	-75.220274
Gerber's_1933_Tavern	B	43.103228	-75.228665
Mvcaa_Inc_Cornerstone_Head_Start	A	43.095381	-75.232691
Alan_Byer_Foreign_Auto	D	43.132446	-75.221037
Bosnian_Islamic_Association_of_Utica	A	43.100497	-75.235491
Stanley_Restaurant	B	43.102332	-75.242032
Utica_School_Of_Commerce	A	43.101743	-75.228629
Cutting_Crew	B	43.1139	-75.207531
Jeffery_Wells_Ameriprise_Financial_Services	A	43.084189	-75.203247
Thea_Bowman_House_Inc	A	43.105195	-75.241306
LabCorp	A	43.087743	-75.260031
Hampton	B	43.108921	-75.216644
Planned_Parenthood	A	43.09422	-75.246769
Collinite_Cheml_Co	D	43.096046	-75.253265
Stevens_Swan_Humane_Society	C	43.135529	-75.218615
Zalatan_Dental	A	43.078849	-75.275932
Irwin's_Fine_Food	B	43.100567	-75.233405
Walgreens	A	43.08862	-75.258534
Little_Caesars	B	43.091874	-75.222361
Children's_Museum_Of_Natural_History	B	43.104216	-75.224051
Epilepsy_Services	A	43.093703	-75.246089
Hanger_Prosthetics_&_Orthotics	C	43.09838	-75.237928
SherDoHair	B	43.081424	-75.27226
Southern_Tier_Dermatology_&_Aesthetics	A	43.091659	-75.288243
Street_Corner	C	43.101676	-75.229968
WellNow_Urgent_Care	A	43.11252	-75.215237
La_Bella_Toni_Massage_Therapist	B	43.084237	-75.265311
Court_View_Luncheonette	B	43.10075	-75.229012
Nassif_Ramzi_F	A	43.091081	-75.258089
US_Care_Systems	B	43.078944	-75.277405
Cashion's_Collision	D	43.093718	-75.259264
Utica_Custom_Shirts	C	43.104284	-75.23977
Thomas_John_MD	A	43.08443	-75.266464
Schuyler_Antiques	C	43.098602	-75.151171
Wassel_Emile	A	43.091269	-75.258294
Craylee's	B	43.101411	-75.227422
The_Hub_Eatery	B	43.101283	-75.228403
Lee_Debra_DO	A	43.09316	-75.241357
Radiology_Associates_of_New_Hartford	A	43.101331	-75.230547
Anand_I_Desai_MD_PC	A	43.096903	-75.276634
First_Niagara_Bank	C	43.114521	-75.209836
Utica_Fire_Department_Station_3	A	43.084232	-75.225257
Utica_Lincoln_Garage	D	43.093625	-75.259192
Upstate_Cerebral_Palsy	A	43.077145	-75.264121
United_Church_Nursery_School	A	43.096752	-75.242595
Quick_Lane	C	43.13754	-75.215809
Walmart	C	43.123551	-75.225764
Fastrac	B	43.109916	-75.251177
Taco_Bell	B	43.108135	-75.2197
Rite_Aid	A	43.089895	-75.221614
First_Baptist_Church_of_Utica	A	43.114258	-75.201989
Gigliotti_Siegfried_and_Associates	C	43.085129	-75.263605
Genesee_Street_Citgo	C	43.093052	-75.247646
Western_Union	C	43.113367	-75.205498
Mohawk_Valley_Imaging_PC	A	43.08229	-75.265644
American_Auto_Parts	C	43.092609	-75.21565
Utica_District_Tel_Employee's_Federal_Credit_Union	C	43.075263	-75.284947
Family_Dollar_Stores	C	43.080447	-75.207216
Sunset_Anesthesia_Associates_Pain_Mngmnt	A	43.091082	-75.258084
Western_Union	C	43.086461	-75.259826
Ohio_Baking	E	43.093928	-75.200062
Class_Advisors	A	43.080581	-75.273962
United_States_Postal_Service_(USPS)	C	43.094477	-75.18559
Kirkpatrick_Daniel_OD	A	43.097617	-75.237929
Sprague's_Collision_Center	D	43.09372	-75.193448
Watson_Williams_Elementary_School	A	43.087397	-75.243218
Jewish_Community_Center_Preschool	A	43.077108	-75.264709
Arrow_Auto_Glass	C	43.101217	-75.225292
Off_Center_Records_&_Collectibles	C	43.101778	-75.229563
Masi_Carlo_Fruits_&_Vegetables_Wholesale	C	43.107345	-75.218979
Jackson_Hewitt_Tax_Service	A	43.089005	-75.222474
John_F_Hughes_Elementary_School	A	43.082674	-75.263033
Karl's_Mkt	C	43.096414	-75.2493
Gaffney_Brian_J_MD	A	43.083155	-75.2678
Davis_David_P_Auto_Sal	C	43.10226	-75.241465
Bohling's_Auto_Service	C	43.086228	-75.238284
Haylor_Freyer_&_Coon	C	43.091047	-75.278951
Primerica	A	43.117538	-75.210658
One_Caring_Place_Plus	B	43.089772	-75.212555
Come_Into_Jamaica	B	43.093688	-75.236489
Domser_Mark_A_Dr_DDS	A	43.116022	-75.208945
Tradewinds_Education_Center	A	43.081697	-75.214061
New_Hartford_Psychological_Services	A	43.081597	-75.270334
Big_Lots_Stores	C	43.113302	-75.205541
Tavolo	B	43.109155	-75.220199
The_Unlimited_Salon	B	43.117978	-75.209714
Hugh_R_Jones_Elementary_School	A	43.074265	-75.27175
Western_Union	C	43.089591	-75.221979
St_Basils_Melkite_Catholic_Church	A	43.081494	-75.222577
Joey's_Auto_Detail_Shop	D	43.110244	-75.259349
American_Job_Centers	B	43.100413	-75.23174
Sheri's_Eastside_Diner	B	43.088717	-75.186107
Retrouvaille_Community	A	43.125975	-75.195359
Hannaford_Plaza	C	43.090732	-75.223476
Smith_Carolyn_RPA	A	43.081024	-75.205991
Loretto_Utica_Center	B	43.093165	-75.241435
State_Farm	C	43.086895	-75.264734
W_B_Payne_Co_Inc_Friedlander_Insurance_Agency	C	43.08419	-75.265521
Insight_House_Chemical_Dependency_Services	B	43.106115	-75.235991
Gemini_Pets_And_Things	C	43.07739	-75.280262
Western_Union	C	43.093509	-75.22078
Bargain_Grocery	C	43.10036	-75.242554
Adirondack_Bank	C	43.074571	-75.284476
Empire_State_College_State_University_of_New_York	A	43.100485	-75.231752
Karl_Ermisch_Photography	A	43.077171	-75.280724
Ultimate_Auto_Sales_and_Repair	C	43.101688	-75.220893
Herrera_Sabor_Latino	B	43.100738	-75.22508
Larissa_Creedon_LMT_LC_Massage_Therapy	B	43.084974	-75.26541
Hobaica_Podiatry	A	43.081344	-75.270862
Sunset_Anesthesia_Associates	A	43.091094	-75.258081
Citi_Trends	C	43.089608	-75.221183
Health_&_Happiness_Unlimited	A	43.105243	-75.265293
Riverside_Center	C	43.12669	-75.22423
Family'grocery	C	43.096159	-75.21005
CosmoProf	C	43.113961	-75.207809
Pulaski_Meat_Mkt	C	43.100288	-75.251585
Jeffrey_Coy_Jr_DDS	A	43.086126	-75.262951
Western_Union	C	43.092425	-75.220451
Utica_Bread	E	43.103231	-75.227897
Denny's	B	43.109858	-75.217886
North_Utica_Shopping_Center	C	43.114473	-75.208115
Utica_Dental_Laboratory	A	43.097905	-75.239271
Rosario's_Pizzeria_East_Utica	B	43.081138	-75.206374
Anthony's_Tv_&_Vcr_Service	C	43.097032	-75.219228
Emad_Jamal_MD	A	43.090111	-75.253313
Bella_Vita_Salon_&_Massage_Therapy	B	43.117089	-75.211465
ServiceMaster	D	43.093244	-75.202387
Bethany_Presbyterian_Church	A	43.093794	-75.214994
Mohawk_Valley_Nurse_Practitioners	A	43.093817	-75.280974
M&T_Bank	C	43.116925	-75.210015
Caruso's_Pastry_Shoppe	B	43.098318	-75.217441
Old_School_Bar_&_Grill	B	43.090184	-75.198803
The_Tailor_and_the_Cook	B	43.103452	-75.227652
Notre_Dame_Elementary_School	A	43.083131	-75.270204
The_Willows	B	43.088105	-75.200146
Patterson_Richard_A_DO	A	43.086664	-75.257225
Whitesboro_Frame_&_Body	D	43.096814	-75.251535
PriceRite	C	43.099868	-75.221429
Deliverance_First_Ministries_Church_Of_The_Living_God	A	43.101563	-75.245288
In_Tune_Automotive	D	43.103182	-75.246487
KFC	B	43.108451	-75.219379
Basloe_Levin_&_Cucaro_Adjusters_International	C	43.092825	-75.284635
Grace_Church_Parish_Ofc	A	43.100851	-75.231215
Hair_East	B	43.086914	-75.219384
Western_Union	C	43.11448	-75.206446
Johanne's_Coffee_&_Coin_Shop	C	43.094128	-75.228155
Subway	B	43.110143	-75.21765
Beijing_House	B	43.093385	-75.248572
Mozdzen_Auto	C	43.095711	-75.210896
McQuade_&_Bannigan	C	43.098463	-75.250513
Lafountain_Thomas	A	43.080859	-75.288953
Community_Health_&_Behavioral_Senvices	A	43.093703	-75.246233
Maria_Horan_&_Associates	A	43.078251	-75.279049
Cliff's_Local_Market	C	43.08057	-75.206385
Potluri_Sudhir_C_MD	A	43.097973	-75.279123
Franco's_Pizza_&_Italian_Deli	B	43.116891	-75.210714
Merrill_Lynch	A	43.091034	-75.278955
Supercuts	B	43.08528	-75.281943
Whitesboro_Fd_Memorial_Field	B	43.126944	-75.301744
Bella_Regina	B	43.100105	-75.233404
Sports_Unlimited	C	43.134983	-75.218848
Lincare	B	43.104587	-75.269587
Advantage_Abstract_Company	C	43.099667	-75.235292
Utica_Mutual_Insurance_Ero	C	43.102059	-75.232716
Cortese_Eyecare	A	43.080259	-75.273265
Regional_Chest_Pain_Ctr_of_St_Elizabeth_Medicl_Ctr	A	43.082252	-75.265638
Endodontic_Associates_PC	A	43.091076	-75.278949
Inertia_Occupational_and_Physical_Therapy_Services	A	43.100585	-75.240335
Fastrac	B	43.08823	-75.259405
Krispy_Krunchy_Chicken	B	43.095182	-75.242484
Centrex_Clinical_Laboratories	A	43.082598	-75.269532
H&R_Block	A	43.113932	-75.207129
A_A_Jewelry_Buyers_&_Swap_Shp	C	43.094146	-75.228154
Utica_Cutlery_Company	C	43.097989	-75.24873
Aversa_Photography	A	43.120515	-75.206841
Golden's	B	43.100566	-75.233481
K&K_Dance_Wear	C	43.117085	-75.211426
Lava_Spa	B	43.076307	-75.28081
Lichtmans_Wine_&_Liquor	C	43.114241	-75.208665
U-Haul	C	43.111416	-75.262398
McDonald's	B	43.089225	-75.25717
Butala_Atul_MD_F_A_C_P	A	43.091059	-75.258096
LC_Massage_Therapy	B	43.085006	-75.26539
Western_Union	C	43.114079	-75.208356
Marhamati_Darius_J_MD	A	43.08316	-75.267821
Massouds_Cafe	B	43.099849	-75.233209
Syracuse_Motor_Parts	C	43.10369	-75.228143
Physicians_Referral_Service_of_St_Elizbth_Mdcl_Ctr	A	43.084463	-75.266489
Rao_C_P	A	43.10833	-75.267896
Critical_Imaging_LLC	B	43.084989	-75.288997
The_Cutting_Edge_Salon	B	43.099717	-75.152461
Bueno_Deals	C	43.09839	-75.218949
Securitas	B	43.102278	-75.23929
Focus_Rehabilitation	B	43.093128	-75.241417
Tha_Bakery_Music	C	43.082422	-75.256194
U_Haul_Moving_&_Storage_of_West_Utica	C	43.111428	-75.262415
Central_Market_Florist	C	43.086375	-75.259834
Roll_Corporation_Supermarket	C	43.088895	-75.234738
Mvcaa_Inc_Calvary_Head_Start	A	43.094871	-75.230762
Thea_Bowman_House_Inc	A	43.09683	-75.239763
Easy_Pass	C	43.092331	-75.230749
Top_of_the_Morning_Cafe	B	43.117689	-75.210155
Mvcaa_Inc_Nd_Peters_Head_Start	A	43.079192	-75.211459
Tribute_to_Heritage_Tattoo_Parlor	B	43.077157	-75.280723
Adirondack_Behavioral_Health_Center	A	43.091303	-75.187911
Comeskey_Vintage_&_Classic_Cars	C	43.096102	-75.246688
Better_Health_Chiropractic	A	43.085934	-75.263355
Shah_Mukesh_D_MD	A	43.096731	-75.276131
Utica_Fire_Department_Station_4	A	43.089221	-75.260202
Paradigm_Consulting	C	43.094555	-75.285995
Utica_Fire_Department_Station_5	A	43.115658	-75.204198
Utica_General_Truck_Co	C	43.133912	-75.219639
Utica_Memorial_Auditorium	A	43.105016	-75.233518
Uptown_Anesthesia_Assoc	A	43.081016	-75.27178
Joey's_Pizzeria	B	43.084832	-75.235915
Which_Pain_Killer_Medicine_Is_Best_for_Instant_Pain	B	43.101016	-75.232501
Nimey's_The_New_Generation	D	43.093718	-75.193279
Bossone's_Sausage_&_Meat	C	43.098288	-75.217298
Donald_A_Flihan_DDS_MD	A	43.082085	-75.287966
Delmonico's_Italian_Steakhouse	B	43.109335	-75.219693
Utica_International_Adventist_School	A	43.11037	-75.184353
Sing_Ong_TAI_CHI_International_&_Hup_Taekwondo	B	43.104616	-75.269599
El_Barajo_Restaurant	B	43.098192	-75.218114
Tony's_Italian_Bakery_Deli_&_Pizza	E	43.09218	-75.196811
Notre_Dame_Junior_Senior_High_School	A	43.092602	-75.282743
Russell_Williams_DC	A	43.080864	-75.288942
Tattoo_U_Studio	B	43.098821	-75.218809
Champlin_Commons	C	43.104707	-75.26993
U_Haul_Moving_&_Storage_Of_Utica	C	43.084247	-75.288677
Joe's_Restaurant	B	43.09672	-75.208919
Days_Inn	B	43.108982	-75.218336
Tinger_Alfred	A	43.091075	-75.258096
Tiger_Lily_Quilt	C	43.10207	-75.24531
St_Regis_Medical_Equipment	A	43.10064	-75.22853
L_&_D_Automotive	D	43.109494	-75.25009
Rescue_Mission_Of_Utica	B	43.097162	-75.231268
Aaron's	C	43.089584	-75.221452
Green_Onion_Pub	B	43.086527	-75.262307
Brown_&_Associates_CPAS_PC	A	43.099733	-75.235459
Boost_Mobile	C	43.095323	-75.243187
Broad_Street_Cash_&_Carry	C	43.100407	-75.214053
City_Sweets_Bakery	E	43.103315	-75.223479
Salerno's_Auto_Sales	C	43.110481	-75.260863
Boneyard_BBQ's	B	43.083365	-75.277484
Roso's_Cafe	B	43.101359	-75.230539
Empire_City	B	43.103376	-75.24686
Cars4Charities	C	43.098383	-75.237933
ADHD_Autism_and_Psychological_Services	A	43.092099	-75.284603
Colette_M_Griffith_LMT	B	43.085012	-75.265399
Karen's_Groom_Room	C	43.126128	-75.236018
Grimaldi_Auto_Sales	C	43.093178	-75.260739
Roscoe_Conkling_Elementary_School	A	43.091346	-75.220919
The_Stief	B	43.104311	-75.241984
Ezra's_Energy	C	43.10257	-75.22979
Ruff_Gordon_James_DDS	A	43.085565	-75.264053
Fort_Schuyler_Club_House	A	43.099898	-75.234903
The_Celtic_Harp_Restaurant_and_Pub	B	43.103224	-75.243848
Cooperative_Magnetic_Imaging	A	43.090605	-75.281275
Temple_Beth_El	A	43.076734	-75.282006
Royal_Imports	B	43.084207	-75.208514
Utica_School_Of_Commerce	A	43.101691	-75.228198
Medical_Arts_OB_Gyn_P_C	A	43.09341	-75.270296
Eagle_Express_Smoke_Shop	C	43.086518	-75.218705
Sally_Beauty_Supply	A	43.091089	-75.223651
Cellular_Shop_Singular_Wireless	C	43.073364	-75.222444
General_Herkimer_Elementary_School	A	43.11178	-75.178418
Little_Roma_Pizza_&_Catering	B	43.084829	-75.282479
Western_Union	C	43.092067	-75.221113
Fred_Jacobs_Auto_&_Brake_Service	D	43.09873	-75.226693
Sickenberger_Lane	B	43.104322	-75.242174
Cooperative_Magnetic_Imaging	A	43.081984	-75.266356
Rocky's	B	43.126156	-75.224128
Lock_20_State_Canal_Park	B	43.143726	-75.294131
Daniele_'s	B	43.081987	-75.228926
Belen_Dental	A	43.077972	-75.279251
Our_Saviour_Lutheran_Church	A	43.089997	-75.255662
ALDI	C	43.116136	-75.207668
Raspberries_Cafe_of_Utica	B	43.077542	-75.280001
Freeway_Insurance_Services	C	43.096433	-75.241868
Commumity_SDA_Church	A	43.097024	-75.237519
Dick_Smith's_Tavern	B	43.098302	-75.251464
Morning_Star_Christian_Merchandiser	C	43.102983	-75.241616
E_Z_Tax_Service	A	43.108396	-75.136178
K_9_Obedience_Training	B	43.109009	-75.10086
American_Red_Cross	A	43.094318	-75.244837
Hair_Reflections	B	43.092035	-75.206552
Berg_Daniel	A	43.082193	-75.267227
Donna_Marie's_Bridal_Shoppe	C	43.082178	-75.228768
Hometown_Bait_&_Tackle	C	43.126409	-75.236205
Arlott_Duplicator_Supply	C	43.09887	-75.231482
Nelsons_Detail_Services	D	43.112979	-75.188877
Louis_Rabice_DDS	A	43.094571	-75.244398
Dunkin'	B	43.107842	-75.219935
South_Towne_Plaza	C	43.087372	-75.261041
Family_Dollar_Stores	C	43.087882	-75.257652
Kidney_&_Hypertension_Consultants	A	43.105058	-75.271856
Union_Station_Barber_Shop	B	43.10421	-75.224056
Westside_Dental	A	43.114424	-75.209575
Grand_Harmony	B	43.087298	-75.258993
Vista_Dental_Care_PC_Family_Dentistry	A	43.084611	-75.266067
Proctor_Park	B	43.082206	-75.201905
Peter_G_Carchedi_Clu	C	43.085902	-75.262087
Full_of_Beans_Coffee_Company	B	43.085069	-75.235667
Lukins_Brick_Oven_Pizza	B	43.103942	-75.242753
Cellular_Sales	C	43.125548	-75.224652
Seymour_Park	B	43.090609	-75.261268
Western_Union	C	43.087517	-75.26079
Simmer	B	43.093007	-75.224192
Affiliated	C	43.124838	-75.234274
O'brien_Richard_L_DO	A	43.082593	-75.269538
M_&_M_Hydroponics_&_Garden_Supply	D	43.112937	-75.26601
Salvation_Army_Thrift_Store	C	43.103061	-75.234979
Suny_Polytechnic_Institute	A	43.135462	-75.229794
