occupation	latitude	longitude	zipcode
Whitcomb_Auto_Sales_&_Service	C	43.026392	-74.883242	13365

Deer_Run_Golf_Facility	B	43.091739	-75.397505	13323

Lott_Ralph_W_OD	A	43.093093	-75.279197	13413

Spirit_&_Sanzone_Distributors_Co	C	43.136235	-75.26724	13403

Tommy_Nails	B	43.079278	-75.644507	13421

Plato's_Closet	C	43.082609	-75.323581	13413

Olivia's_Happy_Tails	C	43.026351	-74.98714	13350

Eadline_Stephen_D_MD	A	43.0931	-75.279178	13413

Saint_Mary's_Roman_Catholic_Church	A	43.107567	-75.285009	13417

Stewart's_Shops	C	43.037136	-75.069257	13340

Original_Herkimer_County_Cheese	C	42.998822	-75.05035	13357

Brian_Alessi_MD	A	43.245997	-75.453793	13440

Marcy_Tavern	B	43.166798	-75.291686	13403

Zion_Episcopal_Church	A	43.213006	-75.457879	13440

Rome_Access_Site	A	43.213888	-75.459573	13440

Play_It_Again_Sports	C	43.094833	-75.304913	13413

Luxury_Nails	B	43.026179	-74.985145	13350

Edible_Arrangements	C	43.092187	-75.315728	13413

Rome_Podiatry_Group	A	43.218169	-75.459372	13440

Savicki_Capital	A	43.071146	-75.286439	13413

Ruth_And_Elmer_Wellin_Museum_Of_Art	B	43.05114	-75.409552	13323

Kdk_Sports	C	43.231261	-75.497157	13440

Budget_Mini_Storage	C	43.208245	-75.462467	13440

Giustra_Lauren_MD	A	43.232041	-75.440614	13440

Catholic_Charities_of_Herkimer_County	B	43.014156	-75.038898	13357

Rite_Aid	A	43.097044	-75.302518	13413

Crimmins_Automotive_Sales	C	43.030655	-75.062097	13340

Subway	B	43.082361	-75.315535	13413

H&R_Block	A	43.231278	-75.437321	13440

Tony's_Pizzeria	B	43.021302	-74.991916	13350

Pinti_Field	B	43.208912	-75.442834	13440

The_Frigault_Agency	C	43.071828	-75.327641	13413

Soul_Bowl	B	43.096045	-75.305118	13413

Brass_Tack_Restaurant	B	43.028399	-75.059531	13340

Marks_Lawrence_B_PC	A	43.073037	-75.286693	13413

Rite_Aid	A	43.212855	-75.466198	13440

Humane_Society_of_Rome	C	43.186567	-75.475823	13440

Swan_Pool	C	43.012461	-75.030833	13357

Byrne_Dairy	C	43.079268	-75.373585	13323

LabCorp	A	43.077508	-75.651637	13421

Fall_Hill_Bead_and_Gem	C	43.042799	-74.861081	13365

Oneida_Health_Care_Center	A	43.076491	-75.653559	13421

Allen_Park	B	43.082104	-75.647461	13421

Adirondack_Vapor	C	43.074233	-75.287769	13413

Sunoco	C	43.09368	-75.276219	13413

Pierz_Joseph_J_MD	A	43.088763	-75.643146	13421

Billy_Beez	B	43.083122	-75.315209	13413

Skate_A_While	B	43.209515	-75.463431	13440

Niki_Marie's_Salon	B	43.01539	-75.036809	13357

Barnes_and_Noble	C	43.0952	-75.306218	13413

Mohawk_Valley_Urology_PC	A	43.23115	-75.443408	13440

Dorfman_Ava_Senior_Citizens_Civic_Center	A	43.222733	-75.443852	13440

Barringer_Road_Elementary_School	A	43.008873	-75.057201	13357

Stewart's_Shop_377	C	43.303007	-75.472439	13440

Patrick_Chester_L_Jr_MD	A	43.216946	-75.456815	13440

CVS	A	43.08378	-75.31599	13413

St_Francis_De_Sales_Regional	A	43.025769	-74.991855	13350

Subway	B	43.214282	-75.451223	13440

Sunoco	C	43.020417	-74.991371	13350

Allstate_Insurance	C	43.220132	-75.448043	13440

Anken_Mark_C_Dr_Chiropractor	A	43.242838	-75.455555	13440

VarilityX3	B	43.059398	-75.424435	13323

M&T_Bank	C	43.03818	-75.070151	13340

Junior_Junction_Inc_At_St_Luke's_Memorial_Hospital_Center	A	43.094755	-75.277434	13413

Glenwood_Plaza	C	43.076403	-75.643372	13421

America's_Best_Contacts_&_Eyeglasses	A	43.093071	-75.309447	13413

Mvcaa_Inc_Sauquoit_Head_Start	A	42.989597	-75.258159	13456

Arby's	B	43.026887	-74.981497	13350

Weight_Watchers	B	43.029811	-75.061416	13340

Oneida_Savings_Bank	C	43.094046	-75.651603	13421

NAPA_Auto_Parts	C	43.217197	-75.474813	13440

First_United_Presbyterian_Church	A	43.045105	-74.858799	13365

Appearance's_Salon	B	43.239828	-75.437348	13440

Carney's_Corners	B	43.028586	-74.986542	13350

Utica_Mutual_Insurance	C	43.076986	-75.304139	13413

Peter's_Cornucopia	A	43.077219	-75.295676	13413

Express	C	43.082657	-75.316235	13413

Honey_Brook_Hobbies	C	43.013846	-75.035778	13357

Oneida_Senior_High_School	A	43.080539	-75.654411	13421

Slocum_Dickson_Medical_Group_PC	A	43.093089	-75.279202	13413

Kings_Buffet	B	43.225004	-75.483869	13440

Delta_Lake_Bible_Conference_Center	B	43.294555	-75.461074	13440

Mobil	C	43.017065	-74.803452	13365

Burger_King	B	43.024817	-74.986407	13350

Arby's	B	43.079084	-75.648315	13421

Sorrento's_Pizzeria_&_Restaurant	B	43.017314	-75.033646	13357

Finish_Line_Automotive	C	43.204665	-75.456948	13440

New_York_Mills_Fire_Department_Rescue	A	43.103595	-75.292331	13417

NextGen_Car_Care_Centers	D	43.079004	-75.372231	13323

Medical_Speciality_Center	A	43.044293	-74.848875	13365

Rose_Petals_Florist	C	43.042612	-74.857945	13365

Utica_Coffee_Of_Clinton	B	43.048322	-75.379111	13323

Hampton	B	43.091424	-75.329325	13323

Rome_Pre_Owned_Auto_Sales	C	43.21856	-75.433744	13440

CosmoProf	C	43.089899	-75.311773	13413

Lyndon_H_Strough_Middle_School	A	43.22885	-75.463028	13440

Vince's_U_Pull_It_Auto_Parts_&_Recycling_Center	C	43.177188	-75.322471	13403

Ascend_Resort_Collection	B	43.094024	-75.28453	13413

Robert_A_Dicks_Jr	C	43.097264	-75.296912	13417

Franklyn'S_Field	B	43.224017	-75.445975	13440

Larkin_Richard_S_Dr	A	43.218193	-75.45941	13440

Mount_Hope_Reservoir_Park	B	43.060244	-75.65119	13421

Briggs_Bucciero_and_Smith_Agency	C	43.004789	-75.256867	13456

NBT_Bank	C	43.04986	-75.378768	13323

Zumiez	C	43.082982	-75.315242	13413

The_Fireside_Sunny's_Kitchen	B	43.07805	-75.665173	13421

Associated_Medical_Professionals_Of_Ny	A	43.231315	-75.443285	13440

AT&T	C	43.095585	-75.309603	13413

Suburban_Propane	A	43.131823	-75.253462	13403

Tony's	B	43.082689	-75.323185	13413

Blueberry_Hill_Farms_&_Nursery	D	43.022626	-75.430756	13323

Mian_Ahmad_S_MD	A	43.090544	-75.279884	13413

Praxair	C	43.13519	-75.263238	13403

Dunkin'	B	43.097986	-75.301347	13417

Dunkin'	B	43.224416	-75.486319	13440

Indian_Castle_Travel_Plaza	C	43.043523	-74.859659	13365

Oneida_Castle_Village_Park	B	43.080102	-75.63573	13421

United_States_Postal_Service_(USPS)	C	43.13994	-75.276048	13403

Alterations_at_Barb's_&_Custom_Sewing	C	42.996471	-75.09684	13340

Jamrock's_Island_Breeze	B	43.023654	-74.98851	13350

Applebee's	B	43.233302	-75.436785	13440

First_Niagara_Bank	C	43.055249	-75.277491	13413

Jo-Ann_Fabric_and_Craft_Stores	C	43.0767	-75.294474	13413

Adirondack_Veterinary_Service	A	43.247981	-75.523759	13440

Village_Tennis_Courts	B	43.023447	-74.996648	13357

Lutheran_Care	A	43.056289	-75.364327	13323

Villas_of_Sherman_Brook	B	43.03874	-75.359206	13323

Cliff's_Local_Market	C	43.005644	-75.25582	13456

Gigliotti's_Utica_Driving_School	C	43.027279	-74.980173	13350

Oneida_Pediatrics_Group_PC	A	43.088206	-75.646996	13421

Tractor_Supply_Co.	C	43.225131	-75.488193	13440

Trinity_Episcopal_Church	A	43.214464	-75.459022	13440

Walgreens	A	43.097787	-75.303493	13413

Rome_Medical_Group	A	43.234351	-75.43793	13440

Quest_Diagnostics	A	43.23084	-75.437629	13440

Presbyterian_Homes_&_Service	B	43.073655	-75.341734	13413

Oneida_Floral_&_Gifts	C	43.09425	-75.651743	13421

NAPA_Auto_Parts	C	43.079142	-75.644547	13421

Kirk_Automotive	C	43.210631	-75.465194	13440

Hardscrabble_Wind_Power_LLC	E	43.112244	-74.878892	13365

United_States_Postal_Service_(USPS)	C	43.038569	-75.070641	13340

Bella_Cucina	B	43.083685	-75.322238	13413

Seedat_Mohammed_S_MD	A	43.222151	-75.444673	13440

Sleeper_Richard_M_MD	B	43.055706	-75.280202	13413

Allstate_Insurance	C	43.016511	-75.039258	13357

Tucciarone_Michael	A	43.040691	-75.391308	13323

Kwik_Fill	C	43.097131	-75.653529	13421

Alexander_Home_Supply	C	43.13594	-75.278538	13403

SavOn	C	43.03978	-75.622229	13421

Hall_Financial_Services	A	43.229395	-75.438714	13440

Hughes_Elementary_School	A	43.061088	-75.258695	13413

Green_n_Wave	B	43.082387	-75.314973	13413

GameStop	C	43.076169	-75.641634	13421

Sacred_Eagle_Tattoos	B	43.016832	-75.034233	13357

Nail_&_Hair_Enterprise_by_Trina	B	43.077133	-75.296313	13413

Goodyear_Auto_Service_Centers	D	43.233825	-75.438048	13440

Anaconda_Sports	C	43.09726	-75.29688	13417

H&R_Block	A	43.088235	-75.31115	13413

Trailer_Marketing_Services	C	43.08331	-75.394076	13323

Advance_Auto_Parts	C	43.023752	-74.990571	13350

JMP_Guns	C	43.034747	-75.065565	13340

St_Elizabeth_Medical_Center_Laboratories	A	43.073554	-75.291762	13413

Rome_Savings_Bank	C	43.211103	-75.457347	13440

Catherines	C	43.095596	-75.31001	13413

Herkimer_County_Community_College	A	43.032297	-75.006236	13350

Slocum_Dickson_Medical_Group	A	43.015276	-75.038117	13357

Schulman_&_Rozanski_Dentistry	A	43.07229	-75.289165	13413

NBT_Bank	C	43.079249	-75.642652	13421

West_Park_Row_Salon	B	43.048405	-75.379062	13323

Archer's_Auto_Body	D	42.946567	-75.047002	13357

Lake_Delta_Yacht_Club	C	43.289383	-75.465966	13440

Gannon_Associates_Insurance_Oneida	C	43.093197	-75.6511	13421

Radiology_Association_of_Oneida	A	43.07897	-75.652718	13421

Taj_Mahal_Indian_Restaurant	B	43.073136	-75.289465	13413

Rite_Aid	A	43.053789	-75.278314	13413

Village_Pizza	B	43.072987	-75.288124	13413

The_Shops_At_25_West	C	43.040452	-74.85995	13365

Crestwood_Golf_Club	B	43.16666	-75.292994	13403

Hjp_Cafe_Vietnamese_Pho_Noodles_Restaurant	B	43.02813	-74.988281	13350

Liberty_Gardens_Thron_Park	B	43.221638	-75.47464	13440

STEET_PONTE_CHEVROLET_INC	C	43.046131	-74.984922	13350

Revelations_Salon_&_Spa	B	43.027357	-74.979844	13350

Amendola's_Country_Florist	C	43.057519	-75.160024	13340

Stewart's_Shops	C	43.044345	-74.860918	13365

Farmers_Insurance_Group	C	43.042989	-74.859773	13365

Rizzo's_Mkt	C	43.207193	-75.460978	13440

Miracle-Ear	A	43.096311	-75.303211	13413

Ann_St_Restaurant_&_Deli	B	43.040938	-74.858644	13365

Cafe_Florentine	B	43.091653	-75.31543	13413

Fastrac	B	43.229569	-75.492535	13440

GNC_(General_Nutrition_Centers)	A	43.082678	-75.314674	13413

G_&_S_Auto	D	43.040143	-75.072333	13340

John_E_Joy_Elementary_School	A	43.258245	-75.460211	13440

CVS	A	43.043223	-75.385463	13323

Sulphur_Springs_Golf_Course	B	42.975203	-75.293702	13456

First_Presbyterian_Church	A	43.013157	-75.0387	13357

Casler_Construction_Service	C	43.29717	-75.472593	13440

Little_Falls_Historical_Museum	B	43.042777	-74.859143	13365

Tri_County_Medical	A	43.231591	-75.442001	13440

Harmon_Field	B	43.093599	-75.663634	13421

St_Joseph's_Church	A	43.09871	-75.656318	13421

Mohawk_Missionary_Baptist_Church	A	43.189187	-75.456814	13440

New_York_&_Company	C	43.082691	-75.318052	13413

Michael_T's_Restaurant	B	43.08274	-75.328514	13413

Clinton_Early_Learning_Center	A	43.047192	-75.38363	13323

Doty's_Golf_Course	B	43.003904	-75.052896	13357

Coolnails_Salon	B	43.082652	-75.318022	13413

Tuesday_Morning	C	43.077127	-75.296431	13413

Oneida_Seventh_Day_Adventist_Church	A	43.090195	-75.658161	13421

Beacon_Golf_Center	B	43.133117	-75.259834	13403

Nice_N_Easy	C	43.096464	-75.623359	13421

II_Caffe_Espresso_Bar_And_Pastry_Shop	B	43.043562	-74.859555	13365

Unwind_with_Audrey	B	43.0553	-75.271607	13413

The_Savoy_Restaurant	B	43.208653	-75.452364	13440

AAA_Promotional_Signs	C	43.208724	-75.47484	13440

Schuss_Ski_&_Bicycle_Shop	C	43.086422	-75.314246	13413

Family_Video	C	43.215792	-75.452295	13440

Kirkland_Automotive_Svce	D	43.07742	-75.378188	13323

Amankwah_Kwaku_MD	A	43.093094	-75.279197	13413

Gardner's_Farm_to_Table	B	43.213752	-75.464407	13440

Kay_Jewelers	C	43.082282	-75.315262	13413

Bella_Vista_Restaurant	B	43.000171	-74.87883	13365

Rome_Taberg_Plaza	C	43.237893	-75.502608	13440

Five_Below	C	43.095511	-75.306899	13413

GPO_Federal_Credit_Union	C	43.01491	-75.035818	13357

Frankfort_Free_Library	B	43.0362	-75.070553	13340

Denny's	B	43.018458	-74.99195	13350

Sweet_Frog	B	43.092231	-75.315463	13413

Sauquoit_Valley_United_Methodist_Church	A	43.005094	-75.248904	13456

Cliff's_Local_Market	C	43.080288	-75.391623	13323

Marshall_Agency	C	42.999627	-75.048909	13357

Hearing_Health	A	43.237207	-75.501833	13440

IHOP	B	43.087664	-75.280534	13413

Sherwin-Williams	C	43.231758	-75.439499	13440

Club_Meadow_Dog_Daycare_and_Boarding	B	43.104168	-75.661152	13421

Hannoush_Jewelers	C	43.082754	-75.315607	13413

Coleman's_Collision	D	43.244904	-75.525704	13440

Vitality_Fitness_and_Wellness	A	43.277539	-75.470225	13440

The_Clover	B	43.207637	-75.450625	13440

Sinha_Nalin	A	43.055178	-75.279574	13413

Bhatt_Shiv_S_PC	A	43.23112	-75.443371	13440

Mvcaa_Inc_Little_Falls_Head_Start	A	43.042551	-74.865497	13365

Woolner_Family_Eye_Care	A	43.015134	-75.03627	13357

Dunkin'	B	43.09387	-75.277596	13413

Curves	B	43.027469	-74.988715	13350

Tallman's_Tire_&_Auto_Repair	D	43.236112	-75.437664	13440

Butler_Sheehan_Academy_of_Irish_Dance	B	43.236118	-75.446884	13440

Bed_Bath_&_Beyond	C	43.095405	-75.30659	13413

Majestic_Fireworks	D	43.048044	-75.379952	13323

Scalise_Tae_Kwon_DO	B	43.097305	-75.296859	13417

NBT_Bank	C	43.220815	-75.447393	13440

Miners_Table	B	43.127504	-74.976955	13350

Perfect_Eyebrow_Threading	A	43.081543	-75.31502	13413

Oneida_Healthcare_Ctr_Physical_Therapy_Outptnt_Dpt	A	43.092397	-75.651707	13421

Remington_Firearms_Museum_And_Country_Store	B	43.013166	-75.03322	13357

Illustrated_Studios	B	43.22179	-75.481891	13440

Byrne_Dairy	C	43.078313	-75.663734	13421

Paris_Hill_Cat_Hospital	A	43.000144	-75.31464	13456

Whitesboro_High_School	A	43.151275	-75.28822	13403

Pizza_Boys	B	43.095286	-75.298237	13417

Cliff's_Local_Market	C	43.226602	-75.489815	13440

Rite_Aid	A	43.233033	-75.438603	13440

Peck_Jeffrey_A_DDS	A	43.215573	-75.457632	13440

Community_Recovery_Center_of_Rome	B	43.212799	-75.461112	13440

Custymize_Computer_Room	C	43.040369	-75.072785	13340

Silverado_Inn	B	43.019126	-74.983711	13350

Star_Sports_Sangertown_Mall	C	43.081708	-75.315728	13413

Douglas_Ahn_MD	A	43.055506	-75.279913	13413

Cliff's_Local_Market	C	43.027891	-74.978736	13350

Finish_Line_Autos	D	43.093491	-75.653346	13421

Big_Daddy_Sandwiches_Soups_&_Salads	B	43.215483	-75.452713	13440

CrossFit	B	43.052931	-75.277038	13413

Sirchia	A	43.094492	-75.651023	13421

St_Mary's_Church_Clinton	A	43.046006	-75.379793	13323

Bassin_&_Hession_Orthodontics	A	43.085357	-75.668566	13421

Victoria's_Secret	C	43.082976	-75.324776	13413

Al's_Cycle_Parts	C	43.20701	-75.449005	13440

First_Assembly_Of_God_Of_Utica_New_York	A	43.138022	-75.263903	13403

Jobready_Physical_Therapy	A	43.072607	-75.287154	13413

Schillaci_Insurance_Agency	C	43.216135	-75.454031	13440

ALDI	C	43.019234	-75.031181	13357

Pizza_Hut	B	43.08265	-75.327965	13413

Oneida_Dental_Group	A	43.091014	-75.649884	13421

Fashion_Nails	B	43.209741	-75.453632	13440

Russell_Park	B	43.004286	-75.033212	13357

Polaris	C	43.284679	-75.46962	13440

Kannan_Arul	A	43.073167	-75.293498	13413

J_J_Automotive_Services	D	43.004049	-75.260073	13456

Fung_Gordon_MD	A	43.053979	-75.279536	13413

Fatboys_Deli	B	43.082586	-75.323849	13413

Colonial_Manor_Apts	C	43.011663	-75.054696	13357

Rock_City_Grocery	C	43.044751	-74.848957	13365

Top_Dog_Grooming	B	43.073582	-75.321534	13413

Schilling_George_J_Md_Pc	A	43.014218	-75.03767	13357

Sunoco	C	43.240521	-75.438101	13440

Donald_Knapp	A	43.027551	-74.979531	13350

CITGO	C	43.053244	-75.272131	13413

Bremer's_Wine_and_Liquor	C	43.089249	-75.310704	13413

St_Paul's_Roman_Catholic_Church	A	43.236132	-75.446887	13440

Ilion_Fire_Department	A	43.015673	-75.036124	13357

Verona_Fire_Department_Station_2	A	43.099669	-75.636016	13421

Savicki's_Paris_Hill_Farm_Market	C	43.022882	-75.328135	13323

The_Cashman	C	43.213856	-75.464747	13440

Uwah_Daniel_N_MD	A	43.092694	-75.312863	13413

Designs_By_Shelly	C	43.044582	-74.856745	13365

St_Elizabeths_Medical_Arts	A	43.080405	-75.335353	13413

Marquee_Cinemas	A	43.092687	-75.314293	13413

Adirondack_Chiropractic	A	43.097279	-75.296863	13417

T_P_Brake_&_Muffler	C	43.213589	-75.454271	13440

SmartStyle_Family_Hair_Salons	B	43.021504	-74.997153	13350

ElderChoice	B	43.054315	-75.279202	13413

Gary's_Auto_Parts	D	43.089854	-75.671808	13421

Enea_Family_Funeral_Home	B	43.026596	-75.056718	13357

State_Farm	C	43.073766	-75.293629	13413

Specialty_Auto_Sales	C	43.17124	-75.478432	13440

LabCorp	A	43.084279	-75.327531	13413

H&R_Block	A	43.080005	-75.643126	13421

Trek_Store_of_New_Hartford	C	43.083924	-75.327596	13413

Franco's_Pizzeria	B	43.015909	-75.036365	13357

OneMain_Financial	A	43.087866	-75.31099	13413

Canal_Side_Inn_Restaurant	B	43.040428	-74.858715	13365

Circle_K	C	43.09654	-75.62364	13421

Linsey_Layne_Boutique	C	43.073162	-75.289363	13413

Ray's_Svce	C	43.095468	-75.623448	13421

Dream_City_Mattress	C	43.088706	-75.311531	13413

All_State_Professional_CAD_Service	B	43.062023	-75.224919	13413

Furino_Anthony_J_DDS_MSD	A	43.072562	-75.289314	13413

BHA_Rabbitry	C	43.002029	-75.193685	13340

St_Elizabeth_Health_Support_Services	B	43.051204	-75.273686	13413

Transitions_Studio	B	43.236565	-75.436898	13440

FootDoctors	A	43.025074	-74.987526	13350

Planet_Fitness	B	43.076713	-75.644069	13421

Holt_John_E_Rev	A	43.073139	-75.294661	13413

Doggone_Lovely	B	43.205768	-75.450236	13440

M&T_Bank	C	43.077421	-75.292595	13413

Central_Oneida_County_Volunteer_Ambulance_Corps	E	43.093376	-75.391358	13323

The_Knight_Spot	B	43.035155	-75.066767	13340

Dave's_Clip_Joint	B	43.112666	-75.28454	13417

Brigitte_Hair_&_Tanning_Salon	B	43.075936	-75.689883	13421

Heartsome_Handicrafts	C	43.077034	-75.29735	13413

The_UPS_Store	C	43.231037	-75.437524	13440

Target	C	43.083727	-75.315974	13413

United_States_Postal_Service_(USPS)	C	43.025824	-74.9881	13350

New_Hartford_Eye_Associates	A	43.082689	-75.330175	13413

Village_Floral	C	43.073209	-75.287506	13413

Hess	C	43.235437	-75.4357	13440

KeyBank	C	43.055268	-75.277467	13413

China_House	B	43.215858	-75.45314	13440

Anken_Stuart_W_Dr_Chiropractor	A	43.24283	-75.455593	13440

Arby's	B	43.213742	-75.451711	13440

Pandora	C	43.082278	-75.315525	13413

Ace_Auto_Repair	D	43.225553	-75.489367	13440

Serendipity_Hair_Salon	B	43.07475	-75.287289	13413

Tehan_Shopping_Center	C	43.087499	-75.315321	13413

Tucker_Backyard_Pools_&_Spas	C	43.094291	-75.305523	13413

Coughlin_Giambrone	A	43.091527	-75.276669	13413

H&R_Block	A	43.039086	-74.865786	13365

Paca_Gardens	C	43.042607	-74.860796	13365

Bob's_Guitar_&_Piano_Instruction	C	43.073371	-75.289042	13413

Wilbert_Mitchell_W_DDS	A	43.217507	-75.448023	13440

The_Palisades_Hotel	B	43.239459	-75.437202	13440

Roma_Sausage	B	43.052577	-75.272338	13413

Paint_and_Paste	C	43.035522	-75.072823	13340

Brookdale	B	43.037682	-75.358621	13323

Kelley's_Lip_Smackin'_Best	C	43.016582	-75.035237	13357

Dans_Auto_repair	D	43.026319	-74.883489	13365

First_United_Methodist_Church	A	43.216337	-75.457832	13440

Best_Food_Chinese_and_Pizza	B	43.208968	-75.4533	13440

Alvarez_Leslie_C	A	43.090272	-75.649601	13421

Universalist_Church	A	43.043178	-74.856995	13365

Tractor_Supply_Co.	C	43.075532	-75.690884	13421

Linderman_Linnea_P_MD	A	43.212219	-75.457962	13440

WellNow_Urgent_Care	A	43.210697	-75.458004	13440

Wilcor_International	C	43.085404	-75.119717	13340

Jean_Burgdorf_Piano_Lessons	C	43.237831	-75.456264	13440

Tom_Cavallo's_Restaurant_&_Banquet_Facility	B	43.073562	-75.288194	13413

Riverside_Park	B	43.215325	-75.434489	13440

The_Finery	A	43.204151	-75.433033	13440

Paw_Prints_Pet_Boarding	B	43.036492	-75.077284	13340

Clinton_Pet_Vet	A	43.039885	-75.391537	13323

Brick_House_Acres	D	43.000732	-75.192752	13340

Hot_Topic	C	43.077277	-75.308919	13413

Zambri's_Motorsports	C	43.013654	-74.768879	13365

Norman's_Roofing_&_Siding	D	42.999687	-75.049083	13357

Giovanni's_Pizzeria	B	43.049762	-75.377762	13323

Lizzy's_Cupcakery_&_Candies	E	43.078157	-75.295307	13413

Joe's_Pizza_&_Sauce	B	43.094503	-75.643259	13421

Blaze_Pizza	B	43.093849	-75.307588	13413

Greg_Morra_Ameriprise_Financial_Services	A	43.071588	-75.293752	13413

KeyBank	C	43.048032	-75.381877	13323

Le_Thang_Q_MD	A	43.093127	-75.279193	13413

Life_In_Christ_Family_Church	A	43.062384	-75.366936	13323

Giuffrida_LaShawnda_Rpa_C	A	43.231111	-75.443406	13440

W_F_Prior_Elementary_School	A	43.090557	-75.646088	13421

Ferdula_Landscape_Supply	C	43.041988	-75.064274	13340

Lee_Town_Park	B	43.289591	-75.475936	13440

Robert_E_Schulman_DDS	A	43.072269	-75.289183	13413

Frankfort_Highland_Airport	E	43.016256	-75.169835	13340

Evangelical_Wesleyan_Church	A	43.225531	-75.536588	13440

Herkimer_County_Jail	A	43.029103	-74.987782	13350

Chahfe_Fayez_Fadi	A	43.077277	-75.652482	13421

Brendan's_Lawncare_&_Plowing	C	43.240134	-75.443448	13440

Marriott_Russell_G_Dr	A	43.218208	-75.459618	13440

Sammy's_Cafe	B	43.073502	-75.28798	13413

Hickory_Farms	C	43.08233	-75.31757	13413

Smiley_Allan_MD	A	43.09309	-75.279204	13413

YMCA	B	43.070929	-75.286273	13413

CITGO	C	43.097938	-75.301674	13417

Utica_Gas_&_Electric_Employees_Federal_Credit_Un	C	43.082238	-75.29702	13413

NBT_Bank	C	43.094706	-75.651233	13421

Hunt_Wade_T_Jr_MD	A	43.093084	-75.279181	13413

Label_Shopper	C	43.231507	-75.437156	13440

Carl_jr's	B	43.079141	-75.644545	13421

Kanon_Valley_Country_Club	B	43.140435	-75.714019	13421

Super_Sport_Parts	C	43.143848	-75.440282	13440

Bassett_Healthcare	A	43.044234	-74.84768	13365

First_Baptist_Church	A	43.043025	-74.856956	13365

Oneida_Health_Hospital	A	43.077558	-75.653881	13421

North_Broad_Street_School	A	43.09819	-75.656033	13421

New_Life_Church_&_Ministry_Center	A	43.023997	-74.976081	13350

Music_and_More_Records	C	43.082603	-75.323576	13413

Dawn_Marie's_Treasures	C	43.049062	-75.379092	13323

Dollar_General	C	43.025481	-74.984767	13350

Oxford_Medical_Imaging_PC	A	43.019841	-75.045378	13357

Whisper_Wind_Equestrian_Center	C	43.122628	-75.481504	13440

Forge_Hill_Estates	C	43.005577	-75.05171	13357

Fastrac	B	43.017602	-75.032859	13357

FleetPride	D	43.138483	-75.270822	13403

Holland_Heights_Golf_Course	B	43.051453	-75.001864	13350

Central_New_York_Developmental_Disabilities_Services_Office	A	43.237549	-75.453449	13440

Holy_Family_Parish	A	43.043628	-74.85277	13365

Choo_Choo_Charlie's	B	43.092972	-75.65104	13421

Bath_&_Body_Works	A	43.082027	-75.315121	13413

Madison_Square_Barber_Shop	B	43.095635	-75.6518	13421

Fastenal	C	43.205031	-75.425503	13440

M&T_Bank	C	43.050681	-75.061638	13340

CoreLife_Eatery	B	43.084921	-75.319347	13413

Surgical_Associates_of_Utica	A	43.080377	-75.335231	13413

Zoom_Tan	B	43.086428	-75.316925	13413

Plaza_Wine_&_Liquor	C	43.087508	-75.646473	13421

Helen_Sarandera_Physical_Therapy	A	43.083936	-75.342153	13323

Hale_Manufacturing	C	43.042594	-75.083604	13340

TQ_Nails_&_Spa	B	43.048505	-75.379739	13323

Nicky_Doodles	B	43.076671	-75.294483	13413

Church_of_Christ	A	43.238887	-75.449294	13440

D_B_Automotive_Services	D	43.223194	-75.484298	13440

El_Khoury_Naji_MD	A	43.073178	-75.293499	13413

Joe_Tahan's_Furniture	C	43.075813	-75.288582	13413

Milan_Laser_Hair_Removal	B	43.091603	-75.314081	13413

St_Peter's_Roman_Catholic_Church	A	43.211966	-75.456556	13440

Applebee's	B	43.093541	-75.30793	13413

TQ_Nails_&_Spa	B	43.086435	-75.316772	13413

Dunkin'	B	43.014703	-75.036775	13357

NBT_Bank	C	43.093125	-75.279185	13413

Great_Northern_Springs	B	43.048418	-75.380033	13323

Primo_Pizza_At_The_Kettle	B	43.078439	-75.373812	13323

Melo_Larry_J_DDS	A	43.02759	-74.989747	13350

Dollar_Tree	C	43.075962	-75.644007	13421

Subway	B	43.015771	-75.034807	13357

Merrill's_Restaurant	B	43.18445	-75.333045	13403

Dey_Chevrolet	C	43.045372	-75.38335	13323

Oneida_Medical_Associates	A	43.077251	-75.652487	13421

Gualtieri_Rocco_Market	C	43.207352	-75.45108	13440

The_Cellular_Shop_Rome	C	43.228354	-75.492655	13440

Tom's_Small_Engine_Servies	C	43.078293	-75.380925	13323

NorthSide_Fitness	B	43.132427	-75.255762	13403

Marcy_Community_Church	A	43.178005	-75.286234	13403

MC_Nails_&_Spa	B	43.093046	-75.650951	13421

Lane_Bryant	C	43.095575	-75.309746	13413

Circle_K	C	43.283123	-75.471427	13440

Marcy_Elementary_School	A	43.137962	-75.260153	13403

Adirondack_Freight_Brokerage	C	43.036406	-75.065414	13340

Tractor_Supply_Co.	C	43.018704	-74.993534	13350

Ryder	C	43.136283	-75.275852	13403

NYE_FORD	C	43.07581	-75.684032	13421

Moe's_Southwest_Grill	B	43.087192	-75.313041	13413

Byrne_Dairy	C	43.206019	-75.456876	13440

Kinney_Drugs	A	43.042273	-74.858494	13365

The_Skenandoa_Club	B	43.072141	-75.41188	13323

NBT_Bank	C	43.229116	-75.442555	13440

Shaklee_Wellness_Concepts	A	43.036731	-75.101259	13340

The_Hair_Connection	B	43.083887	-75.34095	13323

A'Peel_Day_Spa	A	43.047664	-75.378092	13323

Revamp_Fitness	B	43.02608	-74.984991	13350

Cynthia_Dave	A	43.092688	-75.312837	13413

Marcy_Correctional_Facility	A	43.162976	-75.311116	13403

Dream_City_Mattress	C	43.022895	-74.992599	13350

De_Paredes_Jaime_G_DDS	A	43.022381	-74.982215	13350

DSW_(Designer_Shoe_Warehouse)	C	43.082953	-75.315932	13413

Injoy_nails_&_spa	B	43.21983	-75.448109	13440

New_Hartford_Shoes_&_Service	C	43.074239	-75.287616	13413

Soul_Bowl	B	43.050121	-75.378804	13323

Allstate_Insurance	C	43.074817	-75.299594	13413

Jenny_Nail_&_Spa	B	43.048496	-75.379713	13323

Ann_Street_Liquors	C	43.043838	-74.860469	13365

Ajay_Goel_MD	A	43.231246	-75.443321	13440

Save-A-Lot	C	43.077432	-75.642535	13421

Thompson_Appliances	C	43.09631	-75.651507	13421

Wright's_Hardware_Bike_Video	C	43.0435	-74.859643	13365

The_Burns_Agency	C	43.049635	-75.379104	13323

G_P_O_Federal_Credit_Union	C	43.078034	-75.687725	13421

New_Beginnings_Church	A	43.275295	-75.493174	13440

Holleran's_Home_Improvements	B	43.010421	-75.022667	13357

Mohawk_Valley_Refinishing_&_Upholstery	C	43.016355	-75.034703	13357

Bargain_Price_Auto_Glass	C	43.205242	-75.422935	13440

La_Galerie_Rouge	C	43.08378	-75.339507	13323

East_Park	B	43.21261	-75.455178	13440

Schilling_George_J_Md_Pc	A	43.054005	-75.279505	13413

Fiberdyne_Labs	C	43.040603	-75.083185	13340

Tallman's_Express_Lube_New_Hartford	D	43.083147	-75.326395	13413

Beardslee_Castle	B	43.00735	-74.744999	13365

Auntie_Anne's	B	43.095249	-75.312406	13413

JCPenney	C	43.209717	-75.461857	13440

Veterans_Memorial_Park	B	43.102928	-75.657275	13421

St_Peter_&_Paul_Orthodox_Church	A	43.029117	-74.957785	13350

LabCorp	A	43.027389	-74.983477	13350

Rome_Adult_Learning_Center_Boces	A	43.213872	-75.459592	13440

12_North_Sports_Bar	B	43.142555	-75.216432	13403

Russell_Cellular	C	43.044065	-74.856293	13365

Twin_Orchards_Farms	C	43.090877	-75.31878	13413

Showcase_Antiques	C	43.041319	-74.85829	13365

Holland_Kennels	B	43.17296	-75.320869	13403

Panera_Bread	B	43.09594	-75.305236	13413

Fortune_Cookies	B	43.082606	-75.323551	13413

Clinton_Arena	B	43.053642	-75.376757	13323

PK's_Pub	B	43.025471	-74.981044	13350

Acchino_Auto_Body	D	43.221874	-75.424267	13440

Logoz_Custom_T_Shirts	C	43.082598	-75.32402	13413

Klockowski_Orthodontics	A	43.214652	-75.461465	13440

Roselawn_10	B	43.102385	-75.295532	13417

St_Mary's_Church	A	43.213567	-75.4589	13440

Jackson_Hewitt_Tax_Service	A	43.220525	-75.447643	13440

Goldmine_Jewelers	C	43.088282	-75.311246	13413

Mike's_Cycle_&_Sport_Shop	C	43.30028	-75.472743	13440

Rome_Fire_Department	A	43.211147	-75.452477	13440

St_Paul's_United_Methodist_Church	A	43.081855	-75.661903	13421

Brown's_Detail	D	43.195682	-75.439906	13440

Paul_Chapman_Insurance_Agency	C	43.094851	-75.282635	13413

Mc_Kennan_John_M	A	43.019857	-75.04537	13357

Dunkin'	B	43.05512	-75.277097	13413

Jackson_Hewitt_Tax_Service	A	43.07852	-75.644795	13421

Now_Playing_Boutique	C	43.136067	-75.262675	13403

Stewart's_Shops	C	43.068319	-75.347543	13323

The_War_Club	B	43.248798	-75.382913	13440

Karaz_Shoes	C	43.076681	-75.294879	13413

Christopher_&_Banks	C	43.090351	-75.315402	13413

United_States_Postal_Service_(USPS)	C	43.218978	-75.448338	13440

Herkimer_Fulton_Hamilton_Otsego_Boces	A	43.038988	-74.964397	13350

Rockin'_Horse_Tattoo	B	43.085432	-75.316148	13323

Smokers_Choice	C	43.231658	-75.437048	13440

Cuts_And_Colors_My_Stock	C	43.02139	-74.990508	13350

Infinity_Tree_Energy_Healing_and_Wellness	A	43.069946	-75.286781	13413

DeSalvo's	B	43.215081	-75.453779	13440

Price_Chopper_New_England	C	43.232166	-75.436418	13440

Big_League_Haircuts	B	43.092259	-75.315586	13413

St_James_Church_Day_School	A	43.046772	-75.378432	13323

Bill_Herrig's_Auto_Parts_&_Repair	C	43.217479	-75.54791	13440

First_Church_of_Christ_Scientist	A	43.09185	-75.648864	13421

Trio's_Pizza	B	43.108649	-75.287894	13417

First_American_Mortgage_Trust	C	43.014422	-75.038186	13357

Oxford_Home_Care_Services	B	43.060837	-75.282913	13413

Estate_at_169	B	43.106868	-75.281617	13417

American_Job_Centers	B	43.213334	-75.461796	13440

Bianca_Bussey	B	43.135728	-75.26151	13403

Northwestern_Mutual	C	43.075139	-75.289143	13413

Five_Guys	B	43.096143	-75.305021	13413

Jones_Family_Farm	C	43.090508	-75.009851	13350

Signature_81	C	43.048076	-75.37938	13323

Uncles_Tavern	B	43.102198	-75.293912	13417

Licari_Motor_Car	C	43.030982	-74.982507	13350

State_Farm	C	43.23193	-75.442569	13440

Grande's_Pizzeria_&_Restaurant	B	43.220365	-75.425257	13440

Sipe_Financial_Group	C	43.047688	-75.378088	13323

Pediatric_&_Adolescent_Medical_Associates	A	43.212214	-75.457958	13440

Alexander_R_Harris_MD	A	43.093103	-75.279198	13413

New_Hartford_Chiropractic_Associates	A	43.072949	-75.28721	13413

New_Hartford_Retail_Center	C	43.090501	-75.32005	13413

Superior_Home_Health_Care	B	43.039081	-74.987357	13350

SUMO_Japanese_Restaurant	B	43.089879	-75.312704	13413

City_of_Oneida	B	43.099923	-75.655774	13421

Jamo's_Restaurant_&_Bar	B	43.023978	-74.986292	13350

Massi_Peter_S_DDS	A	43.082402	-75.296095	13413

NYE_CHRYSLER_DODGE_JEEP_RAM	C	43.077223	-75.687374	13421

Staples	C	43.095415	-75.308206	13413

Dominick's_Deli	B	43.02527	-74.987074	13350

Verizon_Wireless	C	43.096507	-75.303026	13413

Cellular_Sales	C	43.212425	-75.464474	13440

Adirondack_Community_Physicians	A	43.073537	-75.343467	13413

Angelichio_Anthony_V_DMD	A	43.013249	-75.039906	13357

Tc_Photography	A	43.051738	-75.187405	13340

Empire_Drugs	A	43.231601	-75.439575	13440

Krumpholz_M_Douglas_MD	A	43.093118	-75.279304	13413

Samad_Naeem_F	A	43.015899	-75.037919	13357

Central_New_York_Physiatry_PC	A	43.073075	-75.296462	13413

Stokes_Elementary_School	A	43.300123	-75.474938	13440

The_Yoga_Studio	B	43.211977	-75.459678	13440

Child_Health_Associates_of_Madison_County_MD_PC	A	43.075498	-75.640075	13421

Zion_Lutheran_Church_Elca	A	43.093383	-75.275082	13413

Stewart's_Shops	C	43.223206	-75.420297	13440

New_Hartford_Public_Library	B	43.061544	-75.282828	13413

Trans_Rail_Insurance_Assoc	C	43.031192	-75.165013	13340

Geraty_Pools_&_Spa_Inc	C	43.021114	-74.992605	13350

Community_Mammography_Center	A	43.019842	-75.045369	13357

De_Matteo_Patricia_D_Dr	A	43.219419	-75.47868	13440

Bellamy_Harbor_Park	B	43.201871	-75.450326	13440

Stonehedge_Health_and_Rehabilitation_Center	A	43.220685	-75.450442	13440

Herkimer_Community_Museum	B	43.034247	-75.0023	13350

Time_Warner_Security	C	43.223058	-75.484137	13440

Hannaford_Supermarkets	C	43.042112	-75.38719	13323

Butala_Atul_MD	A	43.027102	-74.982911	13350

The_Happen_Inn_Sports_Bar_&_Grill	B	43.043257	-74.859903	13365

Jackson_Hewitt_Tax_Service	A	43.016788	-75.037241	13357

Oneida_Healthcare_Center	B	43.086935	-75.646856	13421

Allstate_Insurance	C	43.040434	-75.390852	13323

McDonald's	B	43.041795	-74.861676	13365

ECOsponsible_Herkimer_Plant	E	43.033453	-74.983472	13350

Asteroga_Ale_House	B	43.025304	-74.987027	13350

Olcott_Hotel	B	43.093498	-75.658748	13421

Kitlas_Restaurant	B	43.091903	-75.179131	13340

Sherril_Brook_Town_Park	B	43.065167	-75.319579	13413

Patriot_Painting	D	43.101446	-75.29125	13417

Ironwood_Furniture	C	43.077257	-75.378876	13323

Custom_Cutz_Barbershop	B	43.026191	-74.98712	13350

Central_Market_Florist	C	43.231508	-75.437157	13440

Studio	B	43.222073	-75.445075	13440

H&R_Block	A	43.028159	-74.977923	13350

New_York_State_Police_Department	A	43.144311	-75.29021	13403

Olivia_Dawn_Hair_Horizons	B	43.29758	-75.4727	13440

The_Community_at_Sunset_Wood	B	43.074882	-75.295635	13413

Herkimer_County_DMV_Office	A	43.029084	-74.987759	13350

G's_Weight_Loss_&_Wellness	B	43.077193	-75.295672	13413

Finish_Line_Auto	D	43.204693	-75.456916	13440

Our_Lady_of_the_Rosary_Church	A	43.094218	-75.279876	13413

Cooperative_Magnetic_Imaging	A	43.092973	-75.278885	13413

Bladek's_Body_Shop	D	42.984902	-74.859063	13365

Dick's_Wheel_Shop	C	43.020905	-74.990057	13350

HomeGoods	C	43.083091	-75.316803	13413

Gleasman_Chiropractic	A	43.059173	-75.361784	13323

CITGO	C	43.073593	-75.286819	13413

Hawaiian_Holiday_Tanning_Salon	B	43.236868	-75.437044	13440

Pep_Boys	C	43.084239	-75.322838	13413

Subway	B	43.04839	-75.380991	13323

The_Medicine_Shoppe	A	43.220483	-75.447622	13440

First_Source_Federal_Credit_Union	C	43.234823	-75.435976	13440

Bethany_Gardens_Skilled_Living_Center	B	43.237012	-75.45217	13440

John's_Pizzeria	B	43.137859	-75.275728	13403

Pine_Hills_Golf_Course	B	43.038137	-75.132933	13340

Floyd_United_Methodist_Church	A	43.218737	-75.332028	13440

Myles_Elementary_School	A	43.073827	-75.324254	13413

Total_Solutions	C	43.084011	-75.353509	13323

Aromatherapy_Spa	B	43.212012	-75.463084	13440

Vogel_Park	B	43.228081	-75.448049	13440

Daniel_E_Burgdorf_DC	A	43.237941	-75.456267	13440

Jimmy_D's_Pizza_Royale	B	42.465857	-73.392598	13357

Inn_Towne_Motel	B	43.028394	-74.986936	13350

Bills_Khakis	C	43.077192	-75.293901	13413

Upstate_Cerebral_Palsy	A	43.090556	-75.646122	13421

The_Mary_Rose_Clinic	A	43.103272	-75.661466	13421

Spaghetti_Kettle	B	43.078679	-75.373952	13323

Paul_Robert	C	43.097227	-75.647818	13421

M&T_Bank	C	43.02856	-74.989243	13350

New_York_State	A	43.211819	-75.457289	13440

Varano_Photography	A	43.215375	-75.462111	13440

Rome_Teachers_Federal_Credit_Union	C	43.236689	-75.454854	13440

Feeney_Robert_A_PC	A	43.213332	-75.456246	13440

Herkimer_Diamond_KOA	E	43.127206	-74.975972	13350

Herkimer_Veterinary_Assocs	A	43.01919	-74.990569	13350

SunEast_Watkins_Road_Solar_Project	E	43.061267	-75.055842	13340

M&T_Bank	C	43.094271	-75.306891	13413

Francesca's	C	43.082332	-75.31574	13413

Time_Warner_Cable_Enterprises_Martino	E	43.182534	-75.430305	13440

Christopher_&_Banks	C	43.090302	-75.315421	13413

H&M_(Hennes_&_Mauritz)	C	43.082595	-75.314627	13413

Hot_Spot	B	43.022897	-74.992578	13350

NYE_VOLKSWAGEN_OF_ROME	C	43.23317	-75.497899	13440

United_States_Postal_Service_(USPS)	C	43.048568	-75.381501	13323

Sunoco	C	43.195438	-75.437943	13440

China_Inn	B	43.208967	-75.453216	13440

Women's_Health_Associates	A	43.076509	-75.653524	13421

PROS_Clinic_Oneida	A	43.102279	-75.659534	13421

Side_Kicks_Family_Karate	B	43.240691	-75.438351	13440

Seventh_Day_Adventist_Church_Study	A	43.170627	-75.413268	13440

State_Farm	C	43.098999	-75.30349	13417

Fastrac	B	43.22918	-75.439986	13440

Yetty's	B	43.024432	-74.985649	13350

Adirondack_Vapor	C	43.22046	-75.44763	13440

Jda_Management	C	43.039528	-75.07108	13340

Taylor_True_Value_Rental	C	43.226298	-75.489478	13440

PS_Insurance_Shopper	C	43.061064	-75.272122	13413

Exxon_Mobil	C	43.217084	-75.437714	13440

Community_Bank	C	43.080109	-75.641934	13421

Eye_Glass_&_Contact_Lens_Center_of_Oneida	A	43.078975	-75.652742	13421

Shear_Image	B	43.217404	-75.475132	13440

Rent-A-Center	C	43.075668	-75.642966	13421

Croad_Mary_Lou_Insurance_Agency	C	43.219242	-75.446911	13440

Long_John_Silver's	B	43.077912	-75.642005	13421

Liberty_Travel	B	43.080338	-75.320785	13413

Migliori_Vincent_S	B	43.214964	-75.463225	13440

Davidson_Collision_Center_of_Rome	D	43.231907	-75.495875	13440

Brookdale	B	43.038656	-75.358921	13323

Frank_Mazzaferro_DDS	A	43.219545	-75.455266	13440

Wilcove_Rockford_Auto_Glass	C	43.21193	-75.462855	13440

Homewood_Suites_by_Hilton	B	43.091258	-75.330186	13323

Reaves_Dental_Practice	A	43.073516	-75.343462	13413

Green_Wave_Salvage_&_Recycling	E	43.075664	-75.110554	13340

First_Source_Federal_Credit_Union	C	43.083533	-75.324021	13413

Day_&_Scarafile_Associates	A	43.012242	-75.037875	13357

Stonebridge_Golf_&_Country_Club	B	43.030337	-75.206149	13413

Ace_Hardware	C	43.208727	-75.456011	13440

Function_Better	B	43.047601	-74.986038	13350

Family_Home_Care	B	43.220064	-75.458839	13440

Wadhera_Usha_MD	A	43.044201	-74.848135	13365

Raspberries_Cafe_of_Rome	B	43.231578	-75.441897	13440

Davis_Optical	A	43.230825	-75.441754	13440

Maggie's_Cafe	B	43.214173	-75.454566	13440

Sacred_Heart_of_Jesus_Holy_Cross_Polish	A	43.109293	-75.287786	13417

Cliff's_Local_Market	C	43.073585	-75.286841	13413

Sauquoit_Valley_Insurance	C	43.01513	-75.215134	13456

Halpern_Andrew_Md	A	43.234427	-75.437862	13440

KeyBank	C	43.232579	-75.438868	13440

Domino's_Pizza	B	43.022977	-74.988764	13350

Sunoco	C	43.043806	-74.860112	13365

Burrstone_Energy_Center	E	43.096606	-75.276185	13413

Pizza_N_Stuff	B	43.295374	-75.473159	13440

Luigis_II	B	43.295373	-75.47317	13440

Sunoco	C	43.079956	-75.319023	13413

Access_Medical_Solutions	A	43.077595	-75.338157	13413

Athmedics	C	43.21867	-75.43583	13440

The_Blend	B	43.09604	-75.652189	13421

Rome_Medical_Pediatrics	A	43.234334	-75.437909	13440

M&T_Bank	C	43.006793	-75.256825	13456

Christian_&_Missionary_Alliance_Church	A	43.235993	-75.454744	13440

Hair_Studio_69	B	43.19397	-75.43414	13440

M&T_Bank	C	43.230938	-75.43755	13440

First_Tabernacle_Church_of_God_In_Christ	A	43.253984	-75.455501	13440

Smokers_Choice	C	43.044015	-74.856449	13365

Cayuga_Bank	C	43.232621	-75.438855	13440

Cliff's_Local_Market	C	43.051949	-75.375064	13323

Sauquoit_Automotive_Sales_&_Service	C	42.995633	-75.255923	13456

R_&_R_Kennels	B	43.210603	-75.588807	13440

Adirondack_Bank	C	43.043551	-74.859538	13365

Rome_Memorial_Hospital	A	43.23202	-75.440597	13440

Gold_Medal_Packing	C	43.191495	-75.34217	13440

Uvanni_Park	B	43.203866	-75.458624	13440

Oneida_Surgical_Group	A	43.07791	-75.658393	13421

Heron_Creek_Golf_Club's	B	43.071019	-75.377809	13323

Montgomery_Street_Park	B	43.016785	-75.047149	13357

Tony's_Pizzeria_&_Deli	B	43.047878	-75.381206	13323

Boscov's	C	43.082054	-75.317754	13413

Sangertown_Square	C	43.082459	-75.315862	13413

Franks_Guns	C	43.140934	-75.28542	13403

Big_Willy's_Pizzeria	B	43.03907	-75.07035	13340

Jonny_B's_Tavern	B	43.218915	-75.335571	13440

Pizza_Place	B	43.097416	-75.653076	13421

Faniglula_Contracting	C	43.085138	-75.646335	13421

Mattress_Express_Oneida	C	43.077172	-75.643868	13421

Thats_Amore'_Pizza_And_Pasta	B	43.026449	-74.998251	13350

Herkimer_Elementary_School	A	43.034141	-74.957467	13350

Hallmark_Cards	C	43.025472	-74.986853	13350

Day_Scarafile_&_Read	C	43.044319	-74.8597	13365

Valley_Automotive_Sales_&_Service	C	43.028338	-74.979498	13350

Roman_S_Melnyk_DDS_MS	A	43.072266	-75.289113	13413

Bassin_&_Hession_Orthodontics	A	43.073165	-75.293522	13413

Lairdsville_United_Methodist_Church	A	43.077717	-75.378552	13323

Byrne_Dairy	C	43.075943	-75.290131	13413

The_Indigo_Tree	C	43.098549	-75.302817	13417

Utopia	B	43.239302	-75.441766	13440

Mohawk_Valley_Electronics	C	43.081025	-75.116851	13340

Staple's_Karate_Studios	B	43.220063	-75.449233	13440

Krasniak_Carl_L_MD	A	43.093106	-75.279194	13413

La_Galleria	C	43.052162	-74.987703	13350

Herkimer_High_School	A	43.023622	-75.000217	13350

Beautique_Salon_and_Spa	B	43.027212	-74.980884	13350

Russo_Physical_Therapy	A	43.02798	-75.059121	13340

All_Saints_Parish_Polish_National_Catholic_Church	A	43.239158	-75.450969	13440

St_Patrick's_School	A	43.0897	-75.647389	13421

Standard_Poodles_For_Sale	B	43.227944	-75.346035	13440

Just_Breathe_Yoga_Studio	B	43.23895	-75.43698	13440

Top_End_Automobile	D	43.017608	-75.013319	13350

Kevin_Bedford	B	43.085793	-75.328452	13413

A_Moment_In_Time_Retro_Design	C	43.075778	-75.692641	13421

Erie_Canal_Cruises	B	43.017033	-74.997471	13350

Friendly's	B	43.094316	-75.275656	13413

Hummel's_Office_Plus	C	43.228793	-75.437823	13440

Liberty_St_Clippers	B	43.214838	-75.463315	13440

Mercurios_Automotive_Saquoit	C	43.000983	-75.255304	13456

Dr_John_M_Syrotynski_Chiropractic	A	43.073698	-75.293184	13413

Cliff's_Local_Market	C	43.020608	-74.991153	13350

Woody's_Ice_Cream_Place	B	43.023092	-74.98893	13350

Herkimer_Bowling_Center	B	43.020208	-74.992498	13350

Yankee_Candle	C	43.082365	-75.315618	13413

McDonald's	B	43.078922	-75.650899	13421

Women's_Counseling_Service	A	43.062607	-75.303584	13413

Falbo's_Garage	D	43.047806	-75.3926	13323

Mohawk_Valley_Nursing_Home	B	43.019057	-75.047442	13357

St_Mary's_Church	A	43.044973	-75.380257	13323

Brookwood_Park	B	43.031045	-74.999915	13357

Trinity_Lutheran_Church	A	43.029017	-74.994805	13350

Alessi_Robert_E_PC	A	43.231273	-75.443328	13440

Luck_&_Golden_Optometrists_PC	A	43.048404	-74.986048	13350

Fashion_Nail_&_Pedicure_Spa	B	43.236564	-75.436861	13440

Subway	B	43.093834	-75.276378	13413

Mary_Anns_Mother_Design	E	43.026493	-74.986368	13350

Kaye_Ronald_I_MD	A	43.231004	-75.443056	13440

Mazzaferro's_Meats_&_Deli	C	43.248539	-75.441626	13440

Premier_Technologies	C	43.228353	-75.49262	13440

Cafe_Canole	B	43.074288	-75.28821	13413

Footlocker	C	43.082676	-75.318057	13413

Hospice_&_Palliative_Care	B	43.071195	-75.345106	13413

SunEast_Hills_Solar_Project	E	43.067762	-74.849362	13365

Little_Falls_High_School	A	43.059056	-74.872056	13365

SunEast_Skyline_Solar_Project	E	43.063085	-75.45197	13323

Crazy_Ottos_Empire_Diner	B	43.025485	-74.98653	13350

Mvcaa_Inc_Herkimer_Perc_Head_Start	A	43.029176	-74.983036	13350

Hematology_Oncology_Assoc_of_Cny_PC	A	43.232032	-75.440607	13440

K_D_K_Sports	C	43.231222	-75.497128	13440

Ferlo's_Orignal_Bakery	E	43.214127	-75.44713	13440

Mayflower_Chinese_Restaurant	B	43.230827	-75.437746	13440

Computer_Tec	C	43.210508	-75.453133	13440

CNY_Carriage_Company	B	42.993466	-75.644686	13421

Bassett_Healthcare_Little_Falls_Dialysis	A	43.044247	-74.847688	13365

Washington_Mills_Athletic_Park	B	43.044194	-75.275668	13413

Rome_Savings_Bank	C	43.283889	-75.470055	13440

McDonald's	B	43.015675	-75.03428	13357

Just_Archery_by_George	C	43.21744	-75.439034	13440

Candella's_Greenhouses_&_Vegetable_Stand	C	43.137951	-75.274932	13403

ALDI	C	43.211629	-75.464555	13440

Spencer_Gifts	C	43.082502	-75.31489	13413

CrossFit	B	43.199049	-75.448671	13440

Leila_Kirdani	A	43.091572	-75.276696	13413

Slocum_Dickson_Medical_Group	A	43.019417	-75.0469	13357

Hamilton_College	E	43.052781	-75.405994	13323

Knudsen_Enterprise	C	43.205157	-75.42301	13440

Sandy's_Nail_Salon_&_Boutique	B	43.059903	-75.285582	13413

DAVIDSON_AUTOMOTIVE_GROUP	C	43.232283	-75.496535	13440

Advance_Auto_Parts	C	43.214752	-75.468103	13440

Hobby_Lobby_Stores	C	43.087454	-75.315218	13413

Tops_Friendly_Markets	C	43.210225	-75.462351	13440

Rollin'_Bowlz_Acai	B	43.082597	-75.323992	13413

YMCA	B	43.045185	-74.858102	13365

Bonomo_Insurance	C	43.084526	-75.323409	13413

Bodily_Charm_Tattoo_&_Piercing	B	43.077384	-75.293704	13413

Shedeed_Reda	A	43.0931	-75.279178	13413

Panella's_Collision_&_Auto_Service	D	43.099022	-75.303035	13417

Mohawk_Valley_Women's_Health_Associates	A	43.231944	-75.440861	13440

First_Niagara_Bank	C	43.048058	-75.381854	13323

Flaming_Wok	B	43.06876	-75.286725	13413

Berkshire_Bank	C	43.044167	-74.851953	13365

Great_Northern_Trading_Co	C	43.12791	-75.238736	13403

Capital_Cash_Gold_Exchange	C	43.039548	-75.070961	13340

Efk_Plaza	C	43.027352	-74.980002	13350

Greyson_Ross_Acupuncture	A	43.048058	-75.378371	13323

Dalope_Manuel_G_MD	A	43.077164	-75.651664	13421

Rome_Income_Tax_Service	A	43.216574	-75.466657	13440

Maser_Dennis_MD	A	43.027833	-74.994063	13350

Immanuel_Baptist_Church	A	43.226267	-75.473996	13440

Price_Chopper_New_England	C	43.043642	-74.85749	13365

Papa_Rick's_Snack_Shack	B	43.239905	-75.438083	13440

Monai_Interiors	C	43.091621	-75.315673	13413

Faxton_St_Luke's_Healthcare	A	43.073502	-75.34346	13413

Allstate_Insurance	C	43.260579	-75.461529	13440

CrossFit	B	43.044305	-74.857494	13365

Automotive_Service_Center	D	43.13085	-75.248444	13403

Four_Seasons_Pizza	B	43.139951	-75.276075	13403

Clinton's_Car_Wash	D	43.040196	-75.391489	13323

Sam's_Eats_&_Sweets	B	43.258612	-75.461379	13440

Dunkin'	B	43.230853	-75.440024	13440

Raspberries_Cafe	B	43.094528	-75.305282	13413

Advance_Auto_Parts	C	43.233865	-75.436402	13440

Precision_Unlimited_Carcare	D	43.079899	-75.390147	13323

North_Glenview_Eddy_Park	B	43.256233	-75.451632	13440

Delta_Lake_Inn	B	43.274794	-75.431168	13440

Tuxedo_by_Sarno	C	43.082874	-75.315676	13413

Bridenbecker_Sales_&_Service	C	43.142453	-75.287508	13403

Freedom_Plaza	C	43.211169	-75.462025	13440

Frankfort_Schuyler_Centrl_Schls	A	43.032618	-75.070776	13340

Clintonblooms	C	43.048399	-75.380005	13323

Samson_A_Pachikara_M_D	A	43.073934	-75.296917	13413

Stewart's_Shops	C	43.303004	-75.472423	13440

LOFT	C	43.090338	-75.316722	13413

Hershey's_Ice_Cream	B	43.080496	-75.683389	13421

Smoker_Friendly	C	43.015805	-75.036833	13357

Supercuts	B	43.087568	-75.314309	13413

McDonald's	B	43.231084	-75.439805	13440

Bailey's_Home_Health_Services_&_Alternative_Pain_Solutions	A	43.062419	-75.602907	13421

Greenie's_Market	C	43.016799	-75.038563	13357

Runnings	C	43.232187	-75.49238	13440

Ellis_Family_Chiropractic	A	43.074584	-75.301146	13413

Pat's_Tire_Service	C	43.213547	-75.467986	13440

Centrex_Clinical_Laboratories	A	43.027427	-74.983508	13350

Moose_River_Restaurant	B	43.093829	-75.284562	13413

Mvcaa_Inc_Ilion_Head_Start	A	43.013732	-75.038988	13357

Community_Park	B	43.088543	-75.757368	13421

Flawless_Salon_&_Beauty_Bar	B	43.038041	-74.986333	13350

Centrex_Clinical_Laboratories_Incorporated	A	43.07394	-75.296918	13413

John's_Garage	D	43.034989	-74.869819	13365

Master_Seng's_Martial_Arts_Academy	B	43.082637	-75.323424	13413

Carolina_Bedding_of_The_Mohawk_Valley	C	43.226408	-75.487746	13440

Seneca_Street_School	A	43.085746	-75.653415	13421

Pop_A_Top	B	43.097044	-75.653807	13421

Gentle_Dental_Care	A	43.215706	-75.454112	13440

Carter's	C	43.095588	-75.309877	13413

NBT_Bank	C	43.079594	-75.316022	13413

Boces_Madison_Oneida	B	43.213913	-75.459609	13440

The_Dental_Office	A	43.083241	-75.321733	13413

Redeemer_Church	A	43.212834	-75.459079	13440

La-Z-Boy	C	43.027506	-74.978798	13350

Fastrac	B	43.215186	-75.470755	13440

Melone's_Tire_Shop	C	43.21297	-75.466577	13440

NY_Taxi	E	43.203532	-75.464844	13440

Burrstone_Animal_Hospital	A	43.084194	-75.291977	13413

Planned_Parenthood	A	43.077491	-75.651666	13421

Fisher_Auto_Parts	C	43.049772	-75.377785	13323

First_United_Methodist_Church_Oneida	A	43.087645	-75.648086	13421

Rome_Auto_Electric	D	43.213622	-75.464414	13440

Breakfast_At_Tiffany's	B	43.080214	-75.368388	13323

Studio_55	B	43.047612	-74.986022	13350

Anticosti_Beer_and_Beverage	C	43.224695	-75.483367	13440

Cycle_Shack_Cars	C	43.225977	-75.488546	13440

4_Seasons_Goodyear_Tire_&_Auto_Repair_Center	C	43.021559	-75.038481	13357

Hearing_Health_USA	A	43.102277	-75.66057	13421

Doggie_Doos	B	43.214778	-75.466433	13440

Linda's_Unisex_Salon	B	43.027453	-74.992068	13350

Old_Navy	C	43.095472	-75.308862	13413

Hotdog_Burger_Cheese	B	43.077608	-75.643891	13421

T-Mobile	C	43.086887	-75.313331	13413

OneMain_Financial	A	43.078595	-75.688775	13421

Down_Under_Hair_Fashions	B	43.010285	-75.024545	13357

Mohawk_Valley_Christian_Academy	A	43.047796	-74.867234	13365

Ace_Hardware	C	43.03414	-74.871007	13365

Di_Marco_Antonino_T_MD	A	43.242393	-75.439411	13440

Allen_Matthew_C_OD	A	43.078937	-75.652742	13421

Francis_Baggetta_Optician	A	43.026322	-74.991442	13350

Melaniuum	B	42.367898	-73.559405	13357

Michael_Tucciarone_DC_Associated_Chiropractic	A	43.040684	-75.391287	13323

Cliff's_Local_Market	C	43.015764	-75.034824	13357

Flowers_By_Suzanne	C	43.034298	-74.960722	13350

The_Medicine_Shoppe	A	43.015161	-75.035114	13357

Applebee's	B	43.022293	-74.994606	13350

Clinton_Florist	C	43.048013	-75.378332	13323

STS_Tire_&_Auto_Centers	D	43.232344	-75.439028	13440

SmartStyle_Family_Hair_Salons	B	43.078439	-75.691418	13421

Clough_Prek_Center	A	43.221896	-75.427476	13440

Cignarale's_Tony_Body_Shop	D	43.217593	-75.47548	13440

Ruggierio's_Trattoria	B	43.043959	-74.858489	13365

Roy_Rogers	B	43.015746	-74.803517	13365

Palumbo_Mozloom_Joanne_OD	A	43.077558	-75.338174	13413

Autum_Leigh_Rotach_LAc_Dipl_Ac	A	43.073053	-75.296471	13413

G_P_O_Federal_Credit_Union	C	43.074439	-75.342803	13413

St_Francis_Society	A	43.028218	-75.07379	13340

McDonald's	B	43.079673	-75.31845	13413

Gary's_Indoor_Garden_Supply	D	43.21197	-75.460662	13440

Wesleyan_Church	A	43.216759	-75.464082	13440

Resurrection_Life_Church	A	43.215357	-75.445196	13440

Spring_Farm_Cares	C	43.026617	-75.327032	13323

Mastrolia_Carmine_MD	A	43.091141	-75.651884	13421

Crystal_Springs_Beverage	C	43.027241	-74.914169	13365

The_Pizza_Shop	B	43.028275	-74.988342	13350

United_States_Postal_Service_(USPS)	C	43.042702	-74.860245	13365

Moretz_J_Alfred	A	43.015882	-75.037947	13357

Instachek	A	43.207146	-75.449296	13440

Louis_V_Denti_Elementary_School	A	43.232759	-75.463073	13440

China_King_Chinese_Restaurant	B	43.096087	-75.652232	13421

Klockowski_Richard_J_DDS	A	43.21503	-75.458789	13440

Absolute_Foot_Care	A	43.215703	-75.454126	13440

Medical_Laser_Therapeutics	A	43.072954	-75.287187	13413

Circle_K	C	43.038532	-74.866198	13365

Rayancha_Suresh_MD	A	43.054176	-75.279095	13413

Ferdula_Top_Soil_Products	C	43.041996	-75.064271	13340

Van_Allen_Nursing_Home	B	43.054444	-74.851685	13365

CITGO	C	43.214221	-75.464018	13440

Veterans_Memorial_Park	B	43.040694	-74.840306	13365

Minar_Fine_Indian_Cuisine	B	43.091819	-75.277617	13413

The_Locavore	C	43.037997	-75.069245	13340

Mvcaa_Inc_Oneida_Head_Start	A	43.102768	-75.661039	13421

Granny's_Kitchens	E	43.079087	-75.179167	13340

JCPenney	C	43.083237	-75.313585	13413

Fashion_Nails_&_Hair_Salon	B	43.087649	-75.311294	13413

Planned_Parenthood	A	43.231285	-75.440377	13440

Nimey's_Automotive_and_Tire_Center	C	43.135891	-75.262066	13403

Bill_Deyle's_Repair	D	43.005882	-75.076051	13357

Walmart	C	43.237224	-75.50177	13440

Jersey_Mike's	B	43.093071	-75.309709	13413

Hannaford_Supermarkets	C	43.088396	-75.316774	13413

Anatomy_In_Motion	B	43.049935	-75.379324	13323

Zoom_Tan	B	43.079995	-75.643283	13421

Sicilian_Delight	B	43.082413	-75.315555	13413

First_Baptist_Church_of_N_H	A	43.072321	-75.286797	13413

Sentinel_Security_&_Communications	C	43.051218	-75.273685	13413

Peterpaul_Recreation_Park	B	43.227371	-75.516591	13440

Lombardi_Chiropractic	A	43.075562	-75.690903	13421

China_Sea_Restaurant	B	43.048889	-75.379156	13323

Frankfort_Schuyler_Elementary_School	A	43.026902	-75.071557	13340

Shane_Trucking	C	43.129603	-75.2515	13403

Brooklyn_pickes	B	43.077417	-75.64238	13421

Dyett_Park	B	43.260101	-75.466961	13440

The_Root_Farm	B	42.997853	-75.21514	13456

Camroden_Golf_Course	B	43.258671	-75.361773	13440

Beauty_And_The_Beach	B	43.044225	-74.857432	13365

NYE_CHEVROLET	C	43.094823	-75.65434	13421

Primo_Pizzeria	B	43.015573	-75.049009	13357

Backbreak_Acres_Outdoor_Power_Equipment	C	43.009935	-75.018838	13357

State_Farm	C	43.05532	-75.271593	13413

St_Augustine's_Episcopal_Church	A	43.014278	-75.040781	13357

Krizia_Martin	C	43.049632	-75.378718	13323

Slonik_Transportation	D	43.070845	-75.375655	13323

Precision_Car_Wash	D	43.078088	-75.645637	13421

Stevens_Field	B	43.221234	-75.469967	13440

Unique_eCigs	C	43.082127	-75.322954	13413

Auto_Salvage_Technologies	E	43.049643	-74.988249	13350

RJ_Auto_&_Tire	C	43.089376	-75.397794	13323

Georgio's_Village_Cafe	B	43.073147	-75.289642	13413

First_Methodist_Church_of_Ilion	A	43.013761	-75.038966	13357

Vogel_Lory_W_DC	A	43.046292	-74.855633	13365

Sloppy_Joe's_Pizza	B	43.075405	-75.297512	13413

Stan's_Sea_Food	B	43.218223	-75.472544	13440

D'alessandro's_Landscaping_&_Nursery	D	43.032181	-75.176669	13340

Walgreens	A	43.055196	-75.276591	13413

Whitestown_Automotive	D	43.133884	-75.41127	13440

Allcare_Dental_&_Dentures	A	43.096068	-75.305076	13413

Bellamy_Elementary_School	A	43.206462	-75.421658	13440

Lowe's	C	43.026626	-74.969969	13350

Dunkin'	B	43.022695	-74.991792	13350

La-Z-Boy	C	43.127792	-75.239865	13403

Hummel's_Office_Plus	C	43.025355	-74.986743	13350

Haritatos_J_J_DDS	A	43.216901	-75.458389	13440

Aspen_Dental	A	43.210689	-75.458011	13440

Walgreens	A	43.079473	-75.641231	13421

Bravos_Machine_Shop_&_Auto_Repair	C	43.216222	-75.470286	13440

Dollar_General	C	43.075611	-75.29754	13413

Bikes_&_Boards_At_Surf'n_Ski	C	43.08317	-75.321871	13413

Rome_Federal_Credit_Union	C	43.207881	-75.431998	13440

German_Flatts_Veterinary_Clinic	A	42.99788	-75.051969	13357

Moore_Ronald_DC	A	43.216644	-75.456037	13440

Bible_Baptist_Church	A	43.08151	-75.331623	13413

Lakeview_Restaurant_and_Bar	B	43.059745	-75.608801	13421

Tony's_Pizzeria	B	43.219928	-75.461904	13440

John's_Auto_Restoration	D	43.233206	-75.361912	13440

New_London_Food_Mart	C	43.210542	-75.588446	13440

Paolozzi's_Mitsubishi	C	43.136825	-75.268637	13403

Bassett_Healthcare	A	43.027702	-74.982755	13350

Grand_Colonial_Bed_and_Breakfast	B	43.030847	-74.991757	13350

Academy_of_Performing_and_Creative_Arts	B	43.053225	-75.375948	13323

Killino's_Riverside_Diner	B	43.130607	-75.247708	13403

Gorczynski_Amy_Md	A	43.092677	-75.312849	13413

Woodforest_National_Bank	C	43.23721	-75.501835	13440

Haselton_Park	B	43.225723	-75.436334	13440

99_Restaurants	B	43.090492	-75.313664	13413

Little_Caesars	B	43.090978	-75.661674	13421

Teugega_Country_Club	B	43.270858	-75.441067	13440

A_&_J_Way_Landscape	C	43.093478	-75.627025	13421

Hi_Way_Haircuts	B	43.217214	-75.342535	13440

Sauquoit_Valley_High_School	A	42.988091	-75.25449	13456

Walgreens	A	43.016139	-75.035864	13357

ScreenSavers	C	43.08261	-75.323993	13413

Christine_Salomon_LMT_RMT_Namaste_Lightwork	B	43.083268	-75.342395	13323

Mr._Smoothie	B	43.082549	-75.315018	13413

Statewide_Agency	C	43.222151	-75.444696	13440

C_N_Nail	B	43.224721	-75.483567	13440

Lowe's	C	43.22813	-75.487911	13440

New_York_Mills_Elementary_School	A	43.092407	-75.291209	13417

Paris_Hill_Fire_Department	A	43.001349	-75.315488	13456

Dollar_General	C	43.219696	-75.448217	13440

Columbia_Litchfield_Fire_District	A	42.931057	-75.113866	13357

Big_Lots_Stores	C	43.225369	-75.484207	13440

Whisky_Jack's_Salon_For_Men	B	43.082149	-75.320904	13413

Oneida_Fire_Department	A	43.096442	-75.653283	13421

Mohawk_Valley_Florist_&_Gift_Inc	C	43.016829	-75.037372	13357

El_Jarocho_Mexican_Restaurant_and_Bar	B	43.220816	-75.424337	13440

Posh_Salon	B	43.096326	-75.296726	13417

Community_Bank	C	43.094043	-75.651589	13421

Aesthetic_Oral_Arts	A	43.079084	-75.334713	13413

B_&_F_Collision	D	43.196625	-75.442671	13440

H_Stahl_Sales_&_Service	C	43.028135	-74.769673	13365

FYE	C	43.082196	-75.316429	13413

Richard_M_Sleeper_MD_FACS	A	43.055693	-75.280174	13413

Engelbert's_Jewelers	C	43.212537	-75.461557	13440

Delta_Knolls_Golf_Center	B	43.268229	-75.447037	13440

Vision_Center	A	43.075564	-75.690908	13421

Xavier_Medical_Practice	A	43.090271	-75.649596	13421

Lisa's_Pet_Palace	B	43.215829	-75.459332	13440

Herkimer_Diamond_Mines	C	43.128755	-74.976654	13350

Tokyo_Restaurant	B	43.022943	-74.992841	13350

Cpj's_Restaurant_&_Pub	B	43.221416	-75.423409	13440

Copper_City_Driving_School	C	43.255659	-75.378671	13440

Ultra_Tan	B	43.080107	-75.390739	13323

Francos_Pizza	B	43.015883	-75.036377	13357

T-Mobile	C	43.082821	-75.315652	13413

Laserspa	A	43.091558	-75.276709	13413

New_Hartford_Animal_Hospital_&_Care_Center	A	43.054023	-75.272075	13413

Hallmark_Cards	C	43.22882	-75.437643	13440

Slaven_Mark_E_MD	A	43.102296	-75.659623	13421

Maranatha_Church	A	43.217702	-75.453831	13440

Fastrac	B	43.024039	-74.987752	13350

New_Hope_Christian_Community_Church	A	43.057264	-75.636042	13421

AR_Physical_Therapy	A	43.090883	-75.277262	13413

Sauquoit_Valley_Middle_School	A	42.9881	-75.255441	13456

Girardi_David_M_DO	A	43.078948	-75.652717	13421

Reformed_Church_of_Herkimer	A	43.028977	-74.989813	13350

Aceti's_Classic_Gardens	D	43.075115	-75.317206	13413

Sprint	C	43.081881	-75.32193	13413

STS_Tire_&_Auto_Centers	D	43.098462	-75.302496	13417

Kirkland_Town_Library	B	43.047918	-75.384259	13323

Anchor's_Away_Cafe	B	43.041048	-75.068778	13340

Advance_Auto_Parts	C	43.08586	-75.320069	13413

Allstate_Insurance	C	43.208827	-75.452969	13440

Crescent_Field	B	43.219553	-75.436586	13440

Dippin_Donuts	B	43.238553	-75.436889	13440

Quality_Inn	B	43.209903	-75.459432	13440

Applegate_Day_&_Enea_Family_Funeral_Home	B	43.013007	-75.040043	13357

Our_Lady_Queen_of_the_Apostles_Parish_Center	A	43.034117	-75.073603	13340

Inksanity_Tattoo_Studio	B	43.259498	-75.462324	13440

Hawaiian_Holiday_Tanning_Salon	B	43.026586	-74.986645	13350

St_Mary's_Roman_Catholic_Church_Of_Clinton	A	43.045447	-75.380609	13323

Chestnut_Commons_Diagnostic_Medicine	B	43.23206	-75.440575	13440

Allyson_Turnbull_at_Julie_Diehl_Salon	B	43.094375	-75.299535	13417

Cianfrocco's_Subs_&_Wings	B	43.208931	-75.453172	13440

Sunnyside_Dispensary_New_Hartford	C	43.094058	-75.305737	13413

Ridge_Mills_Elementary_School	A	43.241531	-75.438883	13440

Nook_and_Cranny	C	43.093704	-75.652461	13421

Diamond_Leggs	A	43.213907	-75.454869	13440

First_Source_Federal_Credit_Union	C	43.023246	-74.991884	13350

US_Army_Recruiting_Station_Rome	A	43.230692	-75.437732	13440

Lennon's_W_B_Wilcox	C	43.086066	-75.316978	13413

Henry's_Tailor_Shop	E	43.013942	-75.036991	13357

Detricks_Enterprise	C	43.20464	-75.433064	13440

George_Kahler_Sales	C	43.213885	-75.570294	13440

Ollie's_Bargain_Outlet	C	43.076917	-75.291845	13413

Gentile_Teresa_C_MD	A	43.077513	-75.651612	13421

Once_Upon_a_Child	C	43.083913	-75.327562	13413

AT&T	C	43.07907	-75.6464	13421

Tanner_Insurance_Agency_Inc	C	43.075559	-75.6909	13421

One_Realty_Partners	C	43.077346	-75.294126	13413

Dream_City_Mattress	C	43.227127	-75.490593	13440

Oneida_Baptist_Church	A	43.092649	-75.650941	13421

Party_City	C	43.085719	-75.320173	13413

Melrose_Supermarkets	C	43.0371	-75.069029	13340

Weller_Park	B	43.009372	-75.00714	13357

The_Sneaker_Store	C	43.083234	-75.321324	13413

Cooperative_Magnetic_Imaging	A	43.015891	-75.037938	13357

AutoZone	C	43.22025	-75.4479	13440

United_Way	B	43.210893	-75.458837	13440

Dar_Maur_Manor_Stables	C	43.001762	-75.316896	13456

King_Pin_Lanes	B	43.205554	-75.41335	13440

Mangia_Macrina's_Wood_Fired_Pizza	B	43.077135	-75.309979	13413

Slocum_Dickson_Medical_Group	A	43.093132	-75.279209	13413

Heidelberg_Cafe	B	43.047219	-74.985205	13350

John_D_Mecca_DDS_PC	A	43.072993	-75.296378	13413

Mohawk_Acres_Plaza	C	43.231111	-75.437897	13440

A_Vitullo	C	43.077212	-75.293905	13413

Ski_Doo_Bowen's_Power_Sports	C	43.006545	-75.043303	13357

Assembly_of_God_Church	A	43.215476	-75.462886	13440

YMCA	B	43.075351	-75.651274	13421

Price_Chopper_New_England	C	43.086079	-75.319036	13413

Charlie's_Place	B	43.084194	-75.344713	13323

Vine_and_Fig	B	43.257196	-75.461809	13440

Active_Day_Seniors_Program	B	43.056307	-75.364268	13323

First_Presbyterian_Church	A	43.090603	-75.651978	13421

Dollar_Tree	C	43.210187	-75.460528	13440

Greek_Gyros_Herkimer	B	43.028084	-74.988695	13350

State_Farm	C	43.025967	-74.984107	13350

Franklin_Field	B	43.224812	-75.447593	13440

Pawn_Pro	A	43.080008	-75.643187	13421

Rockin'_Jump	B	43.085409	-75.320907	13413

Shatla_Amhed_MD	A	43.082408	-75.296094	13413

Macy's	C	43.081103	-75.315418	13413

Central_New_York_Optometry	A	43.075929	-75.297607	13413

Kosar_John_P_Dr	A	43.218175	-75.459389	13440

Limited_Too	C	43.081061	-75.315438	13413

State_Bowling_Center	B	43.015328	-75.034583	13357

Utica_Safe_Schools_Healthy_Students_Partnership_Inc	A	43.223691	-75.45019	13440

Puff_n_Stuff	C	43.207274	-75.449739	13440

Slocum_Medical_Group_PC	A	43.027415	-74.983515	13350

The_Church_of_Jesus_Christ_of_Latter_day_Saints	A	43.257647	-75.461977	13440

Morey's_Diner	B	43.095475	-75.651203	13421

Walmart	C	43.09541	-75.312364	13413

Brad_Bennett_PHD	A	43.08102	-75.40022	13323

Ampersand_Mount_Ida_Hydro_Forestport_Plant	E	43.442492	-75.215962	13421

Orchard_Hall_Restaurant	B	43.005294	-75.261345	13456

Polish_National_Catholic_Church	A	43.046884	-74.854634	13365

Salvatore's_Italian_Bakery_&_Bagel_Shoppe	B	43.052532	-75.273377	13413

Oneida_Shopping_Center	C	43.102939	-75.660663	13421

Fastrac_Markets	C	43.13864	-75.275228	13403

Omnicare	A	43.082672	-75.329819	13413

Passalacqua_Stephen_DDS	A	43.07274	-75.28716	13413

Mastrangelo_John_J_DPM	A	43.218472	-75.45529	13440

DiSano's_Creative_Canvas	C	43.039827	-75.072001	13340

Vescio's_Franklin_Hotel	B	43.207894	-75.460006	13440

Nye_Toyota	C	43.075642	-75.682775	13421

Taylor_Agency	C	43.017838	-75.037682	13357

Transfiguration_Church	A	43.207808	-75.462025	13440

BigDog_Motors	D	43.028156	-75.05946	13340

Toro_Rezkallah_MD	A	43.088205	-75.646977	13421

Nutrivite_com	A	43.0914	-75.663062	13421

Seneca_Wine_and_Liquor	C	43.077088	-75.310336	13413

GameStop	C	43.095465	-75.308688	13413

J_C_Rendering	C	43.044458	-75.193022	13340

The_Bonadio_Group	A	43.082234	-75.361435	13323

Oneida_County_DMV_Office_Rome	A	43.21265	-75.462292	13440

Travelodge	B	43.042048	-74.859624	13365

O'Connor_Realty	C	43.217012	-75.457005	13440

Hallmark_Cards	C	43.077302	-75.29458	13413

Cloud_Giant	C	43.08216	-75.323385	13413

Americu_Credit_Union	C	43.078926	-75.651636	13421

Cedarville_Country_Store	B	42.930559	-75.112745	13357

Food_Center	C	43.219529	-75.324356	13440

La-Z-Boy	C	43.091919	-75.643305	13421

Speedy_Awards_and_Engraving	C	43.083691	-75.327541	13413

Fort_Rickey_Game_Farm	B	43.224727	-75.547425	13440

In_Touch_Therapeutic_Massage	B	43.045658	-74.85837	13365

Garage_Gym	B	43.075542	-75.69094	13421

WakeUp_with_MakeUp	A	43.069982	-75.286768	13413

Natural_Health_Center	A	43.21907	-75.478821	13440

Sauquoit_Knolls_Golf_Club	B	42.996595	-75.23644	13456

SmartStyle_Family_Hair_Salons	B	43.094753	-75.312614	13413

Hideaway_Pub	C	43.220858	-75.335877	13440

Black_River_Wine_&_Spirits	C	43.22063	-75.447511	13440

Relaxing_Center	B	43.082888	-75.315231	13413

Rome_Surgical_Specialists	A	43.231111	-75.442336	13440

Rome_Family_Dental_Svce	A	43.213555	-75.458221	13440

Sweet_Temptations	B	43.097064	-75.652677	13421

Hancock_James	B	43.03471	-75.065527	13340

Hanna_Mounir_PC	A	43.030196	-74.990061	13350

J_D_Hildenbrandt_Auto	D	43.208484	-75.451351	13440

Burger_King	B	43.230364	-75.438857	13440

Little_Learners_On_Campus	A	43.23903	-75.45391	13440

Copper_City_Brewing_Company	D	43.204906	-75.431557	13440

Pizza	B	43.070011	-75.284465	13413

Max_L_Cowen's_Student_Stores	C	43.135127	-75.262639	13403

Salon_Moda	B	43.086372	-75.316769	13413

Byrne_Dairy	C	43.092967	-75.653432	13421

U_S_Black_Belt_Martial_Arts	B	43.088519	-75.311637	13413

St_Thomas_Church	A	43.07183	-75.331479	13413

Domino's_Pizza	B	43.209987	-75.460817	13440

St_Stephen's_Episcopal_Church	A	43.070919	-75.286257	13413

Renewed_&_Rescued	C	43.026354	-74.986642	13350

Beacon_Center	A	43.024557	-74.985462	13350

Unique_Salon	B	43.21557	-75.46199	13440

J_K_Builders	C	43.044582	-74.865419	13365

Massoud's_Tree_Farm	D	43.024225	-75.244058	13456

Teddys	B	43.220762	-75.447487	13440

Kohl's	C	43.090985	-75.317144	13413

Andrew_J_Spiridigloizzi_DDS	A	43.056061	-75.271695	13413

Mohawk_Valley_Retina_Plcc	A	43.072917	-75.292109	13413

BeeUtiful_Skin_Care_&_Waxing	A	43.069676	-75.343637	13413

Five_Corners_Auto_Parts	C	43.076031	-75.685403	13421

Snubbing_Post_Restaurant	B	43.260018	-75.439719	13440

Jervis_Public_Library	B	43.21868	-75.454144	13440

Maynard_Frozen_Foods	C	43.135522	-75.260345	13403

Kinney_Drugs	A	43.046907	-75.382853	13323

The_Village_Toy_Shop	C	43.077504	-75.293929	13413

Weight_Watchers	B	43.22081	-75.446617	13440

Wakefield_Furniture	C	43.026303	-74.986337	13350

Visionworks	A	43.228446	-75.492508	13440

Super_8	B	43.077763	-75.644944	13421

St_John's_Episc_Church	A	43.089959	-75.648246	13421

VCA_Animal_Hospitals	A	43.187609	-75.480484	13440

Perry_Junior_High_School	A	43.058899	-75.25962	13413

Zensations_Therapeutic_Massage	B	43.214888	-75.456384	13440

Saving_Time	C	43.04167	-74.856577	13365

Red_Samurai_Steak_House	B	43.078517	-75.315731	13413

Frankfort_Schuyler_Central_High_School	A	43.029962	-75.072612	13340

Clinton_Therapy_&_Testing_Center	A	43.08102	-75.400407	13323

Linda_Boehm_DMD	A	43.104809	-75.653099	13421

Judge_Pizza	B	43.079135	-75.644515	13421

Chuck_E._Cheese's	B	43.087686	-75.314174	13413

Tallim_Gibran_A_MD	A	43.234422	-75.437869	13440

Gary's_Music	C	43.212012	-75.460652	13440

Dunkin'	B	43.138735	-75.276518	13403

Number_One_Chinese_Restaurant	B	43.078383	-75.641721	13421

Chris'_Collision	D	43.016497	-74.878687	13365

Graniero_Kenneth_D	A	43.054192	-75.27905	13413

Americu_Credit_Union	C	43.236502	-75.435472	13440

Justice	C	43.083007	-75.314919	13413

Bowen's_Power_Sports	C	43.012775	-75.037986	13357

Fuji_Japanese_Steak_House	B	43.230174	-75.493556	13440

Marcy_Marina	C	43.134091	-75.273212	13403

Subway	B	43.076119	-75.641729	13421

The_Medicine_Shoppe	A	43.090423	-75.661339	13421

Side_Kicks_Family_Karate	B	43.212663	-75.460972	13440

Oneida_Healthcare_Center_Extended_Care_Facility	A	43.076882	-75.65459	13421

Charlie's_Pizza	B	43.053379	-75.277198	13413

Oneida_Herkimer_Madison_Boces	A	43.093764	-75.322839	13413

Central_Distributing	C	43.097702	-75.648575	13421

Paravati_Chiropractic_Care	A	43.055294	-75.271587	13413

Andrew_S_Rozanski_DMD	A	43.072284	-75.289184	13413

Masterangelo_Truck_Refinishers	D	43.198629	-75.446855	13440

Maynard_United_Methodist_Church	A	43.13352	-75.250645	13403

Furniture_Weekend	C	43.0275	-74.978757	13350

Gianni_Lauryn_Hair_Studio	B	43.046994	-75.273444	13413

Mohawk_Vly_Community_Action_Agncy_Inc_Hd_Strt_Ctrs	A	43.013287	-75.037387	13357

Melfe's_Shoe_Service	C	43.016796	-75.034244	13357

Gentlemen's_Corner_Barber_Shop	B	43.076693	-75.294486	13413

First_United_Methodist_Church	A	43.025481	-74.988828	13350

Hurd_Douglas_H_DDS	A	43.058479	-75.310663	13413

New_Hartford_Barber_Shop	B	43.07416	-75.287759	13413

Upstate_Auto_Sales	C	43.220793	-75.480858	13440

Canal_Place	C	43.040944	-74.858733	13365

Mel's_Place	B	43.034026	-74.871108	13365

Jm_Heating_Service	A	43.036405	-75.065407	13340

Dunkin'	B	43.017075	-74.802862	13365

KFC	B	43.2117	-75.462214	13440

Lumber_Liquidators	C	43.090202	-75.316717	13413

Colonial_Self_Storage	C	43.242375	-75.52859	13440

Great_Wall_Buffet	B	43.043496	-74.857929	13365

Elbadawi_Nabila_MD	A	43.077155	-75.651673	13421

Mohawk_Valley_Federal_Credit_Union_Marcy_Branch	C	43.137845	-75.277217	13403

Pumpernickel's_Deli	B	43.076697	-75.294448	13413

The_Cellular_Shop_Oneida	C	43.079064	-75.646403	13421

Sunoco	C	43.204161	-75.433134	13440

Subway	B	43.020621	-74.991144	13350

Wendy's	B	43.212688	-75.465431	13440

Enterprise_Rent-A-Car	C	43.078279	-75.648378	13421

Mohawk_Valley_1st_Choice_Realty	C	43.073145	-75.289877	13413

Grande's_Pizzeria	B	43.005151	-75.256951	13456

Iroquois_Travel_Plaza	C	43.01688	-74.801836	13365

Cellular_Sales	C	43.077101	-75.689496	13421

Hapanowicz_Bros_Meat_Market	C	43.094518	-75.298734	13417

Monica_Caplan	A	43.05532	-75.271582	13413

Brenda_Kent	B	43.094379	-75.299561	13417

V_Ja's_Lounge	B	43.036789	-75.068497	13340

Oneida_American_Legion	B	43.103148	-75.659048	13421

Crescent_Field	B	43.219987	-75.437053	13440

Moe's_Southwest_Grill	B	43.235792	-75.436704	13440

Allied_Heating_and_Air_Conditioning	A	43.139102	-75.28331	13403

Racha_Eric_B_DDS	A	43.216198	-75.454162	13440

Mohawk_Valley_Church	A	43.138035	-75.263916	13403

KFC	B	43.080136	-75.319767	13413

Prop's_Inn	B	43.074776	-75.299423	13413

Wendy's	B	43.080943	-75.319568	13413

National_Gold_Buyers_&_Pawn	A	43.213447	-75.465274	13440

Maple_Crest_Golf_Course_&_Range	B	43.034393	-75.070495	13340

White_Rose_Bakery	E	43.043611	-74.859334	13365

Ohlbaum_Steven_A_Od	A	43.072259	-75.289221	13413

Valvoline	D	43.233482	-75.438307	13440

Upstate_Family_Chiropractic	A	43.023385	-74.989965	13350

Shoe_Department_1378	C	43.235705	-75.501062	13440

Denny's	B	43.076831	-75.641738	13421

Trevisani_&_Laporte_Auto_Sales	C	43.095461	-75.298763	13417

St_Elizabeth_Medical_Group	A	43.073552	-75.291791	13413

Champs_Sports	C	43.081728	-75.315698	13413

Ten_Nails_&_Tanning_Salon	B	43.213502	-75.45664	13440

Charlotte_Russe	C	43.082519	-75.324907	13413

Baggetta_Francis_Optcn	A	43.026342	-74.991416	13350

Colossi_Joseph_DO	A	43.091539	-75.276708	13413

Lorinda_Fiorini_Lmt	B	43.074002	-75.32036	13413

Origlio's_Wagon_Wheel_Restaurant	B	43.09345	-75.65139	13421

Midland_Collision	D	43.080795	-75.296793	13413

Burrstone_Dairy_Isle	B	43.094167	-75.279838	13413

Kirley's_Auto_Care	C	43.09208	-75.635522	13421

Sierra_Computer_Services	C	43.117548	-74.983002	13350

Mohawk_Valley_Retina	A	43.077585	-75.33819	13413

Cooper_Electric_Supply	B	43.085966	-75.669212	13421

Shaggy_Chic_Dog_Grooming	C	43.09353	-75.276665	13413

The_Vigneto_Restaurant	B	43.209224	-75.453598	13440

Razia_Sultana_MD	A	43.093113	-75.279174	13413

Nurse_Practitioner_in_Psychiatry_Services_of_CNY	A	43.097282	-75.296874	13417

Clinton_Park	B	43.040767	-74.859488	13365

Stewart's_Shops	C	43.095328	-75.318029	13413

Words_of_Life_Promotions	C	43.208719	-75.474855	13440

Clinton_Senior_High_School	A	43.049914	-75.382594	13323

DJR_Custom_Electronics	C	43.063792	-75.699996	13421

Trovato_Suzette_NP	A	43.076016	-75.702881	13421

Hearing_Health_USA	A	43.231283	-75.443323	13440

Debbie's_Cafe	B	43.054702	-75.271779	13413

Gordon_David_C	A	43.092424	-75.651428	13421

Elmer_Hill_Veterinary_Clinic	A	43.28372	-75.471527	13440

Rome_Pool_&_Spas	B	43.204903	-75.429773	13440

Mitsuba_Japanese_Cuisine	B	43.09179	-75.314113	13413

Smooth_Transitions_Laser_Salon	B	43.078122	-75.295088	13413

Dollar_General	C	43.102832	-75.660958	13421

Gigliotti's_Utica_Driving_School	C	43.03563	-75.266848	13456

Village_Crossing_On_Green	C	43.048736	-75.37896	13323

Edward_Jones	A	43.095273	-75.653674	13421

Open_MRI_of_Mohawk_Valley	A	43.089859	-75.311962	13413

Fisher_Auto_Parts	C	43.216902	-75.4738	13440

Dunkin'	B	43.081906	-75.321971	13413

Runway_Hair_Salon	B	43.077504	-75.293508	13413

Herkimer_County_Probation_Department	A	43.028374	-74.988238	13350

Auto_Specialists	D	43.080391	-75.367711	13323

East_Dynasty_Buffet	B	43.077368	-75.295023	13413

AutoZone	C	43.023313	-74.989259	13350

Frank's_Transmission_Service	D	43.199028	-75.448668	13440

Rituals	B	43.068404	-75.287074	13413

Premo's_Automotive_Sales_&_Service	C	43.212538	-75.451595	13440

Kirkpatrick_Daniel_P	A	43.027027	-74.987205	13350

Hearing_Health_USA	A	43.082678	-75.330003	13413

NY_Outdoor_Realty	C	43.052177	-75.367591	13323

CNY_Medicine_&_Allergy	A	43.245962	-75.453763	13440

Polish_Nail_Spa	B	43.096365	-75.303004	13413

Valley_Gymnastic_Co	B	43.218656	-75.457229	13440

House_Of_Hair	B	43.082285	-75.32301	13413

Farm_House_Restaurant	B	43.015185	-75.035726	13357

Slocum_Dickson_Medical_Group	A	43.019422	-75.04692	13357

Dhabhar_Porus_J_MD	A	43.093129	-75.27917	13413

Twin_Ponds_Golf_&_Country_Club	B	43.104226	-75.282468	13417

Stone_Presbyterian_Church	A	43.047951	-75.378593	13323

Schuyler_Volunteer_Fire_Company_Incorporated_Substation	A	43.05391	-75.075041	13340

The_Medicine_Shoppe	A	43.055752	-75.280282	13413

Mackay_Rippey_Acupuncture	A	43.056152	-75.366817	13323

GameStop	C	43.02728	-74.980175	13350

Best_Buy	C	43.092834	-75.30881	13413

T-Mobile	C	43.210452	-75.460295	13440

Vernon_Park	B	43.078636	-75.536994	13421

Hollister	C	43.08225	-75.316253	13413

Pezdek's_Auto_Repr_&_Maintenance_Center	C	43.100635	-75.295273	13417

Zale	C	43.081096	-75.3154	13413

Mid_State_Correctional_Facility	A	43.168432	-75.296474	13403

Fastrac	B	43.21439	-75.453483	13440

Mancino_Insurance	C	43.126988	-75.237641	13403

K_Bagel	B	43.090995	-75.278303	13413

New_China	B	43.078434	-75.689197	13421

Central_Valley_Academy	A	43.009204	-75.038926	13357

Adirondack_Community_Physicians_Md	A	43.027092	-74.982917	13350

Dutchtown_Ace_Hardware	C	43.085743	-75.081123	13340

St_James_Episcopal_Church	A	43.046769	-75.378453	13323

The_New_Testament_Church	A	43.21543	-75.466497	13440

Bonomo's_Dari_Creme	B	43.078266	-75.384925	13323

Pedro's_Kitchen	B	43.087826	-75.311152	13413

Denny's	B	43.209873	-75.459145	13440

Rome_Medical_Radiology	A	43.231309	-75.443386	13440

Beauty_Nails_&_Spa	B	43.083167	-75.327445	13413

Mark_Lundquist_Counseling	A	43.023945	-74.975882	13350

Electrolysis_by_Michele	A	43.077335	-75.294376	13413

Primo_On_The_Greens	B	43.141056	-75.707727	13421

AT&T	C	43.228391	-75.492667	13440

Ruff_Gordon_James_DDS	A	43.217564	-75.457051	13440

Irish_Benjamin_Kathleen_MD	A	43.234349	-75.437901	13440

Copperccinos_Coffee_House	B	43.212653	-75.460743	13440

SavOn	C	43.078538	-75.646343	13421

Fort_Stanwix_National_Monument	B	43.211791	-75.454686	13440

Holy_Cross_Academy	A	43.092529	-75.631625	13421

Shu_Maker_Mountain_Climbers	A	42.977219	-74.82294	13365

I_Ramen_Bar	B	43.078363	-75.292577	13413

Glassy_Business_Window_Tinting	C	43.101508	-75.294375	13417

Little_Falls_Municipal_Golf_Course	B	43.061262	-74.859359	13365

Better_Hearing	A	43.095481	-75.651863	13421

First_Assembly_of_God_Church	A	43.038876	-74.857778	13365

Tony's_Lounge	B	43.039029	-75.072415	13340

Mike's_Towing_&_Auto_Repair	C	43.228934	-75.491815	13440

Putnam_James_H	A	43.082396	-75.296073	13413

Faith_Bible_Baptist_Church	A	43.216857	-75.460144	13440

Allstate_Insurance	C	43.216058	-75.472208	13440

Forever_Leather	E	43.077163	-75.294347	13413

Ilion_Free_Public_Library	B	43.013817	-75.039798	13357

Iocovozzi_V_J_Funeral_Home	B	43.035097	-75.071194	13340

Sitrin_Charles_T_Health_Care_Center	A	43.055446	-75.229647	13413

James_Mitsubishi	C	43.237265	-75.436904	13440

Smokers_Choice	C	43.015803	-75.036728	13357

East_Dominick_Xtra_Mart	C	43.20778	-75.451914	13440

Peniston_Reo_MD	A	43.234421	-75.437872	13440

Gem_Agency	C	43.068055	-75.348244	13323

LaRoma's_Pizzeria_&_Restaurant	B	43.214442	-75.446657	13440

Effleurage_Day_Spa	B	43.07443	-75.288696	13413

Rome_Savings_Bank	C	43.228593	-75.491056	13440

Family_Dollar_Stores	C	43.23053	-75.437906	13440

Clinton_Collision	C	43.053803	-75.376219	13323

Custymize	C	43.040363	-75.072782	13340

Tangel_Colette_T_MD	A	43.027763	-74.982784	13350

Little_Lambs_Daycare_&_Preschool	A	43.137898	-75.263673	13403

Upstate_Cerebral_Palsy	A	42.989747	-75.257559	13456

Cliff's_Local_Market	C	43.240391	-75.437774	13440

Acupuncture_Services_of_Central_New_York	A	43.056167	-75.280057	13413

Broadway_Tire_&_Service	D	43.1988	-75.448511	13440

Hannaford_Plaza	C	43.053879	-75.277462	13413

May_Stephen_D_Dr_Dntst	A	43.015231	-75.03639	13357

CVS	A	43.044088	-74.856366	13365

Desai_Ankur_MD	A	43.232045	-75.440629	13440

Greg_Ellinger_Collision	D	43.233544	-75.498684	13440

Pulaski_Park	B	43.108906	-75.28853	13417

Reindance_Stables_Inc	B	43.025587	-75.207375	13456

Clinton_Wine_&_Spirits	C	43.042975	-75.386086	13323

Clinton_Elementary_School	A	43.051625	-75.37992	13323

Ellinwood_Dental	A	43.090976	-75.311692	13413

Torrid	C	43.08256	-75.314652	13413

Rent-A-Center	C	43.025875	-74.985619	13350

U_Haul_Moving_&_Storage_of_Rome	C	43.204057	-75.455788	13440

Scruples_Hair_&_Tanning_Salon	B	43.1331	-75.25631	13403

Blonde_Ambition	B	43.095482	-75.294448	13417

Sit_Means_Sit_Dog_Training	B	43.082222	-75.393087	13323

Muok_Joseph_N_MD	A	43.093088	-75.279209	13413

Dr_Matthew_C_Allen	A	43.078964	-75.652722	13421

Religious_Education_Ofc	A	43.066264	-75.285835	13413

Clinton_Auto_Service	D	43.039625	-75.391673	13323

Misra_Sanjay_MD	A	43.019441	-75.046883	13357

Robert_L_Bradley_Elementary_School	A	43.070196	-75.285646	13413

Klippers	B	43.084295	-75.33908	13323

Taco_Bell	B	43.022081	-74.993222	13350

Bonita's_Sandwich_chef	B	43.044145	-74.860434	13365

Chase	C	43.094829	-75.652248	13421

Singh_Talbir_DDS	A	43.015175	-75.03625	13357

At_Home	C	43.089219	-75.3143	13413

Mike_Jr's_Auto_Repair	D	43.20456	-75.44067	13440

Grippe's_Hairstyling	B	43.140085	-75.276518	13403

The_Tot_Spot_Play_Cente	B	43.062395	-75.603237	13421

Mt_Calvary_Baptist_Church_Clerk	A	43.206734	-75.455851	13440

Chipotle_Mexican_Grill	B	43.09546	-75.305863	13413

Tops_Plaza	C	43.079761	-75.643585	13421

Caribbean_Restaurant	B	43.213737	-75.464398	13440

Clinton_Middle_School	A	43.049675	-75.382382	13323

Bulinski_Trucking_Automotvie_Repair	D	43.050101	-75.085298	13340

Floyd_Fire_Department	A	43.220418	-75.332614	13440

Burger_King	B	43.079195	-75.645579	13421

Albert_O_Nichols_House	A	43.025898	-74.981409	13350

Sperling_John_F_MD	A	43.073189	-75.293511	13413

Nutrishop	A	43.088439	-75.311523	13413

Metro_Mattress	C	43.088048	-75.31205	13413

Soho_Nails_&_Spa	B	43.082628	-75.323739	13413

Bonvino_Vincent_DMD	A	43.015658	-75.036554	13357

Gates_Cole_Associates_Inc	C	43.073741	-75.292605	13413

Custom_Auto_Cleaning	D	43.020352	-74.986782	13350

The_Home_Depot	C	43.089597	-75.28084	13413

First_Baptist_Church	A	43.027228	-74.985864	13350

Hanifins_Tire_&_Service_Center	C	43.078652	-75.640706	13421

Health_Street	A	43.027101	-74.98294	13350

Ben_Jerry's_ice_cream	B	43.082928	-75.315824	13413

Norton_Roger_W_MD	A	43.093129	-75.279211	13413

New_Hartford_Shopping_Center	C	43.077376	-75.294549	13413

Doggy_D'zynes	C	43.277557	-75.470218	13440

Escape_Away_Massage	B	43.097275	-75.296872	13413

Dr_John_J_Costello_Jr	A	43.078946	-75.652723	13421

USA_Auto_Glass_Repair	C	43.205138	-75.423001	13440

Gooldy_Samuel_K	A	43.073014	-75.28667	13413

Ricky's_Tire_&_Auto_Center	C	43.227886	-75.491332	13440

Bailey's_Automotive_&_Small_Engine_Repair	C	43.024117	-75.054518	13357

Enterprise_Rent-A-Car	C	43.215999	-75.472094	13440

Hannaford_Supermarkets	C	43.053521	-75.277901	13413

Cole_Auto_Repair_Shop	D	43.20822	-75.375061	13440

Faxton_St_Luke's_Healthcare_Rome	A	43.227019	-75.430008	13440

Wiggins_Park	B	43.226395	-75.467305	13440

Allen_Zuck_OD	A	43.076223	-75.297612	13413

Starbucks	B	43.015941	-74.803685	13365

Nicky_Doodles	B	43.224608	-75.486685	13440

Cost_Cutters	B	43.079165	-75.645847	13421

New_Hartford_Senior_High_School	A	43.070018	-75.28443	13413

G_&_M_Sports_Outlet	C	43.218234	-75.473676	13440

Save-A-Lot	C	43.220045	-75.448113	13440

Foot_Locker	C	43.082129	-75.315747	13413

Sherwin-Williams	C	43.087506	-75.314371	13413

Northside_Collision	D	43.021653	-75.039067	13357

Subway	B	43.082089	-75.323064	13413

Alteri's_Restaurant	B	43.048077	-75.379169	13323

Triangle_Park	B	43.217609	-75.444142	13440

Dr_G's_Weight_Loss	B	43.077189	-75.295693	13413

Fat_Cat's_Fish_Fry	C	43.025457	-74.981773	13350

Falcone_Auto_Sales	C	43.223306	-75.484685	13440

Casey's_Tavern	B	43.200814	-75.37575	13440

Anthony_R_Tardugno_DDS	A	43.216124	-75.457551	13440

Mind_Games	C	43.095751	-75.651708	13421

Mohawk_Valley_Surgical_Associates	A	43.073165	-75.293525	13413

Don's_Rok	B	43.048348	-75.38142	13323

Erins_Kitchen	B	43.083745	-75.645461	13421

Frankfort_Schuyler_Middle_School	A	43.02996	-75.072583	13340

Hertz	C	43.021648	-75.039052	13357

Mill	B	43.2061	-75.445142	13440

First_Presbyterian_Church	A	43.213947	-75.455887	13440

The_Barker_Barber	C	43.040095	-75.670737	13421

CARSTAR_Auto_Body_Repair_Experts	D	43.231912	-75.495871	13440

Manheim_Collision	D	43.084185	-74.821329	13365

Master_Planners_&_Associates	A	43.05562	-75.280663	13413

Rosy_Nails	B	43.077432	-75.642351	13421

The_Fitness_Mill	B	43.097046	-75.297027	13417

Garg_Bhisham_MD	A	43.053974	-75.279537	13413

Kumon_Institute_of_Education	A	43.085695	-75.320416	13413

Liquor_Warehouse	C	43.229596	-75.494908	13440

Bostwick's_Liquor_Store	C	43.210909	-75.458379	13440

Colonial_Park_Rehabilitation_and_Nursing_Center	A	43.217402	-75.433163	13440

Noyes_Park	B	43.066495	-75.60313	13421

Sauquoit_Valley_Elementary_School	A	42.988062	-75.25545	13456

Ram_Collision	D	43.090951	-75.179404	13340

M&T_Bank	C	43.043267	-74.858854	13365

Costanza_Agency	C	43.039048	-75.071796	13340

Emmanuel_Episcopal_Church	A	43.04423	-74.855308	13365

Betsy_Ross_Nursing_Facility	B	43.233432	-75.465995	13440

Primerica	A	43.213983	-75.457956	13440

Michel_J_Associate	A	43.049885	-75.378772	13323

Click's_Cakes	B	43.023948	-74.984939	13350

The_Salvation_Army	C	43.214554	-75.464475	13440

Ilion_Lumber_Company	C	43.017568	-75.040964	13357

Brenda's_Natural_Foods	A	43.212423	-75.460476	13440

Rio_Grande_Tex_Mex_Grill	B	43.051968	-75.272568	13413

New_Hope_Baptist_Church	A	43.219579	-75.457944	13440

United_States_Postal_Service_(USPS)	C	43.1058	-75.291117	13417

Grace_Hair_Studio	B	43.236832	-75.436842	13440

Paris_Town_Park	B	42.982757	-75.255681	13456

Remington_Federal_Credit_Union	C	43.015609	-75.037135	13357

Villa_Verona_Vineyard_&_Bistro	D	43.099495	-75.614034	13421

Associated_Medical_Professionals_Of_Ny	A	43.077919	-75.658411	13421

Mitsuba_Japanese_Cuisine	B	43.230476	-75.438014	13440

Krenichyn's_Plumbing_&_Heating	C	43.0444	-74.986632	13350

Herkimer_Eyecare_Center	A	43.027531	-74.979534	13350

Branck_Construction	C	43.039424	-75.071791	13340

Little_Falls_Public_Library	B	43.044276	-74.853962	13365

Ravenswood_Comics_Baseball_Cards	C	43.082062	-75.323138	13413

City_of_Rome	B	43.219652	-75.463685	13440

Western_Union	C	43.076268	-75.29515	13413

Mary_Go_Round	C	43.096871	-75.650461	13421

La_Belle_Vie_at_311	B	43.214885	-75.457329	13440

The_Children's_Place	C	43.082863	-75.315022	13413

Michael's_Greenhouse	C	42.997002	-75.255641	13456

Hipstir_Cafe	E	43.094354	-75.652645	13421

Marcy_Driving_Range_&_Miniature_Golf	B	43.102686	-75.221447	13403

United_States_Postal_Service_(USPS)	C	43.094228	-75.652973	13421

Creekside_Cafe	B	43.050919	-75.272121	13413

Subway	B	43.044124	-74.856129	13365

Cazenovia_Equipment_Company	C	43.083841	-75.343244	13323

Marshalls	C	43.210567	-75.463052	13440

Napoleons_Cafe	B	43.09567	-75.651926	13421

New_Hartford_Shopping_Center	C	43.076692	-75.294877	13413

Clinton_Ale_House	B	43.042911	-75.3862	13323

Schuyler_Travel_Plaza	C	43.076425	-75.103143	13340

Freeway_Insurance_Services	C	43.209329	-75.454014	13440

American_Job_Centers	B	43.027765	-74.988998	13350

Enterprise_Rent-A-Car	C	43.026023	-74.985359	13350

STS_Tire_&_Auto_Centers	D	43.078369	-75.648129	13421

Pecoraro_Dairy_Prods	C	43.219085	-75.47881	13440

Agway	C	43.050475	-75.379606	13323

Clinton_Blooms	C	43.093165	-75.651026	13421

Yahnundasis_Golf_Club	B	43.082867	-75.306166	13413

Clifford_Fuel_Co_Mobil	C	43.240509	-75.437826	13440

Carol's_Crafts	C	43.22741	-75.490811	13440

Rizio_and_Calandra_Plumbing_Excavation	C	43.202941	-75.439629	13440

Catherine's_Grooming_&_Pet_Care	B	43.106319	-75.661583	13421

Eldredge_Charles_J_Md	A	43.090564	-75.279883	13413

Tarson_Pools_and_Spas	C	43.078238	-75.665889	13421

David_P_Jalowiec_Dc	A	43.029906	-74.993943	13350

Mills_Electrical_Supply	C	43.216449	-75.474879	13440

Herkimer_Reformed_Church	A	43.028973	-74.989829	13350

Weisser's_Jewelers	C	43.027748	-74.987701	13350

Kelly's_Hair_Design	B	43.086946	-75.669373	13421

Alliance_Bank	C	43.079903	-75.643868	13421

Olive_Garden	B	43.0876	-75.312435	13413

New_Hartford_Consumer_Square	C	43.09378	-75.30933	13413

Escape_Away_Massage	B	43.110909	-75.286152	13417

Mvcaa_Inc_Herkimer_Head_Start	A	43.023594	-74.977373	13350

Harbor_Freight_Tools	C	43.238455	-75.504461	13440

Auntie_Anne's	B	43.082497	-75.324839	13413

Smart_Fitness_Physical_Therapy	A	43.083842	-75.293637	13413

KOA_(Kampgrounds_of_America)	E	43.128486	-74.974504	13350

Reimagine_Records	C	43.0841	-75.319525	13413

National_Lube_Express	D	43.078648	-75.644074	13421

WellNow_Urgent_Care	A	43.078667	-75.641563	13421

Beechy_Carol_K_MD	A	43.02775	-74.982816	13350

Trail_Styling_Salon	B	43.07626	-75.61952	13421

Talbots	C	43.080438	-75.321041	13413

Pilates_Contrology_Studio	B	43.044276	-74.857328	13365

Mohawk_Valley_Cat_Care	A	43.011766	-75.39737	13323

Dollar_General	C	43.042265	-74.858614	13365

Charles_D_Stahl_Sales_&_Service	C	43.028114	-74.769708	13365

Starbucks	B	43.093943	-75.307747	13413

Ye_Olde_Pizza_Pub	B	43.076952	-75.611142	13421

Oneida_Healthcare_Center	A	43.040851	-75.622988	13421

B_&_B_Auto_Tech	D	43.018992	-74.984191	13350

Cricket_Wireless	C	43.210493	-75.453137	13440

VIP_Nails	B	43.089826	-75.312072	13413

Burke_Park	B	43.045388	-74.859695	13365

Flat_Iron_Pizza	B	43.009991	-75.040467	13357

Rubicon_Recycling	E	43.243938	-75.527182	13440

Subway	B	43.237175	-75.502711	13440

Dollar_Tree	C	43.022919	-74.995164	13350

Cajun_Cafe	B	43.082372	-75.315608	13413

Ahluwalia_Prabhat_K	A	43.04421	-74.847491	13365

Christ_Luth_Church	A	43.044653	-74.851392	13365

CJ_Banks	C	43.090298	-75.315413	13413

New_Hartford_Shopping_Center	C	43.059229	-75.28609	13413

Liberty_Auto	D	43.075348	-75.701391	13421

Ed's_Pizza_Place	B	43.043748	-74.858926	13365

Velvet_Dog	B	43.024477	-74.984831	13350

Business_Machines_&_Equipment	C	43.085227	-75.331	13413

True_Value_Hardware	C	43.017011	-75.037116	13357

Thurheimer_Elizabeth_A_MD	A	43.027711	-74.982785	13350

Planet_Fitness	B	43.235566	-75.437985	13440

State_Farm	C	43.13524	-75.26252	13403

Folts_Home	B	43.027096	-74.984339	13350

VICTORY_CHRYSLER_DODGE_JEEP_RAM	C	43.234487	-75.500047	13440

Stewart_A_Bruce_Dntst	A	43.090698	-75.648773	13421

Rome_Memorial_Hospital_Inc	A	43.229112	-75.442135	13440

Heads_R_Turning_Spa	B	43.016595	-75.035201	13357

Mohawk_Valley_Community_College_Rome_Campus	A	43.220191	-75.42821	13440

Action_Ear_Hearing	A	43.078824	-75.316095	13413

Disposable_Gowns_Com	A	43.082697	-75.149679	13340

Reilly's_Dairy	C	43.005383	-75.255778	13456

Larry_A_Rocco_Photography	A	43.219943	-75.453243	13440

Ace_Hardware	C	43.018584	-75.032123	13357

Verizon_Wireless	C	43.023558	-74.989431	13350

Rubinovich_R_Mitchell	A	43.232004	-75.440653	13440

The_Church_of_Jesus_Christ_of_Latter_day_Saints	A	43.064008	-75.62035	13421

Woodberry_Hills_Swim_Club	B	43.060401	-75.295703	13413

CosmoProf	C	43.225003	-75.483795	13440

AP_Auto_Repair	C	43.204559	-75.463838	13440

City_of_Rome	B	43.212202	-75.458707	13440

Robertelli's_ABC_Driving_School	C	43.048497	-75.233656	13413

Connect_Medical_Products	A	43.078513	-75.644883	13421

Johnny_Rae's	C	43.081345	-75.368553	13323

The_Photo_Shoppe_Fusion_Art_&_Gift_Gallery	C	43.276969	-75.46917	13440

Betsinger_Road_Park	B	43.061842	-75.591926	13421

Pinti_Field	B	43.208802	-75.443066	13440

Danceography_Studio	B	43.082668	-75.323276	13413

Vinny's_Pizzeria	B	43.023404	-74.98996	13350

Allstate_Insurance	C	43.093328	-75.276355	13413

Clinton_Tractor_and_Implement_Co	C	43.044846	-75.383778	13323

Nunn's_Home_Medical_Equipment	B	43.221765	-75.421598	13440

Hair_Creaters_&_Tropical_Tanning	B	43.259744	-75.461779	13440

Superior_Car_Wash	D	43.135612	-75.261159	13403

Eye_Care_At_Slocum_Dickson_Optical_Shop	A	43.092981	-75.278847	13413

Violin_Shoppe	C	43.078231	-75.612366	13421

New_York_Mills_Junior_Senior_High_School	A	43.092406	-75.291178	13417

Pleasant_Knolls_Turning_Stone	B	43.098094	-75.57158	13421

Piggy_Pat's_Smoke_&_Ale_House	B	43.054671	-75.273381	13413

KeyBank	C	43.075747	-75.295713	13413

Wendy's	B	43.078553	-75.643226	13421

SavOn	C	43.085262	-75.670293	13421

McGarvey_Endodontics	A	43.078966	-75.652722	13421

Route_A_Auto_Sales	C	43.199048	-75.448413	13440

New_Testament_Church	A	43.191648	-75.440789	13440

Washworld	D	43.052192	-75.271202	13413

Full_Lotus_Yoga	B	43.205224	-75.456406	13440

Popuri_P_R_MD	A	43.091938	-75.651548	13421

Clinton_Farmer's_Market	C	43.049069	-75.377722	13323

Hats_Off_Hair_Salon	B	43.277707	-75.470161	13440

Acme_Pool	E	43.219836	-75.448107	13440

Harley_Davidson	C	43.099112	-75.300576	13417

Colonial_Laundromat	E	43.016956	-75.034841	13357

Cochran_Memorial_Presbyterian_Church	A	43.079928	-75.634861	13421

Friendship_Baptist_Church	A	43.217596	-75.558933	13440

Tasha's_Techniques	B	43.052432	-75.273051	13413

Sleepy_Hollow_Golf_Course	B	43.278556	-75.497117	13440

Park_Row_Espresso	B	43.048337	-75.379101	13323

Eastup_Automotive_Repair	D	43.21665	-75.470534	13440

Dunkin'	B	43.052222	-75.374419	13323

Fischer_Harold_Vet	A	43.019151	-74.990714	13350

Sears_Home_Services	C	43.088829	-75.314731	13413

Miracle-Ear	A	43.027757	-74.979312	13350

Purple_Moods	C	43.226544	-75.471954	13440

Smoke_Shop	C	43.040852	-75.622997	13421

Oxbow_Falls_Park	B	43.03315	-75.742692	13421

State_Farm	C	43.221183	-75.445738	13440

Oneida_Music	C	43.07857	-75.643598	13421

Painting_with_a_Twist	A	43.091649	-75.315658	13413

Dick_Sonne's_Cycles_Fitness_&_Skis	C	43.08334	-75.323125	13413

Adirondack_Cheese_Company_Inc_Store	C	43.048837	-75.378949	13323

Creekside_Inn	B	43.096073	-75.624892	13421

United_States_Postal_Service_(USPS)	C	43.014855	-75.037416	13357

Moreland_Park	B	43.04876	-74.844501	13365

Veils_of_The_Valley	B	43.217336	-75.475242	13440

Balloons_And_Blossoms	C	43.093161	-75.651034	13421

Robertelli_Anthony_M_Sr	C	43.048518	-75.233687	13413

ABC_Supply	C	43.138126	-75.278258	13403

College_Barber_Shop	B	43.048324	-75.379416	13323

Clinton_Cider_Mill	C	43.051177	-75.38357	13323

Joyfuls_Vintage_Designs	C	43.043204	-74.860155	13365

Mariah_Faith_at_Julie_Diehl_Salon	B	43.094386	-75.299566	13417

Auntie_Anne's	B	43.017113	-74.803055	13365

Texas_Roadhouse	B	43.084594	-75.320342	13413

MasterCuts	B	43.0829	-75.315974	13413

Gurley_&_Fleet	D	43.175321	-75.420624	13440

Waheguru_Marcy_Petroleum	C	43.140879	-75.301231	13403

Borunda_Asian_Buffet	B	43.024604	-74.985055	13350

Main_Moon_Chinese_Kitchen	B	43.015808	-75.036707	13357

Piano_Lab	C	43.026244	-75.27112	13456

Michele_&_Anthony_Grande_Salon	B	43.220416	-75.447598	13440

Tangles_Salon	B	43.208775	-75.452913	13440

Rite_Aid	A	43.022027	-74.99194	13350

Garica_De_Paredes_Daniel	A	43.022411	-74.982225	13350

Peking_Tokyo	B	43.094877	-75.299775	13417

Mobil	C	43.076586	-75.103922	13340

Ella's_Room_Children's_Consignment	C	43.222253	-75.482295	13440

Next_Level_Barber_Shop	B	43.082185	-75.323471	13413

Blood's_Cycle_Shop	C	43.273275	-75.509731	13440

Rome_Memorial_Hospital	B	43.212815	-75.461145	13440

Mohawk_Vly_Plastic_&_Reconstructive_Surgery	B	43.08243	-75.296067	13413

United_States_Postal_Service_(USPS)	C	43.005426	-75.260381	13456

Dunkin'	B	43.078517	-75.645741	13421

Riverside_Dental	A	43.027393	-74.97983	13350

Toddler_Time	A	43.262083	-75.46078	13440

Oneida_Savings_Bank	C	43.080109	-75.641931	13421

Premier_Towing_&_Recovery	C	42.974061	-75.036636	13357

Euphoria	B	43.050224	-75.408228	13323

Deep_Vapors	C	43.022152	-74.989624	13350

NYE_BUICK_GMC	C	43.075532	-75.68185	13421

Blocks_and_Rocks	D	43.106337	-75.664232	13421

Dunkin'	B	43.080319	-75.391505	13323

Schicker_Linda_MD	B	43.231998	-75.440617	13440

Dollar_General	C	43.016142	-75.03743	13357

NBT_Bank	C	43.224387	-75.484794	13440

Burger_King	B	43.213441	-75.46526	13440

Vinci_David_J	A	43.220193	-75.424149	13440

Sunoco	C	43.005585	-75.255686	13456

Planet_Fitness	B	43.085011	-75.321374	13413

Frank's_Body_Works	D	43.07847	-75.290666	13413

Syracuse_Oral_&_Maxillofacial_Surgery	A	43.078934	-75.652736	13421

Access_Federal_Credit_Union	C	43.076151	-75.643982	13421

Quality_Water_Service	C	43.097226	-75.655605	13421

Bouton_Physical_Therapy	A	43.208499	-75.459427	13440

Twizted_Ink	B	43.227871	-75.491337	13440

Iron_Kettle_Coffee_Shoppe	B	43.209337	-75.45394	13440

Erie_Insurance	C	43.063635	-75.260564	13413

Thompson_Appliances_&_Furniture	C	43.235688	-75.50106	13440

STS_Tire_&_Auto_Centers	D	43.025137	-74.985366	13350

J_Stahl_Sales_&_Service	C	43.133979	-75.259678	13403

Dippin_Donuts	B	43.225023	-75.487288	13440

Rick's_Body_Shop	D	43.211759	-75.364108	13440

Urbanke_Insurance	C	43.036797	-75.068545	13340

Nora's_Candy_Shop	C	43.222405	-75.471925	13440

Snip_&_Clip	B	43.048078	-75.379584	13323

O'Callaghan_Sally_FNP	A	43.073576	-75.291774	13413

Big_Apple_Music	C	43.082539	-75.32411	13413

Gahan_Sheila_Fnp	A	43.027736	-74.982809	13350

Blando_Chiropractic	A	43.055529	-75.2795	13413

Dr_David_Patalino	A	43.08041	-75.335215	13413

Mohawk_Valley_Cash_Register	C	43.083751	-75.339146	13323

Eddie's_Paramount_Diner	B	43.214563	-75.464881	13440

G_T_Auto_Maintenance	C	43.061268	-75.366293	13323

Stoney's_Tavern	B	43.025003	-74.985292	13350

Carmella's_Cafe	B	43.079302	-75.31798	13413

George's_Used_Appliances	C	43.059626	-75.083453	13340

Church_On_The_Rocks	A	43.097131	-75.651908	13421

Rent-A-Center	C	43.231338	-75.437295	13440

NBT_Bank	C	43.028788	-74.979985	13350

Taylor_Vivienne_MD	A	43.234418	-75.437857	13440

Miracle_Nails	B	43.091699	-75.314098	13413

Bowne_Catherine_E_Csw_R_&_Associates	A	43.030202	-74.990046	13350

Laurey's_Pizzeria	B	43.084592	-75.341774	13323

Joette's_Gifts	C	43.073189	-75.289898	13413

Corey_Colmey_Drum_Instruction	C	43.211985	-75.460652	13440

Oneida_City_Hospital	B	43.076834	-75.654595	13421

Whiter_Hendrix_Funeral_Home	B	43.012771	-75.037906	13357

YMCA	B	43.218662	-75.457242	13440

Oneida_Orthopaedic_Assocs_PC	A	43.077911	-75.658403	13421

Real_Deal_Auto_Detailing_&_Rustproofing	D	43.215642	-75.468309	13440

Mountainside_Medical_Equipment	A	43.151164	-75.292769	13403

Walsh_Michael	A	43.05393	-75.270985	13413

Aploks_Bruno_I_MD	A	43.093095	-75.279205	13413

Friendly_Bake_Shop	B	43.038754	-75.070815	13340

Empire_Center_Of_Dance	B	43.131147	-75.247741	13403

Taco_Bell	B	43.07792	-75.641968	13421

L_P_Trucking_&_Excavating	C	43.263931	-75.529499	13440

Stewart's_Shops	C	43.023023	-74.988858	13350

Mohawk_Valley_Funerals_&_Cremations	B	43.037996	-74.819545	13365

Midas	D	43.233723	-75.436401	13440

Monro	D	43.078563	-75.642492	13421

Forever_21	C	43.08237	-75.315643	13413

One_Genny	B	43.073841	-75.286256	13413

Pet_Supplies_Plus	C	43.083289	-75.321365	13413

KFC	B	43.022083	-74.993216	13350

Herkimer_County_Boces_Educational_Complex	A	43.039003	-74.964405	13350

The_Orchard	C	43.091686	-75.315823	13413

Gems_Along_The_Mohawk	C	43.016937	-74.996053	13350

Knotty_Pine_Diner	B	43.07576	-75.704796	13421

Just_Teasin'	B	43.229412	-75.43872	13440

Army_Carinci_Park	B	43.098366	-75.643446	13421

Totally_Browtiful	A	43.047018	-75.273713	13413

Stewart's_Shops	C	43.016079	-75.03367	13357

All_Valley_Smiles	A	43.015151	-75.036261	13357

Michaels_Stores	C	43.093616	-75.310267	13413

Heelpath_Brewing_Co	D	43.041917	-75.067704	13340

Young's_General_Store_&_Ace	C	43.01853	-75.032047	13357

Foster_Lawn_Care_Pro's	C	43.020937	-74.990069	13350

O'Baby's_Gourmet_Sandwich_Shoppe	B	43.062922	-75.272303	13413

G&K_Services	C	43.136071	-75.266447	13403

College_St_Hair_Designs_by_James	B	43.048074	-75.380488	13323

Happy_Valley_Farms	C	43.198771	-75.469852	13440

Pet_Supplies_Plus	C	43.210338	-75.460424	13440

Claire's	C	43.081849	-75.315264	13413

Big_Lots_Stores	C	43.075655	-75.643335	13421

State_Farm	C	43.095029	-75.304731	13413

Wingstop	B	43.088548	-75.31171	13413

Snyder's_Sales_&_Service	C	43.077716	-75.37855	13323

The_Avenue	C	43.083639	-75.326861	13413

Walmart	C	43.021785	-74.997166	13350

Joseph_Capanna_Farms	C	43.189073	-75.334481	13440

Western_Union	C	43.097032	-75.302514	13413

Utica_Safe_Schools_Healthy_Students_Partnership_Inc	A	43.20643	-75.42167	13440

Grosack_Marc_DPM	A	43.091658	-75.650328	13421

Faxton_St_Luke's_Healthcare	B	43.027111	-74.98292	13350

Priscilla_Garlock_MD	A	43.033455	-74.988123	13350

Harley's_Auto_Sales	C	43.261945	-75.462515	13440

Guyer_Field	B	43.227266	-75.460588	13440

rue21	C	43.210568	-75.46261	13440

Little_Falls_Veterinary_Clinic	A	43.101827	-74.77129	13365

Marcy_Discount_Beverage_Center_Inc	C	43.137747	-75.274466	13403

Kinney_Drugs	A	43.014624	-75.036572	13357

DaVi_Nails	B	43.021871	-74.997494	13350

HBE_Group	C	43.030279	-74.982854	13350

Lain_Leigh_Dr	A	42.978536	-75.311564	13456

Utica_Spray_&_Chemical	C	43.074645	-75.286807	13413

Wilcove_Rockford_Glass_&_Radiator	C	43.212922	-75.466424	13440

Angel_Touch_Massage_Spa	B	43.082584	-75.32385	13413

The_Falcon_Clinic_for_Health_Wellness_and_Recovery	A	43.054327	-75.279185	13413

County_of_Herkimer	A	43.027672	-74.989055	13350

Salvatore's	B	43.026477	-74.998255	13350

Myers_Park	B	43.025274	-74.990243	13357

Burger_King	B	43.017009	-74.802742	13365

Valley_Health_Services	A	43.025545	-74.999233	13350

CrossFit	B	43.131139	-75.249355	13403

Christ_Church	A	43.219563	-75.32732	13440

Lehman_Park	B	43.035352	-75.078695	13357

Villa_Verona_Vineyard	D	43.099527	-75.614127	13421

Even_Really_restaurants	B	43.207309	-75.457166	13440

SD_Outdoor_Power	D	43.069516	-75.344038	13413

Fisher_Auto_Parts	C	43.043856	-74.856825	13365

Delta_Plumbing_and_Building_Supplies	C	43.296649	-75.472271	13440

Monro	D	43.026685	-74.981962	13350

Lowell_Volunteer_Fire_Department	A	43.132865	-75.498628	13440

Woodforest_National_Bank	C	43.022577	-74.993758	13350

Jones_Family_Chiropractic	A	43.079247	-75.317013	13413

A_T_&_T_Premier_Technologies	C	43.22836	-75.492629	13440

Extreem_Car_Wash_System	D	43.078544	-75.64386	13421

Disposable_Gowns	B	43.082686	-75.149697	13340

KFC	B	43.078465	-75.642838	13421

McDonald's	B	43.04398	-75.385109	13323

Carpet_One_Floor_&_Home	C	43.092266	-75.643407	13421

Motel_6	B	43.010381	-75.021498	13357

Bulawa_Beth_Ann_MD	A	43.234436	-75.43789	13440

Dave_Kinney's_Auto_Body	D	43.078194	-75.648416	13421

American_Eagle_Outfitters	C	43.081484	-75.315832	13413

DiCastro's_Brick_Oven	B	43.214973	-75.471522	13440

Function_Better	B	43.211564	-75.463497	13440

Tri_County_Medical_PC	A	43.044247	-74.847666	13365

New_York_State_School_For_The_Deaf	A	43.223626	-75.457088	13440

Roller's_Collision	D	43.081643	-75.295711	13413

Sitrin_Child_Day_Care_Facility_Inc	A	43.056226	-75.229408	13413

Unstoppable_You	A	43.074197	-75.288476	13413

Rome_Income_Tax_Service	A	43.207185	-75.461006	13440

Famous_Footwear	C	43.083251	-75.314134	13413

Piercing_Pagoda	C	43.082274	-75.316078	13413

Sroka's_Service_Center	C	43.093702	-75.652602	13421

Little_Falls_Antique_Center	C	43.040491	-74.859953	13365

Massaro_&_Son_Florist_&_Greenhouses	C	43.026249	-74.945118	13350

Barr_Samuel_I_DMD	A	43.091814	-75.651472	13421

Alexander's_Ragtime_Cafe	B	43.095299	-75.652291	13421

Music_At_Hamilton_Artist_Series	A	43.047287	-75.408678	13323

Maple_Hill_Creamery_&_Market	C	43.114891	-74.938847	13365

Evolve_Massage_and_Wellness	B	43.055525	-75.279475	13413

Dollar_Tree	C	43.086396	-75.316888	13413

Fratello's_Pizzeria	B	43.037492	-75.069554	13340

Body_Siense	B	43.042571	-74.861558	13365

Towpath_Vision_Care	A	43.042353	-74.861268	13365

Northeast_Motors	C	43.133394	-75.257653	13403

Faster_Form_Corporation	C	43.035949	-75.27552	13413

Exile_Ink	B	43.207165	-75.449461	13440

The_Grand_at_Rome	A	43.220717	-75.450452	13440

Church_Of_Jesus_Christ_L_D_S	A	43.036147	-74.961372	13350

The_Village_Tailor_Shop	E	43.074228	-75.287627	13413

Oneida_Commons_Vendor_Mall	C	43.094658	-75.64987	13421

Nunno_Auto_Sales	C	43.133158	-75.254706	13403

New_York_Mills_Senior_Center	B	43.10569	-75.292011	13417

Colianni_John_P	A	43.015901	-75.037934	13357

Oneida_nails_&_spa	B	43.094255	-75.650837	13421

George_R_Staley_Upper_Elementary_School	A	43.210667	-75.441817	13440

Back_Nine_Restaurant_&_Sports_Bar	B	43.284981	-75.470612	13440

Mc_Craith_Beverages	C	43.094549	-75.296749	13417

Alpine_Rehabilitation_and_Nursing_Center	B	43.054407	-74.851716	13365

Angelic_Inspirations_&_Down_to_Earth_Counseling	A	43.048018	-75.378918	13323

Lowe's	C	43.080546	-75.686573	13421

The_Franklin_Marcy	B	43.135074	-75.260245	13403

Ilion_Park	B	43.015516	-75.027044	13357

Salvation_Army_Thrift_Store	C	43.018023	-75.040979	13357

Fort_Stanwix_Park	B	43.216923	-75.453478	13440

Travel_Mart	C	43.013789	-74.855803	13365

Wagner_Farms	C	43.180441	-75.501519	13440

Cuomo_Winters_&_Schmidt_CPAs	A	43.092418	-75.650774	13421

Brian's_Body_Svce	D	43.206413	-75.455772	13440

Ravangard_Firooz_MD_PC	A	43.016001	-75.038871	13357

The_Piano_Lab	C	43.048047	-75.380704	13323

The_Phoenician_Restaurant	B	43.092948	-75.276656	13413

Witchley_Chiropractic_and_Acupuncture	A	43.216866	-75.474285	13440

Aspen_Plaza	C	43.08719	-75.313224	13413

CITGO	C	43.226657	-75.489655	13440

Dollar_Tree	C	43.236277	-75.437497	13440

T.J._Maxx	C	43.093305	-75.309934	13413

John's_Place	B	43.03966	-75.070873	13340

Robert_E_Schulman_DDS_&_Andrew_S_Rozanski_DMD	A	43.072259	-75.289167	13413

Vogel_Lory_Chiropractor	A	43.046289	-74.855663	13365

Wagoner_Hickock_Insurance_Agency	C	43.219488	-75.44726	13440

R&R_Interior_&_Exterior_Improvments	D	43.039568	-75.06739	13340

Central_Paving	B	43.029316	-75.059479	13340

Little_Falls_Middle_School	A	43.059027	-74.872088	13365

Sally_Beauty_Supply	A	43.237324	-75.501814	13440

Subway	B	43.055445	-75.271622	13413

Willow_Place_Park	B	43.07869	-75.594152	13421

North_Country_Flooring	D	43.017696	-75.040198	13357

Herkimer_Fire_Department	A	43.026815	-74.985856	13350

Nicky_Doodles	B	43.113431	-75.59841	13421

Subway	B	43.094805	-75.312463	13413

Litchfield_Manor	C	43.034762	-75.075363	13340

The_Grapevine_Restaurant	B	43.077091	-75.296761	13413

That_Little_Place_On_Main	B	43.042841	-74.860947	13365

Mattress_Express_New_Hartford	C	43.086206	-75.31679	13413

Eastern_Park	B	43.045057	-74.852818	13365

Erie_Boulevard_Hydropower_LP_Beardslee_Plant	E	43.017015	-74.802738	13365

Steven_M_Williams_M_D	A	43.077597	-75.338166	13413

Endless_Summer_Hair_Tanning_&_Nail_Salon	B	43.025474	-74.984232	13350

Domino's_Pizza	B	43.077863	-75.643605	13421

Visionworks	A	43.078528	-75.688982	13421

Edible_Arrangements	C	43.220234	-75.447846	13440

Collins_Insurance_Brokerage	C	43.09963	-75.281195	13413

Walgreens	A	43.022083	-74.992091	13350

Basloe_Frank_J_Library_of_Herkimer	B	43.027566	-74.988634	13350

ALDI	C	43.081743	-75.325898	13413

Nice_N_Easy_Grocery_Shoppe	C	43.080264	-75.391549	13323

Affordable_Wellness_By_Raymond_Ermacor	A	43.055991	-75.28078	13413

Lombardo's_Pizzeria_Plus_II	B	43.011995	-75.030012	13357

Bec's_Ivy_Grill	B	43.095984	-75.649912	13421

Rome_Christian_Center_Inc	A	43.248296	-75.458613	13440

CARQUEST_Auto_Parts	C	43.021004	-75.03439	13357

Half_Pint_Academy_Child_Care_Center	A	43.080596	-75.369358	13323

Herkimer_County_ARC	A	43.021527	-74.98249	13350

Immaculate_Mobile_Detailing	D	43.113887	-75.64592	13421

Joseph_Danette_J_MD	A	43.234421	-75.437866	13440

Dr_Robert_Burke_MD	A	43.072973	-75.287195	13413

Rome_Catholic_School	A	43.238324	-75.451538	13440

Cooley_Group	E	43.097263	-75.296938	13417

DeMatteo's_Restaurant	B	43.205947	-75.444388	13440

Perlanski_Julie_MD	A	43.043568	-74.859559	13365

Chestnut_Commons_Physical_Therapy	A	43.232059	-75.440606	13440

Brown_Steven_M_MD_PC	A	43.231289	-75.4433	13440

Mohawk_Valley_Community_College	A	43.220049	-75.426967	13440

Big_Lots_Stores	C	43.088495	-75.315058	13413

Lincare	B	43.084991	-75.343885	13323

Dojo_1_MMA_Academy	B	43.051468	-75.27201	13413

Hamilton_College	A	43.051272	-75.406877	13323

Walmart	C	43.078091	-75.691409	13421

Every_Body_Physical_Therapy	A	43.027381	-74.97992	13350

Lemke_Sheila_M_MD	A	43.07747	-75.651708	13421

Rosinski_Judith_M	A	43.11027	-75.287045	13417

Lincoln_Park	B	43.085658	-75.657769	13421

Shopper's_Service	C	43.230899	-75.499171	13440

McDonald's	B	43.225034	-75.485609	13440

Speech_Language_Therapy	A	43.027981	-75.059118	13340

Allstate_Insurance	C	43.076271	-75.685829	13421

Uno_Chicago_Grill	B	43.091545	-75.314985	13413

Cricket_Wireless	C	43.07558	-75.642483	13421

Killabrew_Saloon	B	43.076749	-75.310709	13413

Little_Falls_Hospital	A	43.044149	-74.847568	13365

Save-A-Lot	C	43.023287	-74.989259	13350

CITGO	C	43.028015	-74.978797	13350

Dollar_General	C	43.04933	-75.380177	13323

Advance_Auto_Parts	C	43.077827	-75.643867	13421

Oneida_Healthcare_Center	A	43.077114	-75.652467	13421

D&D_Carpets_Of_Rome	C	43.20583	-75.443961	13440

Sunoco	C	43.093164	-75.653152	13421

Bellinger_Park	B	43.026137	-74.99758	13357

Casa_Too_Mucha	B	43.073664	-75.286497	13413

Duncan_Mobile_Wash	D	43.180662	-75.381425	13440

Skinner_Service_Station	C	43.02733	-74.946077	13350

Oneida_Area_Day_Care_Center_Inc	A	43.084792	-75.662698	13421

Ralph's_Collision	D	43.075687	-75.689666	13421

Northern_Physical_Therapy	A	43.014384	-75.044595	13357

Block_Jonathan_D_MD	A	43.231144	-75.443402	13440

Flower_Barn	C	42.99351	-75.073109	13357

Rite_Price_Gas_&_Foodmart	C	43.204171	-75.433009	13440

Zoom_Tan	B	43.231606	-75.437088	13440

Wendy's_Beauty_Connection	B	43.012501	-75.038829	13357

GameStop	C	43.235708	-75.501155	13440

Delta_Lake_Veterinary_Hospital	A	43.283707	-75.471494	13440

Dye_Namic_Do's_HAIR_STUDIO	B	43.204235	-75.433441	13440

Previte_Chiropractic_Center	A	43.216861	-75.474282	13440

VP_Supply_Corporation	C	43.08888	-75.311273	13413

The_Wig_Gallery	A	43.216101	-75.454948	13440

Ceiling_&_Wall_Restorations	D	43.016424	-75.050654	13357

Norine's_Salon_&_Blow_Dry_Bar	B	43.072279	-75.289116	13413

US_Army_Recruiting_Station_New_Hartford	A	43.096292	-75.303202	13413

Battista_Denny_J_DO	A	43.081955	-75.365861	13323

Marcy_Town_Center	C	43.139871	-75.27709	13403

State_Farm	C	43.018441	-75.042867	13357

Taco_Bell	B	43.225412	-75.48612	13440

Gansevoort_Elementary_School	A	43.220306	-75.47261	13440

U-Haul	C	43.20407	-75.455816	13440

The_Boys_From_Italy	B	43.212724	-75.460936	13440

Hollis_Hewitt_Park	B	43.240847	-75.447969	13440

Michael_White_Painting_&_Coatings	D	43.074034	-75.330406	13413

Big_Papi's_Coquito_Iceys	C	43.09006	-75.302139	13417

Trunk_n_treasures	C	43.216587	-75.468877	13440

Toccolana_Club	B	43.204237	-75.432063	13440

Joe_Tahan's_Furniture	C	43.207768	-75.463554	13440

Cafe_Del_Buono	B	43.086921	-75.314765	13413

Sitrin_Medical_Rehabilitation_Center	A	43.055441	-75.229685	13413

Holy_Trinity_Evangelical_Lutheran_Church	A	43.046046	-74.860117	13365

Bulawa_Erick_C_MD	A	43.234423	-75.437887	13440

Faxton_St_Luke's_Healthcare_Herkimer	A	43.027115	-74.982907	13350

Palm_Springs_Miniature_and_Par_3_Golf	B	43.137682	-75.265707	13403

EyeCare_Center_of_Rome	A	43.22018	-75.424111	13440

Kevin's_Bistro	B	43.039753	-75.07114	13340

Herkimer_Dental	A	43.023732	-74.991846	13350

Jimmy_John's	B	43.074971	-75.288234	13413

Maple_Crest_Golf_Course	B	42.996474	-75.099357	13340

NBT_Bank	C	43.052783	-75.405981	13323

Angel_Nails	B	43.010308	-75.054727	13357

Cannon_Pools	B	43.096458	-75.621329	13421

Flowers_By_Suzanne	C	43.020079	-74.990769	13350

Arch_By_Design	A	43.076679	-75.294456	13413

Marble_Hill_Inn	B	43.059981	-75.591044	13421

Allstate_Insurance	C	43.232649	-75.497001	13440

SmartStyle_Family_Hair_Salons	B	43.237131	-75.50232	13440

Paul_M_Caruso_DDS_Caruso_Orthodontics	A	43.027333	-74.980011	13350

Flannery_Mary_MD	A	43.027701	-74.982762	13350

Silver_City_Tire	C	43.078477	-75.644541	13421

Fisher_Auto_Parts	C	43.132373	-75.25237	13403

Access_Federal_Credit_Union	C	43.047454	-75.382429	13323

Accents_of_Hair_&_Fashion	B	43.218004	-75.453603	13440

Village_Tavern	B	43.048404	-75.379354	13323

Nye_Automotive_Group	D	43.075834	-75.683933	13421

Lowe's	C	43.09067	-75.32092	13413

Rome_Nail_&_Spa	B	43.230625	-75.43778	13440

Zales	C	43.082716	-75.315169	13413

Cheveux	B	43.054686	-75.27176	13413

Empire_Bath_&_Kitchen	C	43.140166	-75.277548	13403

Megamotion_Physical_Therapy_Clinic	A	43.035547	-75.392251	13323

Palumbo_Paul_DO	A	43.091523	-75.276715	13413

AutoZone	C	43.082868	-75.322662	13413

Sunoco	C	43.052817	-75.273107	13413

Supercuts	B	43.231703	-75.436971	13440

Hannaford_Supermarkets	C	43.029743	-74.981327	13350

Parker_William	A	43.02742	-74.983481	13350

Floyd_Town_Park	B	43.225599	-75.334627	13440

Peterpaul_Recreation_Park	A	43.228005	-75.516826	13440

Upper_Cut_Salon	C	43.216743	-75.471273	13440

Shampooches	C	43.053537	-75.273148	13413

R_&_S_Auto_Parts	C	43.092954	-75.181002	13340

Luigis_Italian_Cuisine	B	43.215383	-75.453597	13440

Old_McMarley's_Apple_Farm	C	43.050244	-75.355839	13323

Copper_Moose_Ale_House	B	43.04363	-74.859187	13365

Bartlett_Baptist_Church	A	43.134994	-75.441953	13440

Hot_Spot_Salon_and_Spa	B	43.026116	-74.985591	13350

Burger_King	B	43.080575	-75.318703	13413

Pinz_New_Hartford	B	43.081857	-75.316064	13413

Kao_Janice_MD_Pediatrician	A	43.04425	-74.848734	13365

Wassel_Anwar	A	43.231271	-75.443306	13440

Hccc_Child_Care_Center	A	43.032276	-75.006362	13350

The_Olde_Wicker_Mill	C	43.077546	-75.293062	13413

Norwich_Corners_Christian_Church	A	43.014077	-75.210524	13456

Speedway	C	43.235461	-75.435814	13440

Smokers_Choice	C	43.027169	-74.987128	13350

Imex_Furniture	C	43.099167	-75.302169	13417

Mark's_Auto_Sales	C	43.282402	-75.470785	13440

Red_Lobster	B	43.086108	-75.316826	13413

Crystal_Waters_LMT	B	43.097137	-75.296859	13417

Visionworks	A	43.085428	-75.317908	13413

Rite_Aid	A	43.229567	-75.439425	13440

Pietrka_Park	B	43.096738	-75.299321	13417

East_Schuyler_Automotive	D	43.044701	-75.060686	13340

Little_Caesars	B	43.210392	-75.453172	13440

Mobil	C	43.01581	-74.802794	13365

Nails_by_Shelley	B	43.214874	-75.457332	13440

Care_Net_Pregnancy_Center_of_Cny	A	43.023736	-74.991872	13350

De_Angelo_&_Associates	C	43.074742	-75.287193	13413

Clinton_Road_Baptist_Church	A	43.071923	-75.328712	13413

Ritter_Marc_Physician	A	43.014598	-75.266828	13456

Temple_Beth_Joseph	A	43.027809	-74.990983	13350

Supercuts	B	43.075884	-75.642109	13421

Apr_Travel	B	43.095065	-75.304731	13413

Frankfort_Valley_Auto_Sales	D	43.028914	-75.060258	13340

True_Value_Hardware	C	43.226287	-75.489463	13440

Reich_Supply_Company_Inc	C	43.074575	-75.287687	13413

Waterfront_Grille	B	43.01707	-74.996357	13350

Tallman's_Tire_&_Auto_Repair	D	43.021444	-74.993145	13350

Pho_Ever_Noodles	B	43.082102	-75.323137	13413

Mohawk_Valley_Country_Club	B	43.024231	-74.914839	13365

Coalyard_Charlie's	B	43.206804	-75.456943	13440

Onyx_Lamphear_Road_CSG	E	43.185773	-75.479044	13440

Stewart's_Shops	C	43.214099	-75.467506	13440

Price_Chopper_New_England	C	43.079897	-75.643895	13421

AutoVations	D	43.20428	-75.437703	13440

Daylight_Donuts	C	43.074024	-75.287016	13413

Tri_County_Medical_P_C	B	43.231618	-75.442001	13440

Shaffer_Insurance_Agency	C	43.061059	-75.272092	13413

Red_Roof_Inn	B	43.018534	-74.990891	13350

Donald_B_Knapp_OD	A	43.025032	-74.988092	13350

Sunoco	C	43.258634	-75.462291	13440

The_Cafe_At_Stone_Mill	B	43.040465	-74.859229	13365

SavOn	C	43.093962	-75.651497	13421

Poonati_Apparao_Dr	A	43.217076	-75.455215	13440

The_Vitamin_Shoppe	A	43.086425	-75.314268	13413

Sally_Beauty_Supply	A	43.090437	-75.316743	13413

Herkimer_County_Community_College	A	43.032427	-75.006397	13350

China_Buffet	B	43.084121	-75.319409	13413

Rome_General_Lumber	C	43.214223	-75.470475	13440

Merle_Norman_Cosmetics	A	43.07793	-75.295032	13413

Trimble_Richard_MD	A	43.027743	-74.982817	13350

Long's_Auto_Elec	D	43.21325	-75.466917	13440

Dollar_General	C	43.260602	-75.461514	13440

31_Express_Deli_&_Grocery	B	43.095413	-75.649813	13421

Mum_Farm	D	43.036162	-75.295308	13413

John_Latini_Salon	B	43.053135	-75.276296	13413

Bruce_DDS	A	43.090701	-75.648727	13421

Early_Childhood_Program	A	43.222346	-75.427923	13440

Reilly_Mumford_Park	B	43.073023	-75.599109	13421

Marcy_Highway_Department	A	43.185465	-75.259518	13403

St_John's_The_Evangelists_Church	A	43.067009	-75.285723	13413

Nails_By_Tina	B	43.023866	-74.986679	13350

In_Bloom_Yoga	B	43.073704	-75.286167	13413

Utica_Drug_Rehab_Centers	A	43.231573	-75.437217	13440

Miner_Realty_and_Property_Management	C	43.213464	-75.463856	13440

Miller's_Automotive	D	43.012804	-75.029166	13357

Grace_Furniture	C	43.127768	-75.239825	13403

Immanuel_Baptist_Church	A	43.056579	-75.259887	13413

Twin_Ponds_Country_Club	B	43.107264	-75.28269	13417

China_Gourmet	B	43.016967	-75.034971	13357

Legends_Sports_Bar_&_Eatery	B	43.214831	-75.4694	13440

Nola's	B	43.048616	-75.379113	13323

American_Martial_Arts_Institute	B	43.082624	-75.329414	13413

Maxwell_Field	B	43.085816	-75.641289	13421

Golf_Knolls_Golf_Course	B	43.258829	-75.541312	13440

Cricket_Wireless	C	43.027436	-74.979703	13350

Bonomo_Insurance_Agency_Inc	C	43.084582	-75.324362	13413

T_&_J_Fruits_&_Vegetables	C	43.021282	-74.991919	13350

Street_Legal_NY	C	43.078983	-75.638661	13421

Subway	B	43.226264	-75.489101	13440

The_Skeleton_Key	C	43.095157	-75.652216	13421

D_E_Cleveland_Antiques	C	43.215121	-75.460038	13440

The_Golf_Box	B	43.039171	-75.063729	13340

First_Baptist_Church_of_Ilion	A	43.013375	-75.037575	13357

Forget_Me_Not	B	43.020365	-74.993617	13350

The_Liquor_Loft	C	43.053963	-75.27844	13413

K_&_K_Dance_Wear	C	43.095529	-75.651164	13421

Association_Chiroptractic	A	43.040711	-75.391293	13323

G_K_Management	C	43.219477	-75.476361	13440

Black_River_Ale_House	B	43.233935	-75.437933	13440

ULTA_Beauty	A	43.09307	-75.30958	13413

LabCorp	A	43.23111	-75.442292	13440

United_States_Postal_Service_(USPS)	C	43.076479	-75.289467	13413

Butala_Atul_MD_F_A_C_P	A	43.231265	-75.443302	13440

Rd's_Gorge_View_Lanes	B	43.042989	-74.842349	13365

PetSmart	C	43.092861	-75.309269	13413

Bloom_Yoga_&_Wellness	B	43.062432	-75.602979	13421

Black_River_Blvd_Shopping_Center	C	43.220124	-75.447675	13440

LabCorp	A	43.073161	-75.293514	13413

Vitkus_Robert_J_DDS	A	43.078974	-75.652733	13421

Tony's_Coins	C	43.021097	-75.060873	13357

Faxton_St_Luke's_Healthcare	A	43.053962	-75.270981	13413

Sephora	A	43.082667	-75.318036	13413

Reaves_Dental_Practice	A	43.048001	-75.378376	13323

Chowder_House	B	43.095464	-75.29185	13417

Verizon_Wireless	C	43.080356	-75.320856	13413

Scarafile_Family_Chiropractic	A	43.082205	-75.323662	13413

The_UPS_Store	C	43.040459	-74.859237	13365

CITGO	C	43.015158	-75.035143	13357

Kinney's_Kar_Kare	D	43.096017	-75.621741	13421

Sleep_Number	C	43.09539	-75.305924	13413

Rome_Developmental_Center	A	43.218159	-75.457458	13440

Heffron's_General_Contracting	D	43.076008	-75.691184	13421

Celeste_Food_Incorporated	C	43.056365	-75.36565	13323

Jenny_Nails	B	43.232112	-75.43938	13440

Able_Construction	C	43.28739	-75.469232	13440

Commercial_&_Henderson	C	43.096417	-75.303331	13413

Oneida_Community_Golf_Club	B	43.059623	-75.610525	13421

The_Original_Kitty's	B	43.074516	-75.318871	13413

Meeples_Mug_House	B	43.044276	-74.857413	13365

Pizza_Hut	B	43.023474	-74.991261	13350

NBT_Bank	C	43.077674	-75.654139	13421

Eggan_Environmental	A	43.28083	-75.403663	13440

Living_Faith_Bible_Church	A	43.004149	-75.259452	13456

Ed_&_Bud's_Bar_&_Grill	B	43.043147	-74.860306	13365

St_Marys_Ukrainian_Orthodox_Church	A	43.024436	-74.978504	13350

Nava_Browtique	A	43.097241	-75.650236	13421

Weight_Watchers	B	43.043175	-74.857026	13365

Oxford_Medical_Imaging	A	43.073037	-75.286707	13413

Daughter_for_Hire	B	43.047887	-75.378914	13323

Eye_Q_of_CNY	A	43.08839	-75.311447	13413

Universal_Yoga_and_Massage_Center	B	43.055319	-75.271589	13413

Rizzo_Agency_Erie_insurance	C	43.083751	-75.33916	13323

Community_Bank	C	43.240222	-75.454932	13440

Genesee_Orthopedic_&_Hand_Surgery_Associates	A	43.080399	-75.3352	13413

Hearts_Desire_Crafts_and_Gift_Shop	C	43.054401	-74.850479	13365

Rome_Memorial_Hospital	A	43.2349	-75.437506	13440

Cliff's_Local_Market	C	43.093691	-75.276165	13413

True_Value_Hardware	C	43.025661	-74.985944	13350

Lombino's_Mkt	C	43.21608	-75.441932	13440

Hilton_&_Powers_Cpa's_PC	A	43.072466	-75.289609	13413

Michael_pizza	B	43.077607	-75.64389	13421

Adirondack_Bank	C	43.020277	-75.046677	13357

Cliff's_Local_Market	C	43.09809	-75.301536	13417

Harmon_Field	B	43.02308	-74.99794	13357

Dollar_Tree	C	43.053201	-75.277099	13413

Western_Union	C	43.052913	-75.273102	13413

State_Farm	C	43.076627	-75.688146	13421

Wild_Things	C	43.096943	-75.29758	13417

Weight_Watchers	B	43.074499	-75.288482	13413

Weight_Watchers	B	43.081787	-75.661463	13421

Mattern_Cheryl_C_MD	A	43.015896	-75.037921	13357

McDonald's	B	43.076427	-75.103139	13340

Monro	D	43.237342	-75.50536	13440

The_Church_of_Jesus_Christ_of_Latter_day_Saints	A	43.035959	-74.961355	13350

Walgreens	A	43.209064	-75.458384	13440

H_And_H_Accounting	A	43.057222	-74.857768	13365

Ahluwalia_Prabhat_K_MD	A	43.044237	-74.847513	13365

CITGO	C	43.051916	-75.375113	13323

Bailey's_Karate_Schools	B	43.23185	-75.49841	13440

Allstate_Insurance	C	43.039128	-74.987385	13350

Community_Co_Op	A	43.043561	-74.855806	13365

The_Men's_Wearhouse	C	43.087919	-75.31185	13413

Swan_Pools	C	43.055502	-75.271649	13413

Empire_Gymnastics_&_Fitness	B	43.037146	-75.071653	13340

Italian_Feast	B	43.042727	-74.861206	13365

Metro_Mattress	C	43.235103	-75.437078	13440

Erie_Boulevard_Hydropower_LP_Inghams_Plant	E	43.060845	-74.764284	13365

The_Java_Shop_by_Cucina_Berto	B	43.02632	-74.987114	13350

Adirondak_Community_Physicians	A	43.019432	-75.046881	13357

Morehouse_Appliances	C	43.08342	-75.327519	13413

Tracy_Lynn_Fashions	C	43.043681	-74.859101	13365

Oneida_Service_Center	D	43.093535	-75.651368	13421

Dippin_Donuts	B	43.081416	-75.321068	13413

Bella_Mia_Salon	B	43.023537	-74.986749	13350

Latteri_Charles_B	C	43.106639	-75.652951	13421

Douglas_H_Hurd_DDS	A	43.073963	-75.294217	13413

Kern_Fred_W_Vet	A	43.01915	-74.990718	13350

Counseling_Center_of_New_Hartford	A	43.030195	-74.990037	13350

Pizza_Hut	B	43.22377	-75.485139	13440

