occupation	latitude	longitude	zipcode
Citizens_Bank	C	43.107195	-75.220554
Coldwell_Banker_Faith_Properties	C	43.082505	-75.270202
Cell_Bionics_Institute	A	43.090455	-75.282737
Saint_Elizabeth_College_Of_Nursing	A	43.082648	-75.267819
Bei_Jing_House	B	43.093335	-75.248672
Red_Roof_Inn	B	43.11378	-75.216939
United_States_Postal_Service_(USPS)	C	43.102183	-75.231188
SherDoHair	B	43.081424	-75.27226
Southern_Tier_Dermatology_&_Aesthetics	A	43.091728	-75.288318
North_Utica_Senior_Citizens_Recreation_Center_Inc	A	43.118242	-75.213692
2m_Auto_Repair	D	43.092637	-75.224439
Ancora	B	43.098868	-75.235275
Roma_Sausage	C	43.090936	-75.193887
Casper_Chiropractic	A	43.079961	-75.275181
East_Side_Glass_&_Mirror	D	43.10233	-75.223225
McPike_Addiction_Treatment_Center	A	43.106031	-75.254894
Blue_Moon_Emporium	C	43.104262	-75.239773
Utica_Pharmacy	A	43.08777	-75.259876
Neighborhood_Family_Dentistry	A	43.076871	-75.281295
Skermonts_Auto	D	43.094186	-75.205057
Morgan_Stanley	A	43.091581	-75.280149
S_&_L_Furn_Co	C	43.097996	-75.21616
Triangle_Coffee_Shop	B	43.100407	-75.233662
Christian_Assembly_Of_Schuyler	A	43.138386	-75.194831
Upstate_wireless	C	43.103488	-75.247257
El_Canelo	B	43.086545	-75.259858
Utica_Hydra_Matic_Service	D	43.098838	-75.224804
State_Farm	C	43.11796	-75.210063
Rodriguez_Multiservice	C	43.096466	-75.241818
Sherman_Cemetery	B	43.099116	-75.130696
Southern_BBQ_Caterin_Affair	B	43.074853	-75.285501
Strategic_Financial_Services	A	43.090083	-75.283604
Fslh_St_Luke's_Home_Renal_Dialysis	A	43.096891	-75.276605
Health_Street	A	43.086639	-75.261843
Inkorporated_Tattoo_Studio	B	43.102165	-75.22549
Outta_the_Way_Cafe'	B	43.099048	-75.231471
Farmers_Insurance_Group	C	43.093711	-75.193287
New_York_Northern_Bankruptcy_Court_Alexander_Pirnie_Federal_Building	A	43.103151	-75.226127
WellNow_Urgent_Care	A	43.112891	-75.214103
La_Bella_Toni_Massage_Therapist	B	43.084237	-75.265311
Stewart's_Shops	C	43.081741	-75.205262
Farmers_Insurance_Group	C	43.081649	-75.272067
Zaro_Bosnian_Restaurant	B	43.089047	-75.222659
T_P_Brake_&_Muffler	C	43.108673	-75.249337
Hair_by_Lisa_calhoun	B	43.10266	-75.23023
Lady_J's	B	43.099411	-75.232734
ADHD_&_Autism_Psychological_Services_And_Advocacy	A	43.092108	-75.284613
JP3_Performance_Studio	B	43.101555	-75.230074
Europa_Restaurant	B	43.095367	-75.215544
The_Grand_Rehabilitation_And_Nursing_At_Utica	B	43.090256	-75.257138
Trattoria_Calabria	B	43.089637	-75.198717
SmartStyle_Family_Hair_Salons	B	43.128561	-75.227329
Coriale_Flowers	C	43.093191	-75.220394
KFC	B	43.10841	-75.21943
Faxton_St_Luke's_Healthcare_MASONIC	A	43.088045	-75.191784
Econo_Lodge	B	43.114176	-75.213955
R.E._Michel	C	43.105281	-75.220184
Minit_Car_Wash	D	43.087216	-75.254719
Fastrac	C	43.08823	-75.259405
Krispy_Krunchy_Chicken	B	43.095182	-75.242484
Clean_Car_Auto_Sales_&_Detailing	D	43.099041	-75.210754
Deerfield_Elementary_School	A	43.133274	-75.211112
Nassif_Ramzi_F	A	43.0911	-75.258081
St_George_Orthodox_Church	A	43.093829	-75.227676
Dix_Mix_Memorial_Field	B	43.083422	-75.284149
K_Music	C	43.088873	-75.222127
Spano_Brothers	E	43.093911	-75.200067
George's_Precision_Auto_Body	D	43.111932	-75.267605
Panda_House	B	43.100169	-75.234399
United_Church_Nursery_School	A	43.096684	-75.242421
Quick_Lane	C	43.137857	-75.216748
Acquaviva_Peter_M	A	43.094479	-75.286621
Lucky_Mey's_Market	C	43.088516	-75.247955
Mvcaa_Inc_Calvary_Head_Start	A	43.094871	-75.230762
Stage_Music_Piano_Svce	C	43.107735	-75.24428
Wendy's	B	43.110586	-75.218393
Pharmacy_Solutions	A	43.088702	-75.186094
Ramon's_Bakery	E	43.080415	-75.207279
US_Care_Systems	B	43.078944	-75.277405
Asim_Automotive	D	43.094899	-75.215702
Kookie's_Q_&amp_Creamery	B	43.107043	-75.222837
Utica_Combat_Athletics	A	43.099301	-75.213476
Scharf_Plumbing_&_Drain_Service	A	43.106561	-75.246849
Smoke_&amp_Vapor	C	43.12857	-75.224532
The_Pines_At_Utica_Center_For_Nursing_&_Rehabilitation	B	43.08676	-75.254792
Mercurios_Automotive_Utica	C	43.084829	-75.280646
Oneida_County_DMV_Office	A	43.104129	-75.223237
Dunkin'	B	43.090265	-75.22185
Harry's_Brake_Service_&_General_Repair	D	43.110205	-75.262786
Maugeri's_Auto_Repair	D	43.097695	-75.216854
The_Unlimited_Salon	B	43.117832	-75.209343
Parkway_Drugs_Of_Oneida_County_South	A	43.08512	-75.28235
Howe_Does_It_Automotive	D	43.109373	-75.261458
Quick_Change_Inc	D	43.093814	-75.225485
Lee_Debra_DO	A	43.09316	-75.241357
Grimaldi_Auto_Sales	C	43.093178	-75.260739
Quality_Auto_Sales	C	43.109188	-75.260736
BJ's_Optical	A	43.126634	-75.222607
Utica_Roof_Pros	D	43.123446	-75.208466
Utica_Access_Site	B	43.099619	-75.223946
Heritage_Health_Care_Center	B	43.090487	-75.256683
Myly_Nail_Salon	B	43.113306	-75.205528
All_Saints_Episcopal_Church	A	43.089295	-75.248459
Lawrence_Gilbert	A	43.091104	-75.258075
J's_Auto	D	43.108588	-75.250378
Dollar_General	C	43.11017	-75.255587
Longo's_Auto_Services	D	43.104353	-75.249171
Cafe_plus	B	43.096045	-75.21162
City_Liquors	C	43.086637	-75.257991
Fastrac	C	43.087165	-75.250342
Stang_David_PSY_D	A	43.098322	-75.238146
First_Presbyterian_Church	A	43.091377	-75.250231
Rosas_Trattoria_Italian_Deli_Bakery	E	43.077108	-75.280798
Hair_Reflections	B	43.092035	-75.206552
Broad_Street_Cash_&_Carry	C	43.100376	-75.21411
GPO_Federal_Credit_Union	C	43.101111	-75.226034
Marinuzzi_Chiropractic	A	43.126244	-75.235869
Ferris_R_&_Sons	C	43.106493	-75.216459
Eggers_Caryl_&_Corrigan	C	43.103522	-75.232052
S&E_Cabin_Log_Home_Services	E	43.110619	-75.164193
New_York_Connection	A	43.101772	-75.229797
AAA	C	43.100569	-75.237726
Larissa_Creedon_LMT_LC_Massage_Therapy	A	43.084974	-75.26541
Yummilicious_Cafe_&_Bakery	B	43.089235	-75.204572
Asbury_United_Methodist_Church	A	43.091457	-75.212223
Avico_Distributing	C	43.100289	-75.214292
Affordable_Mattress_&_Furniture	C	43.099286	-75.247113
Beit_Shalom	A	43.10273	-75.22961
Metro_by_T_Mobile_Authorized_Dealer	C	43.091348	-75.222693
Lincoln_Playground	B	43.094112	-75.252984
Wanna_Play_Cafe	B	43.115758	-75.21005
The_Pizza_Box	B	43.090141	-75.213379
Price_Chopper_New_England	C	43.086522	-75.259929
St_John's_Episcopal_Church	A	43.101025	-75.227423
D_&_D_Auto_Body	D	43.09259	-75.215708
Health_Street	A	43.095323	-75.244539
West_Schuyler_Cemetery	B	43.145725	-75.108842
MassMututal	A	43.084161	-75.265506
Roscoe_Conkling_Elementary_School	A	43.091346	-75.220919
The_Stief	B	43.104316	-75.241954
Family'grocery	C	43.096159	-75.21005
Upstate_Empire_Fitness	B	43.104591	-75.269576
Mvcaa_Inc_Ney_Ave_Head_Start	A	43.106178	-75.265099
Utica_Fire_Department_Station_6	A	43.097435	-75.233642
Raspberries_Cafe_of_Utica	B	43.077542	-75.280001
Red_Raven_Tattoo_and_Piercing	B	43.101702	-75.229779
CNY_Business_Solutions	E	43.101661	-75.239661
Arcuri's_Pizza	B	43.092078	-75.221126
Tribute_to_Heritage_Tattoo_Parlor	B	43.077157	-75.280723
City_Sweets_Bakery	E	43.10329	-75.223462
Metal_Logix	E	43.088605	-75.228343
New_York_Holistics	A	43.084254	-75.265334
Ravangard_Firooz_MD_PC	A	43.096732	-75.276128
Utica_Bowls	C	43.100576	-75.233303
Come_Into_Jamaica	B	43.093688	-75.236489
Fisher_Auto_Parts	C	43.105012	-75.215045
Ruznic_Market_&_Restaurant	B	43.094171	-75.214662
Cricket_Wireless_Authorized_Retailer	C	43.114017	-75.20704
R_S_Auto_Sales	C	43.109089	-75.248928
AT&T	C	43.112398	-75.214675
Central_New_York_Cardiology	A	43.082348	-75.267332
Loretto_Utica_Center	A	43.093165	-75.241435
Chanatry's_Supermarkets	C	43.084691	-75.282256
Roso's_Cafe	B	43.101476	-75.230601
Bernard's_Boxing_Academy	B	43.10218	-75.243285
Colette_M_Griffith_LMT	B	43.085012	-75.265399
Karen's_Groom_Room	C	43.126089	-75.236002
Dunkin'	B	43.107842	-75.219935
Budlong_Cemetery	B	43.099127	-75.130667
GameStop	C	43.128538	-75.224555
DHL	C	43.0872	-75.261434
Manny's_Cheesecake_Bakery_&_Gourmet_Coffee_Shop	E	43.086757	-75.249983
Utica_Safe_Schools_Healthy_Students_Partnership_Inc	A	43.082678	-75.263042
Mark_P_Hobaica_DPM	A	43.081332	-75.270856
Weeber_Cemetery	B	43.113871	-75.204004
Luna_Mexican_Bar_and_Grill	B	43.103837	-75.243245
Dunkin'	B	43.096161	-75.24285
Komatsu	C	43.100488	-75.153632
Puff_N_Stuff	C	43.096149	-75.241485
Metro_by_T_Mobile_Authorized_Dealer	C	43.095591	-75.24222
Genesee_Nails	B	43.100075	-75.233452
Caruso's_Pastry_Shoppe	E	43.098318	-75.217441
Castlewood_Cafe	B	43.104299	-75.27011
Rent-A-Center	C	43.091843	-75.222447
Suny_Polytechnic_Institute	A	43.138191	-75.230202
Neurodevelopmental_Health_Services	A	43.081555	-75.289524
Smokers_Choice	C	43.114225	-75.20857
Buddha_Dama_Thuka_Temple	A	43.08871	-75.248888
St_Peters_School	A	43.116679	-75.209117
Emergency_Preparedness_Solutions	B	43.115503	-75.15692
Mozdzen_Auto	C	43.095711	-75.210896
Mele_Mfg_Co	C	43.109111	-75.25483
Cliff's_Local_Market	C	43.08057	-75.206385
Move_Breathe_Live	B	43.104577	-75.269551
Masonic_Care_Community_Of_New_York	A	43.088342	-75.191147
Alison's_Jewelry_&_Repair	C	43.117975	-75.209703
Freeman_&_Foote_Jewelers	C	43.101822	-75.229995
Racha_Eric_B_DDS	A	43.086225	-75.251037
Marr_Logg_House	B	43.082541	-75.204619
Faxton_St_Luke's_Healtchcare	A	43.09675	-75.276135
OMNI_Pain_&amp_Precision_Medicine	A	43.092979	-75.249015
Munson_Williams_Proctor_Arts_Institute	C	43.097588	-75.240202
Johnni's_Automotive	D	43.096172	-75.204791
H&R_Block	A	43.113931	-75.207125
A_A_Jewelry_Buyers_&_Swap_Shp	A	43.094146	-75.228154
The_Sanctuary	B	43.102872	-75.243508
Advanced_Group	B	43.092996	-75.246911
Sherwin-Williams	C	43.088	-75.260484
Cricket_Wireless	C	43.091999	-75.222267
First_Nursery_School_Of_Utica	A	43.091393	-75.250384
Western_Union	C	43.114081	-75.208366
Ahn_Douglas	A	43.093594	-75.286034
Peacemaker_Program	A	43.102141	-75.2397
Believers_Miracle_Deliverance_Ministries	A	43.08671	-75.212823
Utica_Gastronome	C	43.09599	-75.209526
Mohawk_Valley_Psychiatric_Center	A	43.103005	-75.260126
Rpm_Automotive	D	43.089721	-75.20417
Duda_Woodworking_&_Chair_Hospital	C	43.105572	-75.241062
Peter_Spencer_Uame_Church	A	43.09642	-75.22085
Subway	B	43.110083	-75.217619
China_Wok	B	43.086455	-75.260933
Two_Brother's_Cafe_And_Pizzeria	B	43.081124	-75.21734
Smith_Market	B	43.10315	-75.222524
Poppy_Grocery_&_Restaurant_Del_I	D	43.088341	-75.234105
G_P_O_Federal_Credit_Union	C	43.101154	-75.226013
Amtrak	E	43.104185	-75.223202
Wakely's	B	43.103866	-75.243142
Joseph_Putrello_Barista_Coffee_Bar	B	43.099304	-75.236196
Butala_Atul_MD_F_A_C_P	A	43.091059	-75.258096
Johnny_Nole's_Bar_&_Grill	B	43.098337	-75.233693
Easy_Pass	C	43.092335	-75.230747
Burton_Cemetery	B	43.109032	-75.175993
Baumgarten_Paul_H_Dr_DPM	A	43.097893	-75.239277
Cotrupe_Produce_&_Sons	C	43.09111	-75.2062
Utica_City_Police_Department_Utica_New_York	A	43.103964	-75.233453
Patterson_Richard_A_DO	A	43.086664	-75.257225
Whitesboro_Frame_&_Body	D	43.096863	-75.251455
Sunoco	C	43.088458	-75.223123
Rick's_Place	B	43.09517	-75.219823
Black_Cat_Bar_&_Grill	B	43.085601	-75.279662
Utica_Acupuncture	A	43.08423	-75.265316
Liang_John_Dntst	A	43.074734	-75.284129
Antiques_And_Such	C	43.101823	-75.230776
Mohawk_Valley_Granite	C	43.094824	-75.203294
Living_Word_Fellowship_Inc	A	43.089958	-75.232095
Kajtezovic_Agency	C	43.089754	-75.212576
St_Mary_of_Mount_Carmel_Church	A	43.099839	-75.218031
Christian_Heritage_School	A	43.101606	-75.15663
Trinity_Lutheran_Church	A	43.078843	-75.278252
Mohawk_Valley_Network	A	43.089398	-75.214578
Memorial_Parkway	B	43.084881	-75.245922
American_Bh_Islamic_Center_Of_Utica_Inc	A	43.096657	-75.210636
Lejla_&Ajla_Coffee_Shop	B	43.094621	-75.228436
Utica_Karate	A	43.086338	-75.261264
Come_into_Jamaican_Restaurants	B	43.093669	-75.23651
Dunkin'	B	43.107084	-75.244384
Class_Advisors	A	43.080581	-75.273962
Motus	B	43.100584	-75.233417
Jackson_Hewitt_Tax_Service	A	43.088999	-75.222479
Moriah_Olivet_United_Presbyterian_Church	A	43.100786	-75.234107
Chanantry_Plaza	C	43.085119	-75.281791
Addison_Miller_Park	B	43.094936	-75.261168
Walgreens	A	43.089567	-75.222004
Strosberg_Wm	C	43.097979	-75.216146
Fancy_Nails	B	43.11426	-75.208754
Kawasaki_Motors	C	43.11224	-75.26178
Moore's_Whol_Tire_Sales	C	43.098432	-75.223111
Clips	B	43.087315	-75.258982
Freeman's_Barber_Shop	B	43.103963	-75.231088
Florentine_Pastry_Shop	E	43.098718	-75.218582
Fastrac_Markets	C	43.109853	-75.250972
The_Balkan	E	43.086517	-75.261889
Burmese_Muslim_Association_Of_Utica_Inc	A	43.092421	-75.228197
Spinal_&_Skeletal_Pain_Medicine	C	43.092977	-75.249033
St_Elizabeth_Medical_Center	A	43.081927	-75.266761
Tucci_Maria_Beautcn	B	43.079158	-75.277037
Commerical_Woodengoods	C	43.107644	-75.231641
Lavoda_Home_Furniture	C	43.098753	-75.208675
Rite_Aid	A	43.087517	-75.26079
Calvary_Cemetery	B	43.074709	-75.265522
Foursquare_Gospel_Church	A	43.096208	-75.248626
Karate_studio_of_utica	A	43.086321	-75.261299
Hannaford_Food_And_Drug	A	43.090311	-75.224639
Home_Pro_Realty	C	43.096521	-75.21289
Utica_Mutual_Insurance_Ero	C	43.10235	-75.233029
Cortese_Eyecare	A	43.080259	-75.273265
Western_Union	C	43.093151	-75.247703
Affordable_Furniture	C	43.099246	-75.247192
Golden_Wrench_Automotive	C	43.087478	-75.257714
Tallman's_Tire_&amp_Auto_Repair	D	43.098217	-75.236707
Batroun_Rotisserie	B	43.099394	-75.232806
St_Joseph_&_St_Patrick_Church	A	43.104994	-75.241587
McGill's_Whiskey_Tavern_and_Grill	B	43.09825	-75.15146
Enterprise_Rent-A-Car	C	43.104588	-75.236159
The_Patio_Drive_In	B	43.109115	-75.251014
Pizza_Classic	B	43.101861	-75.230835
Styles_by_Renee	B	43.112804	-75.26382
Valley_View_Golf_Course	B	43.074527	-75.240097
Sal's_Auto_Repair	D	43.108568	-75.24677
Congregation_Zvi_Jacob	A	43.086612	-75.252299
Precision_Collision	D	43.095806	-75.223154
Santos_Auto_Repair	D	43.098365	-75.228617
Piano_Lab	C	43.126361	-75.236315
Evelyn's_House	C	43.083934	-75.269898
Massouds_Cafe	B	43.09985	-75.233208
First_Baptist_Church_of_Utica	A	43.114248	-75.20188
St_Regis_Medical_Equipment	B	43.100589	-75.228417
L_&_D_Automotive	D	43.109494	-75.250083
Easy_Auto_Glass	D	43.099666	-75.247041
Utica_Fire_Department_Station_3	A	43.084232	-75.225257
Utica_Lincoln_Garage	D	43.093625	-75.259192
Upstate_Cerebral_Palsy	A	43.077111	-75.264698
Herbowy_Nestor_J_DDS	A	43.094452	-75.286619
DK_Griffith_&_Company	B	43.084972	-75.265433
Clemente_Novelties	C	43.102661	-75.233629
Merrill_Lynch	A	43.091011	-75.27895
Gerber's_1933_Tavern	B	43.103228	-75.228665
Mvcaa_Inc_Cornerstone_Head_Start	A	43.095381	-75.232691
DEA_Building_Supplies	C	43.098024	-75.206859
Joey's_Pizzeria	B	43.084832	-75.235915
St_Georges_Roman_Catholic_Church	A	43.104994	-75.241626
Fabulous_Mini_Mart	C	43.094101	-75.248593
Utica_Academy_Of_Science_Charter_School	A	43.099227	-75.245804
Vietnamese_Buddhist_Congregation_Of_New_York_Inc	A	43.097332	-75.215366
Sharon's	B	43.088885	-75.261903
New_Hartford_Scanner	A	43.096743	-75.276132
Tariks_Bakery_and_Coffee_Shop	B	43.100037	-75.233263
Turning_Point_Church	A	43.103348	-75.23675
Holiday_Inn_Express	B	43.10959	-75.221463
Utica_General_Peterbilt_North_Utica	C	43.13411	-75.219901
Nicotera's_Music_Center	C	43.092246	-75.211426
North_Utica_Medical_Office	A	43.117141	-75.213295
CNYFW_Central_New_York_Fashion_Week	C	43.098264	-75.208154
Advanced_Automotive_Sales	C	43.091837	-75.195913
Pasta_Shoppe	C	43.083106	-75.224114
Habitat_for_Humanity_ReStore	C	43.085601	-75.279833
DDS_Motor_Sports	C	43.112243	-75.261775
Sunny_Restaurant_Asian_Cuisine	B	43.096983	-75.216914
Utica_Fire_Department_Station_1	A	43.108144	-75.255672
Citi_Trends	C	43.089608	-75.221183
Vondell_&_Associates_Realty	C	43.078069	-75.277138
Health_&_Happiness_Unlimited	A	43.105377	-75.265212
Cooperative_Magnetic_Imaging	A	43.090618	-75.281216
Berkshire_Bank	C	43.114011	-75.208037
Empire_State_College_State_University_of_New_York	A	43.100459	-75.23168
One_Realty_Partners	C	43.103184	-75.228266
1_First_Evolution_Nutrition_Club	A	43.092336	-75.214798
Willie's_Bagel_Cafe	B	43.112851	-75.21553
Saint_Mary's_Cemetery	B	43.087075	-75.214927
Palermo_Pizzeria	B	43.095519	-75.242809
St_Elizabeth_Medical_Group	A	43.081029	-75.205952
Oriskany_Garage_Tire_&_Auto_Service	C	43.10726	-75.270151
Western_Union	C	43.103519	-75.16282
One_Caring_Place_Plus	B	43.089772	-75.212555
Social_Security	C	43.103154	-75.226125
Ridgewood_Auto_Repair	D	43.074411	-75.267479
Rescue_Mission_of_Utica	B	43.097209	-75.231159
4_Elements_Studio	C	43.100793	-75.234633
Saint_Joseph's_Cemetery	B	43.103441	-75.271794
Aaron's	C	43.089525	-75.221444
Cellular_Shop_Singular_Wireless	C	43.073364	-75.222444
General_Herkimer_Elementary_School	A	43.112058	-75.178731
Tony's_Italian_Bakery_Deli_&_Pizza	E	43.09218	-75.196811
Champlin_Commons	C	43.104269	-75.270082
Delmonico's_Italian_Steakhouse	B	43.109335	-75.219693
Puro	B	43.094393	-75.22029
Babe's_Macaroni_Grill_&_Bar	B	43.106889	-75.220948
Twin_Cities_Collision	D	43.102154	-75.220108
Mohawk_Valley_Central_Patient_Scheduling	A	43.090874	-75.257925
O'Scugnizzo_Pizzeria	B	43.098783	-75.220392
Little_Caesars	B	43.091874	-75.222361
Hair_Reflexion_Beauty_Salon	B	43.092054	-75.206543
Bryla_Robert_J_Dr	A	43.0887	-75.262346
Saint_Peters_Cemetery	B	43.117459	-75.209438
Domser_Mark_A_Dr_DDS	A	43.116022	-75.208945
Tradewinds_Education_Center	A	43.081264	-75.215122
Hugh_R_Jones_Elementary_School	A	43.074326	-75.271665
Western_Union	C	43.089608	-75.221991
Faxton_St_Luke's_Healthcare	A	43.097058	-75.277922
Hampton	B	43.108878	-75.216594
Planned_Parenthood	A	43.09422	-75.246769
Collinite_Cheml_Co	C	43.095923	-75.253166
Metro_by_T_Mobile_Authorized_Dealer	C	43.086639	-75.261854
M_&_M_Hydroponics_&_Garden_Supply	C	43.112937	-75.26601
Pulaski_Meat_Mkt	C	43.100288	-75.251585
Little_Roma_Pizza_&_Catering	B	43.085103	-75.28204
New_Forest_Cemetery	B	43.081029	-75.25438
Fred_Jacobs_Auto_&_Brake_Service	D	43.09873	-75.226693
Razor's_Edge_Hair_Cutting	B	43.081701	-75.269854
Kidney_&_Hypertension_Consultants	A	43.105004	-75.271959
Union_Station_Barber_Shop	B	43.104079	-75.224065
Westside_Dental	A	43.114424	-75.209575
McDonald's	B	43.10999	-75.219031
Western_Union	C	43.098956	-75.219227
Rutger_Restaurant	B	43.089083	-75.204602
The_Tailor_and_the_Cook	B	43.103448	-75.227648
Center_For_Family_Life_&_Recovery	A	43.101856	-75.239523
Hope_Chapel_A_M_E_Zion_Church	A	43.091452	-75.217644
Slocum_Dickson_Medical_Group	A	43.096875	-75.276615
Thea_Bowman_House_Inc	A	43.105195	-75.241306
LabCorp	A	43.087967	-75.26026
Critical_Imaging_LLC	A	43.085001	-75.288877
Lionest_Fashion_&_Care	C	43.09353	-75.214265
KeyBank	C	43.099258	-75.234845
Kunkel_Ambulance_Service	B	43.101529	-75.223578
Physical_Therapy_college	A	43.094756	-75.271409
Utica_Fire_Department_Station_4	A	43.089221	-75.260202
Jweid_Albert	C	43.098606	-75.227762
Gigliotti's_Utica_Driving_School	A	43.096084	-75.241819
Thomas_Jefferson_Elementary_School	A	43.123762	-75.218047
The_Rut	B	43.104339	-75.269875
Crawford_John	A	43.09108	-75.258069
Arrow_Auto_Glass	D	43.101217	-75.225292
Off_Center_Records_&_Collectibles	C	43.101778	-75.229563
Masi_Carlo_Fruits_&_Vegetables_Wholesale	C	43.108203	-75.217311
Salem_Cemetery	B	43.160834	-75.213538
Utica_College	A	43.097881	-75.270978
Soul_One_12	B	43.101576	-75.230054
Utica_Safe_Schools_Healthy_Student_Partnerships_Inc	A	43.079675	-75.219659
Indoor_Auto_Parts	C	43.109852	-75.254747
Kossuth_Fish_Market	C	43.09763	-75.210367
Greyhound	E	43.104213	-75.223548
Home2_Suites	B	43.108821	-75.220503
Empire_Furniture_Co	C	43.098001	-75.21615
NBT_Bank	C	43.099239	-75.236518
Uptown_Anesthesia_Assoc	A	43.081016	-75.27178
Shade_Bar_&_Grill	B	43.101156	-75.232512
U-Haul	C	43.111325	-75.262177
McDonald's	B	43.089191	-75.257147
St_Peter_&_Paul_Ukrainian_Orthodox_Church	A	43.104363	-75.243617
Biogenic_Dental	A	43.098546	-75.237638
Pho_Mekong_House_of_Noodles	B	43.099718	-75.227167
CITGO	C	43.116307	-75.211522
Pathway_of_PEARLS	C	43.099778	-75.152411
GIN&WEARR_Haberdashery	C	43.108472	-75.251452
Albany_Elementary_School	A	43.086349	-75.209486
Cupolo_&_Son_Automotive_Svce	D	43.074836	-75.285465
Autopart_International	C	43.124585	-75.233612
Grill_155	B	43.077617	-75.219451
Rescue_Mission_Of_Utica	A	43.097169	-75.231223
Automatio_Experts	D	43.09247	-75.183497
Tramontane_Cafe	B	43.100105	-75.242145
Slice_Pizzeria	B	43.086372	-75.261328
Jo_Mar_Beauty_Salon	B	43.087143	-75.219192
Saranac_Brewery_Matt_Brewing_Co	D	43.104526	-75.245806
Tinger_Alfred	A	43.091075	-75.258096
Shah_Paru_DDS	A	43.096731	-75.276131
H&R_Block	A	43.091521	-75.222715
Rosato's_Pizzeria_&_Bakery	B	43.109374	-75.268032
PriceRite	C	43.099612	-75.220525
Deliverance_First_Ministries_Church_Of_The_Living_God	A	43.101602	-75.245305
In_Tune_Automotive	D	43.103171	-75.246493
Starseeds_Children's_Clothing_Store	C	43.093523	-75.202725
Aspen_Plaza	C	43.112427	-75.214744
Good_Friend_Chinese_Restaurant	B	43.11392	-75.207018
Precision_Stereo_Repair	C	43.175356	-75.202188
Winstons_Automobile	D	43.093143	-75.229676
Slavin_Mark_DDS	A	43.079755	-75.275656
Rockford_Auto_Glass	D	43.103555	-75.231882
Alpine_Restaurant	B	43.096843	-75.216389
Big_O_Bakery	E	43.097578	-75.214903
Craylee's	B	43.10141	-75.227447
The_Hub_Eatery	B	43.101361	-75.228397
Sunny_Side_Up_Cafe	B	43.094052	-75.203118
Maria_Horan_&_Associates	A	43.078251	-75.279049
Max_Christopher_C	A	43.091068	-75.258076
Shine	B	43.08425	-75.265315
KeyBank	C	43.0908	-75.221435
St_John's_Catholic_Church_Rectory_Historic	A	43.100369	-75.22788
Curves	B	43.126422	-75.236597
Subway	B	43.080907	-75.20672
Grand_Harmony	B	43.087332	-75.258954
Sherry_Spa	B	43.117644	-75.210085
Best_Pain_Killer_Medicine_for_Pain_Relief	A	43.099629	-75.238114
Chester's_Flower_Shop_&_Greenhouses	C	43.102351	-75.254201
Inertia_Occupational_and_Physical_Therapy_Services	A	43.100585	-75.240335
Terrace_Cafe	B	43.097104	-75.241004
Holy_Temple_of_Jesus_Christ	A	43.091084	-75.234056
Apsara_Restaurant_Cambodian_&_Thai	B	43.099396	-75.232777
Century_Nails	B	43.089782	-75.21256
Mauro's_Glass	A	43.097179	-75.237088
Focal_Point_Optical	A	43.077571	-75.281103
Upstate_Painting	D	43.089938	-75.265094
Cornerstone_Community_Church	A	43.096689	-75.242396
Total_Wireless_Store	C	43.08908	-75.223283
CNY_Eye_Physicians_&_Surgeons	A	43.084366	-75.267292
Allstate_Insurance	C	43.116087	-75.209317
Slavic_Pentecostal_Church	A	43.093183	-75.26075
Scoops_and_Sandwiches	B	43.096252	-75.241378
Advantage_Abstract_Company	C	43.099667	-75.235292
Arby's	B	43.087408	-75.258617
Ryan's_Auto_&_Truck_Service	D	43.090289	-75.215922
Acropolis_Greek_Restaurant	B	43.083319	-75.231656
Trenton_City_Cleaners	E	43.11764	-75.210101
315_Bar_BQ_&_Brew	B	43.098882	-75.253384
DTR/VILLA	C	43.091833	-75.222367
James_C_Brummett_DMD_PC	A	43.087026	-75.223971
Troya_Motor_Cars	C	43.18189	-75.183493
Eagle_Express_Smoke_Shop	C	43.086518	-75.218705
Eannace_Funeral_Home_Inc	B	43.089345	-75.214576
Bella_Regina	B	43.100096	-75.233395
Sports_Unlimited	C	43.13508	-75.218923
Field_of_Dreams_Sports_Complex	B	43.096266	-75.14189
American_Job_Centers	B	43.100464	-75.231706
Sheri's_Eastside_Diner	B	43.088716	-75.186103
Utica_District_Tel_Employee's_Federal_Credit_Union	C	43.07522	-75.284914
Mohawk_Valley_Medical_Acupuncture	A	43.098348	-75.238147
Faxton_St_Luke's_Hearing_and_Speech_Center	B	43.091014	-75.258766
Paradigm_Consulting	B	43.094555	-75.285995
Utica_Fire_Department_Station_5	A	43.115658	-75.204198
Tattoo_U_Studio	B	43.098821	-75.218809
Walmart_Supercenter	C	43.123952	-75.225433
Maugeri's_Auto_Body	D	43.104954	-75.237735
The_Dev	B	43.099948	-75.230623
Roscoe_Conkling_Park	B	43.082736	-75.250638
FMN_Creative	B	43.102562	-75.224223
Bank_of_New_York_Mellon	A	43.103046	-75.245742
North_End_Pizza_and_Tap	B	43.114259	-75.209032
Joel's_Spanish_Food	B	43.09574	-75.241848
Dollar_Tree	C	43.114286	-75.209198
Byrne_Dairy	C	43.115766	-75.209737
Jorgensen_William_DO	A	43.093684	-75.240954
Saint_Agnes_Cemetery	B	43.087123	-75.228973
Sacred_Space	B	43.098266	-75.20815
Hometown_Bait_&_Tackle	C	43.126073	-75.236032
Paquette_Lynn_FNP	A	43.094161	-75.241841
Mungari_Joseph_A	A	43.094465	-75.286625
Maye's_Salon_of_Beauty_Multi_Cultural_for_Entire_Family	B	43.091181	-75.252916
Five_Guys	B	43.128523	-75.224614
Babiarz_Chiropractic	A	43.106365	-75.270475
Mohawk_Valley_Nurse_Practitioners	A	43.09377	-75.28098
Clifford_Fuel	C	43.106688	-75.215805
Jeffrey_Coy_Jr_DDS	A	43.086126	-75.262951
Street_Corner	C	43.09918	-75.230206
Donna_Marie's_Bridal_Shoppe	C	43.082178	-75.228768
Burger_King	B	43.11423	-75.205548
Breezes_Banquet_&_Events_Center	C	43.109644	-75.212708
McDonald's	B	43.124155	-75.225739
Boneyard_BBQ's	B	43.083365	-75.277484
Bethany_Presbyterian_Church	A	43.093794	-75.214994
Burlington	C	43.12701	-75.223765
Bossone's_Sausage_&_Meat	C	43.098288	-75.217298
Jacoby_Appliance_Parts	C	43.105674	-75.271131
Physicians_Referral_Service_of_St_Elizbth_Mdcl_Ctr	A	43.082283	-75.265667
BJ's_Wholesale_Club_Gas	C	43.1269	-75.221989
Louis_Rabice_DDS	A	43.094571	-75.244398
Speedway	C	43.077102	-75.279825
Karl_Ermisch_Photography	A	43.077171	-75.280724
Ultimate_Auto_Sales_and_Repair	C	43.101688	-75.220893
CosmoProf	C	43.113929	-75.207305
Fastrac	C	43.109889	-75.251099
Spectrum_Wash_And_Lube	D	43.110177	-75.252494
Home_Outlet	C	43.105129	-75.269158
Cricket_Wireless	C	43.08785	-75.260152
Space_26	B	43.099541	-75.232975
NHance_Revolutionary_Wood_Renewal	A	43.104318	-75.236578
Rainbow_Shops	C	43.090886	-75.223831
Centrex_Clinical_Laboratories	A	43.082598	-75.269532
Nimey's_The_New_Generation	D	43.093718	-75.193279
Rosso_Verde	B	43.088644	-75.223552
MAZE_Studios	A	43.098942	-75.219268
United_States_Postal_Service_(USPS)	C	43.094642	-75.186083
Excellus_Blue_Cross_Blue_Shield	C	43.09309	-75.28859
JK_Skin_Care_By_Jillian_Kulas	B	43.099695	-75.152456
Bohling's_Auto_Service	C	43.086228	-75.238284
Schuyler_Antiques	C	43.098602	-75.151171
Davi_Nails	B	43.12856	-75.227295
Stewart's_Shops	C	43.100565	-75.239189
Strut	B	43.101388	-75.227342
Mobile_Mini	C	43.1131	-75.266013
Sabor_Latino_Restaurant	B	43.085742	-75.237954
123_Credit_Restoration	C	43.097913	-75.237733
Zeina's_Cafe	B	43.104096	-75.241499
So_Sweet_Candy_Cafe	C	43.104471	-75.240537
Riverside_Center	C	43.126013	-75.224563
The_Finery	A	43.098783	-75.218822
Empire_City	B	43.103376	-75.24686
Betro_Shkane_Julie_DO	A	43.081017	-75.205956
Costello_Jr_John_DO	A	43.075555	-75.282528
Mavis_Discount_Tire	D	43.086437	-75.262566
Mohawk_Valley_Community_Action_Inc	A	43.082656	-75.263017
Adirondack_Bank	C	43.074571	-75.284476
Western_Union	C	43.087734	-75.260021
K_9_Obedience_Training	B	43.109009	-75.10086
American_Auto_Parts	C	43.092609	-75.21565
Steuben_Park	B	43.098224	-75.231843
Primerica	A	43.102997	-75.238951
Parkway_Pizza	B	43.081269	-75.205705
Salerno's_Auto_Sales	E	43.110481	-75.260863
Forest_Hill_Cemetery	B	43.07895	-75.255752
Our_Saviour_Lutheran_Church	A	43.0899	-75.25568
Central_Market_Florist	C	43.086375	-75.259834
Lyon_Albert	A	43.083935	-75.26814
Carbone_Insurance_Agency	C	43.136875	-75.217637
Dollar_General	C	43.091651	-75.222499
Planet_Fitness	B	43.127545	-75.223596
Western_Union	C	43.110258	-75.255684
Grace_Church_Parish_Ofc	A	43.100791	-75.231169
Hair_East	B	43.086897	-75.219386
Fastrac	C	43.110306	-75.180132
Sotera_Investigative_Group	A	43.091176	-75.287896
Lighthouse_Baptist_Church	A	43.09434	-75.212498
Carbone_Pontiac_At_Hornell	C	43.136912	-75.217606
St_Elizabeth_Childrens_Health_Center	A	43.083962	-75.268141
CNY_HealthHome_Network	A	43.092494	-75.207921
Trackside_Restaurant_&_Banquets	B	43.104075	-75.223132
Lowe's	C	43.126098	-75.224338
Women's_&_Children's_Health_Center	A	43.083942	-75.268132
Applebee's	B	43.123761	-75.228957
Lily's_Party_Store	C	43.096439	-75.241798
Patil_Mangala	A	43.117122	-75.213293
Redeemer_Church	A	43.112433	-75.18702
Stanley_Restaurant	B	43.102332	-75.242032
Utica_School_Of_Commerce	A	43.1017	-75.2283
Valley_Transmission_Svce	D	43.102091	-75.222804
Five_Points_Public_House_And_Event_Center	B	43.104067	-75.240747
Bagg's_Square_Cafe	B	43.102545	-75.2215
Mohawk_Valley_Endocrinology	A	43.081734	-75.270195
Trulli_Di_Turi	B	43.115713	-75.209808
John_F_Kennedy_Middle_School	A	43.118727	-75.197508
Utica_Karen_Baptist_Church	A	43.100631	-75.23449
Seif_Steven_G_DDS	A	43.077868	-75.276777
Nyc_Gourmet_Deli	B	43.098485	-75.23774
Tony's_Pizzeria_Burrstone_Rd	B	43.089935	-75.258298
Mohawk_Valley_Cardio_Thoracic_Surgeons_PC	A	43.083137	-75.267792
Napoli's_Italian_Bakery	B	43.092155	-75.196847
Delta	B	43.09787	-75.237686
A_Dogs_Day_Out	B	43.126311	-75.23661
Western_Union	C	43.11448	-75.206446
St_Elizabeth_Medical_Group	A	43.086575	-75.262946
Dick's_Auto_Sales	D	43.092182	-75.209886
Shaheen_Brothers	C	43.106247	-75.247517
Campus_Inn_Pizza	B	43.099342	-75.232696
OakShield_Financial_Group_Ameriprise_Financial_Services	A	43.084178	-75.20323
Speciale_Fireworks	C	43.102564	-75.161052
Delta_Hotels	B	43.101243	-75.232326
Cutting_Crew	B	43.11395	-75.206902
Mayflower_Chinese_Restaurant	B	43.113548	-75.205202
Uptown_Theatre_for_Creative_Arts	A	43.086565	-75.262136
Jeffery_Wells_Ameriprise_Financial_Services	B	43.084212	-75.203231
Irwin's_Fine_Food	B	43.100491	-75.233526
Family_Dollar_Stores	C	43.080447	-75.207216
Peters_Glass	D	43.096768	-75.221924
West_Schuyler_United_Methodist_Church	A	43.111052	-75.150453
Holy_Trinity_Cemetery	B	43.10414	-75.273459
Greater_Grace_Church_Of_Utica	A	43.105805	-75.264815
Golden's	B	43.100414	-75.233668
Papito_Barbershop	B	43.098259	-75.218352
Faxton_St_Lukes's_Healthcare	A	43.117128	-75.213325
Markwood_Thor	A	43.083125	-75.267804
Western_Union	C	43.091423	-75.222867
Rao_C_P	A	43.10833	-75.267896
A_Soothing_Touch_Laser_Hair_Removal	B	43.1128	-75.263823
Chophouse_by_Chesterfield	B	43.1026	-75.230708
Tha_Bakery_Music	A	43.082422	-75.256194
A_To_Z_Auto	D	43.10829	-75.248071
Bank_of_Utica	C	43.100833	-75.232955
Gemini_Teez	E	43.106598	-75.247098
M_&_M_Cleaners	E	43.07449	-75.266961
Court_View_Luncheonette	C	43.10073	-75.229024
Bosnian_Islamic_Association_of_Utica	A	43.100497	-75.235491
Dollar_General	C	43.103675	-75.162359
Dollar_Tree	C	43.090767	-75.224096
Todd_Hunter's_Eternal_Images	B	43.104009	-75.242795
Freeway_Insurance_Services	C	43.096433	-75.241868
Commumity_SDA_Church	A	43.097032	-75.237521
Your_Store	C	43.10329	-75.235234
Colino_Daniel_F	A	43.115774	-75.208521
South_Towne_Plaza	C	43.087799	-75.260325
Joe's_Restaurant	B	43.09672	-75.208919
Days_Inn	B	43.108982	-75.218336
Good_Vibes_Cafe_&amp_Lounge	B	43.096491	-75.212885
Western_Union	C	43.086461	-75.259826
Ohio_Baking	E	43.093928	-75.200062
Rite_Aid_Plaza	C	43.089543	-75.222216
GPO_Federal_Credit_Union	C	43.075967	-75.281579
Utica_General_Truck_Co	C	43.134074	-75.219873
Vista_Dental_Care_PC_Family_Dentistry	A	43.084611	-75.266067
Proctor_Park	B	43.081917	-75.201933
M_J_Auto	D	43.087374	-75.23213
Tabernacle_Of_Praise_Ministries_Church_Of_The_Living_God_Inc	A	43.109123	-75.261636
Woodland_Farm_Brewery	D	43.151135	-75.212037
Five_Point_Tv	C	43.088689	-75.211811
Christopher_Columbus_Elementary_School	A	43.079868	-75.219667
Orderit_Alcohol_Delivery	C	43.104566	-75.241929
Nepali_Calvary_Harvest_Church_International_Inc	A	43.093756	-75.230121
Number_1_Chinese_Restaurant	B	43.091211	-75.222768
Vision_To_Plant_Foundation	A	43.088991	-75.252283
Francis_Eye_and_Laser_Center	A	43.093805	-75.286005
Gigliotti_Siegfried_and_Associates	C	43.085171	-75.2636
Schuyler_Tax_Services	A	43.092641	-75.136946
Western_Union	C	43.094164	-75.214645
Psychiatric_Services_Of_Central_New_York	A	43.102004	-75.239451
Nathan_G_Hanna	A	43.082542	-75.268703
Denicola_Photography	A	43.099427	-75.232824
Kirkpatrick_Daniel_OD	A	43.097617	-75.237929
Anand_I_Desai_MD_PC	A	43.096764	-75.276144
The_Celtic_Harp_Restaurant_and_Pub	B	43.103224	-75.243848
Utica_Coffee_Roasting	B	43.103445	-75.227632
Brock_Jim_Agency	C	43.08757	-75.259721
Kwikee_Car_Wash_&_Oil_Change	D	43.110139	-75.252473
Mvcaa_Inc_River_Rd_Head_Start	A	43.124803	-75.234256
Ventura's_Restaurant	B	43.093467	-75.213809
OMNI_Surgery_Center	A	43.086533	-75.278117
Casper_Chiropractic	A	43.118482	-75.210984
A_1_Auto_Parts	C	43.113696	-75.242804
Oneida_County_Farmers_Market	C	43.104186	-75.222516
Hanger_Prosthetics_&_Orthotics	C	43.098435	-75.237964
Wat_Satheathek_Uticaram	A	43.088463	-75.240921
Cafe_Hummus	B	43.088877	-75.222122
Iconic_by_Chesterfield	B	43.102621	-75.230744
Mya_Family_Asian_Food_Market	C	43.088034	-75.247979
Flooring_America	C	43.112034	-75.259975
Carbone_Collision_Center	C	43.139253	-75.214819
Old_School_Bar_&_Grill	B	43.090254	-75.198745
Quest_Diagnostics	A	43.086588	-75.261783
Presbytery_of_Utica	A	43.0914	-75.250245
Blando_Thomas_A_Dr	A	43.086078	-75.265496
Ruff_Gordon_James_DDS	A	43.085565	-75.264053
View's_Valley_Paving	C	43.092565	-75.228721
Fairfield_Inn_&_Suites_by_Marriott	B	43.107491	-75.222421
Aspen_Dental	A	43.112497	-75.214545
Oneida_Square_Gun_Shop	B	43.096216	-75.240339
New_School_For_Social_Research	C	43.10016	-75.260036
Holy_Trinity_Cath_Church	A	43.099453	-75.244915
Retrouvaille_Community	A	43.126988	-75.193085
Hannaford_Plaza	C	43.091417	-75.223706
New_Hartford_Psychological_Services	A	43.081584	-75.270406
Big_Lots_Stores	C	43.11336	-75.205494
Tavolo	B	43.109155	-75.220199
Subway	B	43.092047	-75.222262
Cashion's_Collision	D	43.093634	-75.259193
F_M_Collision	D	43.089656	-75.211788
Urbaniks_Paint_&_Wallpaper_Co	C	43.104119	-75.2384
The_Neighborhood_Center_Inc	A	43.09732	-75.220509
Urbanik's_Paint_&_Wallpaper	C	43.110247	-75.251924
Utica_Zoo	B	43.082066	-75.245197
Pantry_284	B	43.098483	-75.237689
Tallman's_Tire_&_Auto_Repair	D	43.0878	-75.258051
Monro	D	43.113154	-75.215157
Ezra's_Energy	C	43.10257	-75.22979
Classy_Cakes	E	43.126183	-75.235942
Lenox_Cafe	B	43.098886	-75.253476
Nichol_Street_Auto	D	43.092782	-75.210763
Union_Station	B	43.104185	-75.223212
Seymour_Park	B	43.09048	-75.260814
St_Joseph_Nursing_Home	B	43.079463	-75.274183
Adirondack_Behavioral_Health_Center	A	43.091202	-75.187939
Varick_Bar_&_Grill	B	43.104349	-75.241851
Parkway_Senior_Center	B	43.084742	-75.249471
Alan_Byer_Foreign_Auto	D	43.132446	-75.221037
Berkshire_Bank	C	43.091476	-75.223083
Smith_Packing_Regional_Meat	C	43.104579	-75.229753
Obstetrics_Gynecology_&_Infertility	A	43.096887	-75.276637
Johnson_Park	B	43.091722	-75.236732
United_Way	B	43.099701	-75.235316
Parkway_Drugs	A	43.113076	-75.205817
FootDoctors	A	43.094431	-75.286639
Western_Union	C	43.09616	-75.241459
Ambassador_Restaurant	B	43.096851	-75.21638
Sickenberger_Lane	B	43.10431	-75.242166
Cooperative_Magnetic_Imaging	A	43.081984	-75.266356
Rocky's	B	43.128549	-75.227321
Dick_Smith's_Tavern	B	43.098302	-75.251464
Morning_Star_Christian_Merchandiser	C	43.102983	-75.241616
A_&_P_Master_Images	E	43.106142	-75.230477
Tiny's_Grill	B	43.099995	-75.240431
Gemini_Pets_And_Things	C	43.077363	-75.280245
Western_Union	C	43.093509	-75.22078
Bargain_Grocery	C	43.100509	-75.242531
El_Barajo_Restaurant	B	43.098192	-75.218114
Hawaiian_Holiday_Tanning_Salon	B	43.089813	-75.212051
Dominican_Barber_Shop	B	43.098286	-75.217329
Zalatan_Dental	A	43.078849	-75.275932
Colortyme	C	43.099289	-75.247227
Tractor_Supply_Co.	C	43.128133	-75.222992
Insight_House_Chemical_Dependency_Services	B	43.106065	-75.23599
Bagel_Grove	B	43.089873	-75.257936
Moe'S_Plaza	C	43.107212	-75.220658
Notre_Dame_Elementary_School	A	43.083548	-75.270325
The_Willows	B	43.088105	-75.200146
Aiello's_Automotive	D	43.087465	-75.223049
Star_Bakery	E	43.095521	-75.203745
Health_Street	A	43.087563	-75.259873
Anthony's_Tv_&_Vcr_Service	D	43.097032	-75.219228
Bella_Vita_Salon_&_Massage_Therapy	B	43.117089	-75.211465
ServiceMaster	D	43.093312	-75.202406
Allergy_Care	A	43.08437	-75.2673
La_Barbera_Joseph_A	A	43.075471	-75.282874
Utica_Cutlery_Company	C	43.097819	-75.249275
Aversa_Photography	A	43.120515	-75.206841
Geisha_II	B	43.099384	-75.232764
Asian_Bodywork	B	43.080825	-75.273606
Johnston's_Auto_Body	D	43.09872	-75.224439
Thomas_R_Proctor_High_School	A	43.082345	-75.21498
Hummus_&_Tabbouleh	B	43.098687	-75.218266
CleanBox_Porta_Potty_Rental	C	43.088923	-75.238708
Utica_Safe_Schools_Healthy_Student_Partnerships_Inc	A	43.118688	-75.196998
Mikey_Thomas	B	43.101817	-75.229698
Utica_Fire_Department_Station_2_Utica_Fire_Department_Ambulance_Service	A	43.099167	-75.221544
The_Neighborhood_Center_Inc	A	43.097821	-75.220843
Joey's_Restaurant	B	43.099535	-75.216785
Autoland_Rental_Cars	C	43.094109	-75.228006
Thuy_Cafe	B	43.098857	-75.218988
Mohawk_Valley_Community_College	A	43.076701	-75.21662
Serendipity_Hair_Salon_&_Boutique	B	43.090743	-75.215696
K&K_Dance_Wear	C	43.117085	-75.211426
Lava_Spa	B	43.076307	-75.28081
Lichtmans_Wine_&_Liquor	C	43.114241	-75.208665
Top_of_the_Morning_Cafe	B	43.117689	-75.210155
Mvcaa_Inc_Nd_Peters_Head_Start	A	43.079192	-75.211459
S_&_R_Custom_Motorcycle_Parts	C	43.097032	-75.246719
Adirondack_Distilling_Company	C	43.104114	-75.24145
Adam_C_Ellis_DC	A	43.092072	-75.284621
Advance_Auto_Parts	C	43.092354	-75.248096
K_&_K_Train_&_Hobby	C	43.08602	-75.279684
Payne's_Temple_Church_of_God_In_Christ	A	43.097797	-75.228352
BMP_Autoworx	D	43.107567	-75.24376
Laura's_Cafe	B	43.089023	-75.222661
Epilepsy_Services	A	43.093647	-75.246086
Hebert_Thomas_E_PC	A	43.090189	-75.253151
Davis_David_P_Auto_Sal	E	43.10226	-75.241465
Doubletree_By_Hilton_Utica	B	43.102515	-75.23084
Primary_Urgent_Care	A	43.087556	-75.259846
Southside_Automotive	C	43.109341	-75.261443
Kernan_Park	B	43.088989	-75.20764
International_Paper	A	43.108245	-75.234508
Elite_Car_Wash	D	43.110598	-75.253415
Utica_City_Parking_Garage	B	43.112345	-75.214751
Mohawk_Deli_&_Grill	B	43.089089	-75.223295
Basloe_Levin_&_Cucaro_Adjusters_International	C	43.092825	-75.284635
Daniele_'s	B	43.081987	-75.228926
Belen_Dental	A	43.077972	-75.279251
Nostro_Restobar_and_Lounge	B	43.099306	-75.236187
Wingstop	B	43.107171	-75.220577
Advanced_Physical_Medicine_&_Rehabilitation	A	43.084092	-75.267768
A_Little_Bit_of_Love_Bakery	E	43.09405	-75.203113
Endodontic_Associates_PC	A	43.091076	-75.278949
Mark_S_Lewandrowski_Ameriprise_Financial_Services	A	43.081341	-75.272393
Suny_IT	A	43.135228	-75.22776
Moe's_Southwest_Grill	B	43.107216	-75.220419
CNYHHN_Inc	B	43.0925	-75.207902
Fastrac	C	43.115915	-75.210361
Baker_Greenhouses	C	43.112413	-75.18335
Greg_Kovacs_LMFT	A	43.082525	-75.268683
Nicky_Doodles	B	43.10705	-75.222781
McQuade_&_Bannigan	C	43.098622	-75.250396
Shop_and_Go	C	43.097234	-75.215079
Alee's	B	43.100357	-75.227936
Ziebart	D	43.110197	-75.252523
Lansing_Body_Works	D	43.090996	-75.205377
Express_Employment_Professionals	B	43.101852	-75.23158
Harbor_Point_Minerals	C	43.106791	-75.215513
Meehan_John_J_Ins	C	43.086868	-75.264735
Willow_Park_Assisted_Living_Facility	B	43.106672	-75.170271
Edward_J_Hirt_Playground	B	43.101309	-75.245982
Mvhs_Rehabilitation_And_Nursing_Center	B	43.098112	-75.278963
Cooperative_Magnetic_Imaging	A	43.096726	-75.276126
Junior_Junction_Inc_At_St_Elizabeth's_Hospital	A	43.082523	-75.268055
Thomas_James_W_DDS	A	43.115603	-75.208832
Western_Union	C	43.088635	-75.258567
Utica_Public_Library	B	43.097111	-75.238804
Bass_Pro_Shops	C	43.125236	-75.225889
St_Vladimir_Ukrainian_Catholic_Church	A	43.098125	-75.238672
New_York_State_Dept_of_Motor_Vehicles	A	43.104131	-75.223198
Cook_Brothers_Truck_Parts	C	43.105171	-75.215279
The_Lotus_Garden	B	43.098237	-75.235238
Which_Pain_Killer_Medicine_Is_Best_for_Instant_Pain	A	43.101016	-75.232501
CNY_Neurosciences	A	43.081303	-75.272552
The_Beer_Hub	B	43.076789	-75.280312
Dave's_Diner	B	43.099709	-75.152464
Desserts_Beyond_the_Ordinary	E	43.099584	-75.233084
Aquavino_Restaurant_&_Catering	B	43.111267	-75.214996
Tanner_Cemetery	B	43.112531	-75.142975
Advanced_Physical_Medicine_and_Rehab	A	43.092965	-75.249001
Caliber_Collision	D	43.096759	-75.251081
Bazar_Grill_&_Lounge	B	43.095439	-75.222754
Medino's_Restaurant	B	43.095332	-75.215471
Sammy_and_Annie_Foods	E	43.098221	-75.21702
The_Cellular_Shop_Utica	C	43.112402	-75.214559
Gabriel_Daniel	A	43.083946	-75.268163
ADHD_Autism_and_Psychological_Services	A	43.092099	-75.284603
Sunset_Anesthesia_Associates_Pain_Mngmnt	A	43.091082	-75.258084
Mavis_Discount_Tire	D	43.111126	-75.256075
Auto_Dimensions_Plus	D	43.092269	-75.196703
Carbone_Collision_Center	C	43.137838	-75.216058
American_Fireworks_Display	C	43.096819	-75.217415
Children's_Therapy_Network	A	43.086634	-75.257237
Supercuts	B	43.08528	-75.281943
BGM_Supply	C	43.089553	-75.225735
Johanne's_Coffee_&_Coin_Shop	C	43.094128	-75.228155
Christine's_Cookie_Shoppe	C	43.10105	-75.232546
Realm_Chiropractic	A	43.076121	-75.281269
Walgreens	A	43.114364	-75.206366
Papandreas_Automotive	D	43.116813	-75.210865
Dental_Arts	A	43.098401	-75.237932
Speedway	C	43.108879	-75.219068
Tiger_Lily_Quilt	C	43.102724	-75.24451
U-Haul	C	43.084259	-75.288699
Radiology_Associates_of_New_Hartford	A	43.101331	-75.230547
Utica_International_Adventist_School	A	43.110474	-75.184321
Mvcaa_Inc_Mlk_Head_Start	A	43.091303	-75.235219
Karate_USA	A	43.112798	-75.263807
Mohawk_Valley_Community_College	A	43.076989	-75.21678
Haylor_Freyer_&_Coon	C	43.091047	-75.278951
Chesterfield_Restaurant	B	43.093028	-75.199936
Lifecoach_Communications_Inc	A	43.078209	-75.273436
Family_Dollar_Stores	C	43.087813	-75.257664
Mojos_cafe	B	43.080489	-75.207149
Utica_Rehabilitation_&_Nursing_Center	B	43.079457	-75.274179
Upstate_Cerebral_Palsy_Inc_New_Discoveries_Learning_Center	A	43.079668	-75.210984
Ridgewood_Market_&_Deli	C	43.074403	-75.267615
Cycle_Motive	C	43.092318	-75.182335
Casa_Imports	C	43.097582	-75.202451
Sunoco	C	43.080357	-75.206285
Computer_Aided_Automotive	D	43.082474	-75.204804
Western_Union	C	43.10349	-75.247247
John_F_Hughes_Elementary_School	A	43.082557	-75.262709
Karl's_Mkt	C	43.096414	-75.2493
Karen_B_Griffith_Do_FAAP	A	43.105081	-75.271826
ALDI	C	43.116136	-75.207668
American_Red_Cross	B	43.094318	-75.244786
Church_of_Our_Lady_of_Lourdes	A	43.083922	-75.269902
Chancellor_Park	B	43.099984	-75.224813
New_York_Northern_District_Court_Alexander_Pirnie_Federal_Building	A	43.103144	-75.2261
Maria's_Pasta_Shop	C	43.0743	-75.267718
Desai_Anand_I_PC	A	43.096735	-75.276118
Pawn	A	43.102255	-75.241454
AAA_Welch's_Bicycle_&_Ski_Shop	C	43.106615	-75.247677
Rosemont_Inn	B	43.093978	-75.245628
Monk's_Pizza	B	43.106453	-75.246169
Hoopla_Frozen_Yogurt	B	43.107208	-75.220559
Mi_Casa_Restaurant	B	43.095285	-75.243158
Iglesia_Unificando_Corazones_Contrictos_Pentecostal_Church	A	43.108824	-75.25738
Discount_Automobile	C	43.108972	-75.248729
Noyes_Street_Alignment_and_Brake	C	43.096828	-75.249096
Trivieri's_Auto_Svce	D	43.091313	-75.225603
Bengee's	B	43.102374	-75.233794
Smith_Carolyn_RPA	A	43.081024	-75.205991
Tallman_Kenneth_W	C	43.087392	-75.202814
Good_News_Foundation	A	43.127008	-75.193046
Genesee_Street_Children's_Center	A	43.077165	-75.278671
St_Pauls_Baptist_Church	A	43.092339	-75.234501
Stage_Music	C	43.107716	-75.244277
Western_Union	C	43.090062	-75.213102
Genesee_Street_Citgo	C	43.093078	-75.24767
F_T_Proctor_Park	B	43.087836	-75.196258
Farnum_Elizabeth_A	A	43.102539	-75.23907
Better_Health_Chiropractic	A	43.085934	-75.263355
Sauquoit_Knolls_Golf_Club	B	43.079955	-75.225698
Zwe_Ka_Bin_Hala_Restaurant	B	43.094315	-75.228696
Hannaford_Supermarkets	C	43.090332	-75.224636
YWCA	B	43.099546	-75.237843
Seventh_Day_Adventist_Church	A	43.110419	-75.184327
First_Baptist_Church	A	43.114239	-75.201895
Denny's	B	43.109858	-75.217886
Swifty's_Restaurant_&_Pub	B	43.099168	-75.235106
Cooperative_Magnetic_Imaging	A	43.090519	-75.281343
Temple_Beth_El	A	43.076734	-75.282006
Royal_Imports	B	43.084207	-75.208514
Taco_Bell	B	43.108135	-75.2197
Klar_Kurt_F_DDS	A	43.083728	-75.271064
Phu_Quoc	B	43.098859	-75.21898
Children's_Museum_Of_Natural_History	B	43.104221	-75.224109
Sweet_Escape_Chocolate_Lounge	C	43.097137	-75.241027
Atlas	C	43.094303	-75.219707
Adirondack_Bank_Center_at_the_Utica_Memorial_Auditorium	A	43.105141	-75.233183
AutoZone	C	43.088206	-75.257077
Fastenal	C	43.112982	-75.26395
Dr_Uniforms	C	43.108914	-75.250256
Hess	C	43.077099	-75.279821
Medical_Arts_OB_Gyn_P_C	A	43.093372	-75.270312
Boost_Mobile	C	43.091352	-75.222735
A_Taste_Of_Laos	B	43.099779	-75.233179
Larry's_Auto_Repair	D	43.162412	-75.210868
Domino's_Pizza	B	43.085106	-75.286837
First_Source_Federal_Credit_Union	C	43.11445	-75.209761
Bare_Naked_Furniture	C	43.100746	-75.155433
The_Broken_Egg	B	43.099041	-75.231404
O'brien_Richard_L_DO	A	43.081723	-75.270235
Simmer	B	43.093007	-75.224192
Arlott_Duplicator_Supply	C	43.098904	-75.231511
Nelsons_Detail_Services	D	43.112994	-75.188868
St_Basils_Melkite_Catholic_Church	A	43.081494	-75.222577
Joey's_Auto_Detail_Shop	D	43.110244	-75.259349
Utica_Dental_Laboratory	A	43.097905	-75.239271
Rosario's_Pizzeria_East_Utica	B	43.081138	-75.206374
Black_Rice_Sushi_&_Thai	B	43.098667	-75.21826
Walgreens	A	43.08862	-75.258534
St_Francis_Desales_Catholic_Church	A	43.095798	-75.238041
AMF	B	43.088761	-75.257826
Faxton_St_Lukes_Healthcare	A	43.091269	-75.25832
Cars_Collision	D	43.102216	-75.222728
Utica_Brews_Internet_Cafe	B	43.10206	-75.245323
Saranac_Brewery	B	43.103319	-75.244673
Stathis_Greek_Restaurant	B	43.087711	-75.259578
The_Auburn	B	43.085787	-75.26049
Price_Chopper_New_England	C	43.113958	-75.207812
Ocean_Blue_Restaurant_&_Oyster_Bar	B	43.101899	-75.231516
Redline_Automotive	D	43.090271	-75.204322
Jonny's_Pizza	B	43.103372	-75.227793
Charlie's_Pizza	B	43.113626	-75.205111
Mojoz	E	43.080467	-75.207113
Mateflex	A	43.091547	-75.191087
Muslim_Community_Association_Of_Mohawk_Valley	A	43.086982	-75.247155
Securitas	B	43.102294	-75.239282
Oneida_Center_For_Rehabilitation_And_Nursing	B	43.093128	-75.241417
Giuseppe's_Bakery	E	43.097994	-75.218235
John_Garret_Martial_Art_Academy	A	43.104467	-75.269619
Sunoco	C	43.115634	-75.209329
Thea_Bowman_House_Inc	A	43.096837	-75.239769
Baggs_Square_Brewing_Co	D	43.103313	-75.223324
Syracuse_Motor_Parts	C	43.103833	-75.228139
East_Side_Diner	B	43.094345	-75.228714
Pixley_Park	B	43.10183	-75.26358
Henry's_Auto_Sales	D	43.10755	-75.243778
United_States_Postal_Service_(USPS)	C	43.088034	-75.256811
Jenny's_Diner	B	43.103773	-75.24243
Bueno_Deals	C	43.09839	-75.218949
Bite_Bakery_&_Cafe	B	43.102503	-75.229791
Northern_Lights_Docks	C	43.100165	-75.156004
Sprague's_Collision_Center	D	43.09372	-75.193448
Watson_Williams_Elementary_School	A	43.087397	-75.243218
Jewish_Community_Center_Preschool	A	43.07727	-75.265444
Green_Onion_Pub	B	43.086477	-75.262258
OConnor_Park	B	43.085257	-75.228916
LC_Massage_Therapy	A	43.085006	-75.26539
Mello's_Subs	B	43.100436	-75.233595
Fort_Schuyler_Trading_Co	C	43.114241	-75.208946
Utica_Custom_Shirts	E	43.104284	-75.23977
Tony's_Barber_Shop	B	43.106384	-75.246088
Visionworks	A	43.113913	-75.207221
Sunoco	C	43.093074	-75.247703
The_UPS_Store	C	43.110036	-75.217677
Griffin's_Pub	B	43.100765	-75.233165
Monopoli_Michael	D	43.095074	-75.242473
Mohawk_Valley_Association_of_Realtors	C	43.091926	-75.281282
Cliff's_Local_Market	C	43.11635	-75.211545
D_&_D_Auto_Sales	C	43.112382	-75.26213
Lafountain_Thomas	A	43.080859	-75.288953
Community_Health_&_Behavioral_Senvices	A	43.093744	-75.246246
Antiques_&_Such	C	43.101365	-75.228541
New_York_State	A	43.100228	-75.260642
Notre_Dame_Junior_Senior_High_School	A	43.093217	-75.28193
Russell_Williams_DC	A	43.080864	-75.288942
Hemstrought's_Bakeries	E	43.09649	-75.252087
Dunkin'	B	43.105095	-75.233529
Street_Corner	C	43.101667	-75.229903
Family_Dollar_Stores	C	43.103993	-75.247055
State_Farm	C	43.086883	-75.264725
W_B_Payne_Co_Inc_Friedlander_Insurance_Agency	C	43.084142	-75.265494
Jimmy_John's	B	43.101753	-75.230079
Domser_Ira_L_DDS	A	43.116008	-75.208971
Sing_Ong_TAI_CHI_International_&_Hup_Taekwondo	A	43.10464	-75.269306
Tonys_Pizzeria	B	43.109852	-75.262044
SUNY_Polytechnic_Institute	B	43.135523	-75.230096
Cricket_Wireless	C	43.101081	-75.232382
Dulkin_Oleg	A	43.117081	-75.210731
Juliano_Farms	C	43.096925	-75.146027
Hearth_&_Homes_USA	C	43.125646	-75.236513
T_C_Peters_Printing	E	43.112414	-75.267953
Beacon_Center	A	43.09299	-75.249024
Stevens_Swan_Humane_Society	C	43.135529	-75.218615
Dollar_General_Center	C	43.092379	-75.220588
Orkin	D	43.097789	-75.252647
Senator_James_H_Donovan_Middle_School	A	43.101448	-75.261956
Brown_&_Associates_CPAS_PC	A	43.099864	-75.23545
Boost_Mobile	C	43.09533	-75.243201
Gustafson_&_Wargo_CPAs	A	43.088459	-75.256908
Wassel_Emile	A	43.091269	-75.258294
John_Devereux's_Tavern	B	43.099947	-75.23063
Smartlifecycles_Wellness_Store	B	43.094961	-75.237623
Ifix_Repair	D	43.101772	-75.229559
DLG_Wealth_Management	B	43.099694	-75.235295
Little_Italy_Imports	C	43.089186	-75.221034
McDonald's	B	43.091022	-75.222295
Bliss_Boutique_Shop	C	43.083588	-75.277562
North_Utica_Park	B	43.115127	-75.170681
Comeskey_Vintage_&_Classic_Cars	C	43.096042	-75.247383
Parkway_Drugs	A	43.081236	-75.205712
Cars4Charities	C	43.098383	-75.237933
Roll_Corporation_Supermarket	C	43.088968	-75.234845
Adirondack_Community_Physicians	A	43.117154	-75.213326
Tabernacle_Baptist_Church	A	43.09846	-75.234692
Parkway_East	B	43.076	-75.210263
BJ's_Wholesale_Club	C	43.126611	-75.22254
Club_Comacho's_Sports	A	43.103099	-75.241471
Believers_Miracle_Deliverance_Ministries	A	43.094026	-75.23387
Southside_Auto_Repair	D	43.109351	-75.261462
GNC_(General_Nutrition_Centers)	A	43.128615	-75.22447
Nail_Creek_Pub_&_Brewery	B	43.103659	-75.243741
Fort_Schuyler_Club_House	B	43.099922	-75.23481
Berg_Daniel	A	43.082193	-75.267227
Community_Medicine_Centers_of_St_Elizabeth	A	43.093302	-75.241227
Walmart_Pharmacy_10_2093	A	43.128523	-75.227292
Kernan_Elementary_School	A	43.10367	-75.252012
Franco's_Pizza_&_Italian_Deli	B	43.116891	-75.210714
Western_Union	C	43.113074	-75.205825
Mohawk_Valley_Imaging_PC	A	43.081992	-75.265836
Mount_Zion_Ministries_Church_Inc	A	43.112429	-75.187036
Character_Coffee	B	43.101568	-75.230033
St_Peter's_Catholic_Church	A	43.117487	-75.209451
Tilton_School	A	43.103167	-75.274595
Sakura	B	43.089613	-75.222026
Hobaica_Podiatry	A	43.081344	-75.270862
Sunset_Anesthesia_Associates	A	43.091094	-75.258081
Pie_Squared_Utica	B	43.095822	-75.249767
Herrera_Sabor_Latino	B	43.100738	-75.22508
E_Z_Tax_Service	A	43.108396	-75.136178
Jamison_Virtual	B	43.079455	-75.276124
What_The_Truck	B	43.109565	-75.212797
Rick's_Famous	B	43.102549	-75.221516
Dino's_Sausage	C	43.099236	-75.216096
Court_Street_Children's_Center	A	43.100735	-75.238145
J_&_L_Auto_Svce	D	43.108802	-75.268484
The_Cutting_Edge_Salon	B	43.099734	-75.152476
Tasty_Treat	B	43.118179	-75.209035
Emmie's_Global_Cuisine	B	43.099778	-75.233135
Lafountain_Chiropractic	A	43.08088	-75.288959
Cafe_Bella_Mia	B	43.115754	-75.210003
KF_Tom_Yum	B	43.098657	-75.218286
Lincare	B	43.104146	-75.270116
Schultz_Autoworks	D	43.095429	-75.25511
Lm_Hair_Salon	B	43.09075	-75.21568
Towpath_Vision_Care	A	43.081968	-75.271209
Garro_Drugs	A	43.098077	-75.217729
Community_Medicine_Ctrs_of_St_Elzbth_Mdcl_Ctr_Fmly	A	43.093287	-75.241231
Faith_Furniture_Store	C	43.095027	-75.237565
Utica_Foursquare_Church	A	43.096221	-75.24865
Herbowy_Daniel_G_Dr_Poditrst	A	43.09445	-75.286633
Best_Western_Gateway_Adirondack_Inn	B	43.110888	-75.219283
Weight_Watchers	B	43.118221	-75.213685
315_Auto_Detailing	D	43.090224	-75.212177
Western_Union	C	43.092403	-75.220508
Utica_Bread	E	43.103231	-75.227897
Sickenberger_Lane	B	43.104281	-75.242128
Mohawk_Valley_Psychiatric_Center_For_Children_&_Youth	A	43.102996	-75.260128
Sunglass_Hut	A	43.128559	-75.227305
Salon_One	B	43.095978	-75.240804
Pleeter_Restaurant_Hoods_Venti	B	43.104419	-75.230775
Bargain_Price_Auto_Glass	D	43.101172	-75.232523
Delmedico_Spinal_Health_&_Wellness_Center	A	43.076077	-75.281277
Mid_York_Library_System	B	43.09484	-75.256099
Peter_G_Carchedi_Clu	C	43.085902	-75.262087
Full_of_Beans_Coffee_Company	B	43.085023	-75.235561
Giovannone_Frank_DDS	A	43.098405	-75.237932
Martin_Luther_King_Jr_Elementary_School	A	43.0911	-75.234876
Meraki_Nails_By_Angela	B	43.102538	-75.221507
DHL	C	43.116912	-75.211493
Commercial_Travelers_Mutual_Insurance	C	43.104077	-75.227497
Cavo_Builders'_Supplies	C	43.089527	-75.210899
Liberty_Coins_&_Jewelry	C	43.093497	-75.214305
Cellular_Sales	C	43.126604	-75.2262
M&T_Bank	C	43.100057	-75.232963
Lukins_Brick_Oven_Pizza	B	43.104013	-75.242766
Finger_Bullet	B	43.091504	-75.259515
Cafe_Domenico	B	43.086101	-75.261734
Dari_Del_Dairy	C	43.092157	-75.196873
M&T_Bank	C	43.116937	-75.210007
72_Tavern_&_Grill	B	43.105246	-75.234006
Burrito_Jonz	B	43.08509	-75.28036
Santisukha_Vihara	A	43.096535	-75.231135
North_Utica_Shopping_Center	C	43.114169	-75.208302
Mohawk_Valley_Community_Action_Agency_Incorporated_Head_S	C	43.096631	-75.219957
Affiliated	C	43.124838	-75.234274
Mohawk_Valley_Winery	D	43.103833	-75.243245
Salvation_Army_Thrift_Store	C	43.103492	-75.235627
