occupation	latitude	longitude	zipcode
Top_Dog_Grooming	B	43.073582	-75.321534	13413

Schilling_George_J_Md_Pc	A	43.014393	-75.03744	13357

Sunoco	C	43.240521	-75.438101	13440

Wella's_Kitchen	B	43.023939	-74.984925	13350

Wadas_Eye_Group	A	43.027565	-74.97955	13350

Delta_Lake_State_Park	B	43.289278	-75.418601	13440

Herkimer_Diamond_KOA	E	43.127733	-74.975608	13350

Adirondack_Food_and_Fuel	C	43.038833	-75.086685	13340

LL_Flooring	C	43.090202	-75.316717	13413

Marcy_Correctional_Facility	A	43.162703	-75.311158	13403

Dream_City_Mattress	C	43.022895	-74.992599	13350

De_Paredes_Jaime_G_DDS	A	43.022381	-74.982215	13350

Beauty_Nails_&_Spa	B	43.084032	-75.32755	13413

Utica_Mutual_Insurance	C	43.076989	-75.304315	13413

Dunkin'	B	43.081906	-75.321971	13413

Runway_Hair_Salon	B	43.07754	-75.293514	13413

Suzuki	C	43.231241	-75.497164	13440

Cafe_Florentine	B	43.091653	-75.31543	13413

Boil_Shack	B	43.079035	-75.316624	13413

Hipstir_Cafe	B	43.09424	-75.652656	13421

Marcy_Driving_Range_&_Miniature_Golf	B	43.137643	-75.265955	13403

Fastrac	C	43.13311	-75.256333	13403

Jackson_Hewitt_Tax_Service	A	43.078518	-75.644798	13421

Now_Playing_Boutique	C	43.136067	-75.262675	13403

Stewart's_Shops	C	43.068319	-75.347543	13323

The_War_Club	B	43.248798	-75.382913	13440

Mohawk_Valley_Christian_Education_Foundation_Incorporated	B	43.060469	-75.2558	13413

Karaz_Shoes	C	43.077161	-75.296034	13413

Christopher_&_Banks	C	43.0903	-75.315394	13413

Berkshire_Bank	C	43.211085	-75.457704	13440

Nails_By_Yan	B	43.073155	-75.289886	13413

Soul_Bowl	B	43.050123	-75.378767	13323

The_Medicine_Shoppe	A	43.015214	-75.035221	13357

New_Life_Assembly_Of_God	A	43.090786	-75.628411	13421

Applebee's	B	43.022293	-74.994606	13350

Rome_Cemetery	B	43.240621	-75.470172	13440

AT&T	C	43.07907	-75.6464	13421

Tanner_Insurance_Agency_Inc	C	43.07557	-75.690893	13421

Bassin_&_Hession_Orthodontics	A	43.085357	-75.668566	13421

Victoria's_Secret	C	43.073324	-75.288588	13413

Al's_Cycle_Parts	C	43.207066	-75.449087	13440

First_Assembly_Of_God_Of_Utica_New_York	A	43.138022	-75.263903	13403

Kelley's_Lip_Smackin'_Best	C	43.016582	-75.035237	13357

Brooklyn_pickes	B	43.077417	-75.64238	13421

America's_Best_Contacts_&_Eyeglasses	A	43.093091	-75.309538	13413

Howard_Cemetery	B	43.020332	-75.080447	13340

New_Hartford_Shoes_&_Service	C	43.074239	-75.287616	13413

Visionworks	A	43.078528	-75.688982	13421

Saint_Mary's_Roman_Catholic_Church	A	43.107535	-75.285031	13417

Stewart's_Shops	C	43.03714	-75.069248	13340

Original_Herkimer_County_Cheese	C	42.998822	-75.05035	13357

Brian_Alessi_MD	A	43.245997	-75.453793	13440

Ballister's_Automotive	D	43.211278	-75.348914	13440

Gigliotti's_Utica_Driving_School	A	43.035639	-75.26685	13456

Village_Crossing_On_Green	C	43.048736	-75.37896	13323

Edward_Jones	A	43.095273	-75.653674	13421

Open_MRI_of_Mohawk_Valley	A	43.089859	-75.311962	13413

Fisher_Auto_Parts	C	43.216902	-75.4738	13440

City_of_Oneida	B	43.099923	-75.655774	13421

Jamo's_Restaurant_&_Bar	B	43.023978	-74.986292	13350

Massi_Peter_S_DDS	A	43.082402	-75.296095	13413

Harbor_Freight_Tools	C	43.078278	-75.689587	13421

7-Eleven	C	43.052912	-75.273102	13413

Northwestern_Mutual	C	43.074907	-75.289072	13413

MVHS_Adult_Day_Health_Care	B	43.098151	-75.279098	13413

Candella's_Greenhouses_&_Vegetable_Stand	C	43.137951	-75.274932	13403

ALDI	C	43.211629	-75.464555	13440

Revamp_Fitness	B	43.02608	-74.984991	13350

The_Village_Tailor_Shop	D	43.074228	-75.287627	13413

Oneida_Commons_Vendor_Mall	C	43.094634	-75.64984	13421

Nunno_Auto_Sales	C	43.133158	-75.254706	13403

Farm_House_Restaurant	B	43.015185	-75.035726	13357

Hoag_Cemetery	B	43.182781	-75.492433	13440

Olcott_Hotel	B	43.093242	-75.659181	13421

Steven_M_Williams_M_D	A	43.077597	-75.338166	13413

Mark_Lundquist_Counseling	A	43.023945	-74.975882	13350

Trio's_Pizza	B	43.108649	-75.287894	13417

First_American_Mortgage_Trust	C	43.014437	-75.038134	13357

Soul_Bowl	B	43.096087	-75.305269	13413

Custymize	C	43.040363	-75.072782	13340

Threeper_Arms_Supply	C	43.221349	-75.455342	13440

Moser_Excavating_&_Fencing	D	43.100233	-75.293547	13417

Flowers_By_Suzanne	C	43.034298	-74.960722	13350

Hannaford_Supermarkets	C	43.053892	-75.277431	13413

May_Stephen_D_Dr_Dntst	A	43.015231	-75.03639	13357

CVS	A	43.044088	-74.856366	13365

Angelichio_Anthony_V_DMD	A	43.013257	-75.039821	13357

Tc_Photography	A	43.051738	-75.187405	13340

Happy_Hounds_Doggie_Daycare_and_Boarding	B	43.085971	-75.667664	13421

Doggone_Lovely	B	43.205768	-75.450236	13440

King_Pin_Lanes	B	43.205554	-75.41335	13440

United_States_Postal_Service_(USPS)	C	43.094281	-75.652955	13421

Creekside_Cafe	B	43.050912	-75.272069	13413

Mvcaa_Inc_Sauquoit_Head_Start	A	42.9903	-75.257367	13456

Hello_Gorgeous_hair_salon	B	43.097164	-75.300929	13417

Bladek's_Body_Shop	D	42.984902	-74.859063	13365

Dick's_Wheel_Shop	D	43.020905	-74.990057	13350

Betsy_Ross_Nursing_Facility	B	43.233473	-75.466034	13440

Village_Pizza	B	43.073025	-75.288079	13413

The_Shops_At_25_West	C	43.040466	-74.859992	13365

Crestwood_Golf_Club	B	43.161886	-75.296307	13403

Michael_Tucciarone_DC_Associated_Chiropractic	A	43.040684	-75.391287	13323

Cliff's_Local_Market	C	43.015773	-75.034786	13357

Lake_Delta_Yacht_Club	B	43.289188	-75.465765	13440

Gannon_Associates_Insurance_Oneida	C	43.093197	-75.6511	13421

Forward_Motion_Motorworks	D	43.272126	-75.467485	13440

Radiology_Association_of_Oneida	A	43.07897	-75.652718	13421

Strong_Burns_and_Sprock_Funeral_Home	B	43.237066	-75.456055	13440

R_&_R_Kennels	B	43.210603	-75.588807	13440

Adirondack_Bank	C	43.043559	-74.859508	13365

Rome_Memorial_Hospital	A	43.231944	-75.440861	13440

Gold_Medal_Packing	C	43.191761	-75.342892	13440

Glenwood_Cemetery	B	43.067417	-75.641504	13421

Lennon's_W_B_Wilcox	C	43.086053	-75.316972	13413

Our_Lady_of_the_Rosary_Church	A	43.094797	-75.280405	13413

Reindance_Stables_Inc	B	43.025587	-75.207375	13456

Clinton_Wine_&_Spirits	C	43.043026	-75.38614	13323

Lott_Ralph_W_OD	A	43.093093	-75.279197	13413

Label_Shopper	C	43.23153	-75.437149	13440

Dollar_General	C	43.302342	-75.473904	13440

Best_Buy	C	43.092834	-75.30881	13413

T_Mobile_Authorized_Retailer	C	43.210416	-75.460233	13440

Chico's	C	43.090112	-75.31657	13413

Avenue	C	43.089898	-75.312143	13413

Scalise_Tae_Kwon_DO	A	43.097305	-75.296859	13417

Debbie's_Electrolysis_Studio	B	43.074438	-75.297464	13413

Salvation_Barbeque	B	43.096612	-75.650957	13421

Cliff's_Local_Market	C	43.08025	-75.391617	13323

Fink_Van_Valkenburgh_Cemetery	B	43.040196	-74.865558	13365

Davidson_Collision_Center_of_Rome	D	43.23202	-75.496128	13440

Skinner_Sales	D	43.027173	-74.946174	13350

Brookdale_Senior_Living	B	43.038632	-75.359084	13323

Allstate_Insurance	C	43.216022	-75.472106	13440

Forever_Leather	C	43.077211	-75.294355	13413

Ilion_Free_Public_Library	B	43.013817	-75.039798	13357

Unique_eCigs	C	43.082127	-75.322954	13413

Auto_Salvage_Technologies	E	43.049682	-74.988315	13350

Grosack_Marc_DPM	A	43.091718	-75.6503	13421

Mohawk_Valley_Retina_Plcc	A	43.072944	-75.292155	13413

Best_Pizza_In_Town	B	43.219411	-75.461694	13440

Bulinski_Trucking_Automotvie_Repair	D	43.050086	-75.085309	13340

Herkimer_County_DMV_Office	A	43.028871	-74.988189	13350

Elmer_Hill_Veterinary_Clinic	A	43.28372	-75.471527	13440

Rose_Cemetery	B	43.081203	-75.098769	13340

China_Gourmet	B	43.016857	-75.034943	13357

Legends_Sports_Bar_&_Eatery	B	43.214834	-75.469403	13440

Bellinger_Park	B	43.026137	-74.99758	13350

Lakeview_Restaurant_and_Bar	B	43.059745	-75.608801	13421

Smokers_Choice	C	43.231658	-75.437048	13440

Cuts_And_Colors_My_Stock	A	43.02139	-74.990508	13350

Nice_N_Easy	C	43.096431	-75.623367	13421

VIP_Nails	B	43.089826	-75.312072	13413

Village_Tennis_Courts	B	43.023251	-74.996492	13350

Camroden_Golf_Course	B	43.259017	-75.362125	13440

Jet_Photo_Service	A	43.027755	-74.979335	13350

Hummel's_Office_Plus	C	43.025447	-74.986796	13350

Haritatos_J_J_DDS	A	43.216901	-75.458389	13440

Aspen_Dental	A	43.210662	-75.457997	13440

Archer's_Auto_Body	D	42.946567	-75.047002	13357

BHA_Rabbitry	B	43.002029	-75.193685	13340

Marcy_Veterinary_Clinic	A	43.140022	-75.277036	13403

American_Job_Centers	B	43.027765	-74.988998	13350

Enterprise_Rent-A-Car	C	43.026023	-74.985359	13350

M&T_Bank	C	43.077332	-75.292579	13413

Central_Oneida_County_Volunteer_Ambulance_Corps	B	43.093376	-75.39131	13323

H&R_Block	A	43.080005	-75.643126	13421

Hannoush_Jewelers	C	43.082754	-75.315607	13413

The_coffee_forks	B	43.094593	-75.651927	13421

Moza_Shuban_K_MD_PC	A	43.231133	-75.442308	13440

The_Hair_Connection	B	43.083887	-75.34095	13323

A'Peel_Day_Spa	B	43.047664	-75.378092	13323

Allstate_Insurance	C	43.040434	-75.390852	13323

iFix_Enterprises	C	43.078371	-75.647813	13421

Effleurage_Day_Spa	B	43.07443	-75.288696	13413

Rome_Savings_Bank	C	43.228548	-75.491091	13440

Family_Dollar_Stores	C	43.23053	-75.437906	13440

Clinton_Collision	C	43.053827	-75.376145	13323

Suzuki	C	42.999283	-75.04926	13357

Columbia_Litchfield_Fire_District	A	42.931057	-75.113866	13357

Big_Lots_Stores	C	43.225327	-75.48423	13440

Talbots	C	43.080438	-75.321041	13413

Pilates_Contrology_Studio	B	43.044276	-74.857328	13365

MasterCuts	B	43.073369	-75.288596	13413

Fieldstone_Collectibles_&_Gifts	C	43.0855	-75.354162	13323

Gurley_&_Fleet	D	43.175321	-75.420624	13440

Dollar_Tree	C	43.053201	-75.277099	13413

Western_Union	C	43.052931	-75.273075	13413

Hannaford_Food_And_Drug	A	43.029664	-74.98127	13350

State_Farm	C	43.076627	-75.688146	13421

Wild_Things	C	43.096943	-75.29758	13417

Weight_Watchers	B	43.074499	-75.288482	13413

Collins_Insurance_Brokerage	C	43.09963	-75.281195	13413

Kings_Buffet	B	43.225052	-75.483914	13440

Delta_Lake_Bible_Conference_Center_Inc	A	43.294555	-75.461074	13440

Amtrak	E	43.199547	-75.449886	13440

Mobil	C	43.017167	-74.803621	13365

Burger_King	B	43.024817	-74.986407	13350

Arby's	B	43.079084	-75.648315	13421

Tasha's_Techniques	B	43.052432	-75.273051	13413

Sleepy_Hollow_Golf_Course	B	43.279125	-75.497321	13440

Cooperative_Magnetic_Imaging	A	43.015891	-75.037938	13357

AutoZone	C	43.220354	-75.447971	13440

Little_Falls_Historical_Museum	B	43.042777	-74.859143	13365

Star_Sports_Sangertown_Mall	C	43.081708	-75.315728	13413

The_Knight_Spot	B	43.035155	-75.066767	13340

Evolve_Massage_and_Wellness	A	43.055525	-75.279475	13413

Dollar_Tree	C	43.086633	-75.31699	13413

Fratello's_Pizzeria	B	43.037506	-75.069516	13340

Body_Siense	B	43.042571	-74.861629	13365

Pier_1_Imports	C	43.095561	-75.307109	13413

Culture_Cafe	B	43.097465	-75.653045	13421

Rose_Evans_MetLife_Auto_&amp_Home	C	43.072998	-75.343453	13413

Skaters_Edge	C	43.0724	-75.286284	13413

LaRoma's_Pizzeria_&_Restaurant	B	43.214442	-75.446657	13440

Killino's_Riverside_Diner	B	43.130607	-75.247708	13403

Woodforest_National_Bank	C	43.237288	-75.501874	13440

CNY_Hobby	C	43.023333	-74.983028	13350

Smart_Fitness_Physical_Therapy	A	43.083918	-75.293641	13413

Journeys_Shoes	C	43.082623	-75.315725	13413

St_John's_The_Evangelists_Church	A	43.067009	-75.285723	13413

Marriott_Russell_G_Dr	A	43.218208	-75.459618	13440

Sammy's_Cafe	B	43.073502	-75.28798	13413

First_Baptist_Church	A	43.043017	-74.856922	13365

Clinton_Blooms	C	43.093165	-75.651026	13421

Cellular_Sales	C	43.077101	-75.689496	13421

Western_Union	C	43.097792	-75.303486	13413

First_United_Methodist_Church	A	43.216283	-75.45771	13440

Best_Food_Chinese_and_Pizza	B	43.208974	-75.45322	13440

Redeemer_Church	A	43.212567	-75.459139	13440

Five_Guys	B	43.096143	-75.305021	13413

H&R_Block	A	43.088233	-75.311152	13413

Cpj's_Restaurant_&_Pub	B	43.221416	-75.423409	13440

Compufix	C	43.019246	-75.038366	13357

Western_Union	C	43.260698	-75.461509	13440

Salons_at_154	B	43.110944	-75.286182	13417

Butler_Sheehan_Academy_of_Irish_Dance	A	43.236118	-75.446884	13440

Mohawk_Valley_1st_Choice_Realty	C	43.073145	-75.289877	13413

Grande's_Pizzeria	B	43.005151	-75.256951	13456

H&R_Block	A	43.028159	-74.977923	13350

Oneida_Healthcare	B	43.076837	-75.654598	13421

Megamotion_Physical_Therapy_Clinic	A	43.035547	-75.392251	13323

Palumbo_Paul_DO	A	43.091523	-75.276715	13413

AutoZone	C	43.082909	-75.322659	13413

Sunoco	C	43.052847	-75.273182	13413

T_Mobile_Authorized_Retailer	C	43.081835	-75.321968	13413

Supercuts	B	43.231703	-75.436971	13440

Nails_by_Shelley	B	43.214874	-75.457332	13440

Care_Net_Pregnancy_Center_of_Cny	A	43.023736	-74.991872	13350

Bailey's_Home_Health_Services_&_Alternative_Pain_Solutions	B	43.062419	-75.602907	13421

Greenie's_Market	C	43.016672	-75.038465	13357

Runnings	C	43.232345	-75.492691	13440

Dollar_General	C	43.025451	-74.984762	13350

Oxford_Medical_Imaging_PC	A	43.019841	-75.045378	13357

Tony's_Coins	C	43.021097	-75.060873	13357

Insure_One_Insurance_Agency	C	43.044346	-74.85964	13365

East_Schuyler_Miller_Cemetery	B	43.01449	-75.039568	13340

Pietrka_Park	B	43.097172	-75.299549	13417

LOFT	C	43.090338	-75.316722	13413

Bellamy_Elementary_School	A	43.206367	-75.421648	13440

Fort_Stanwix_Park	B	43.217001	-75.453681	13440

Haupt_Cemetery	B	42.975865	-74.825902	13365

Holy_Trinity_Lutheran_Church	A	43.046002	-74.860104	13365

Spectrum_Paint_&_Decorating_Center	C	43.223209	-75.483869	13440

Bethania_Cemetery	B	43.191575	-75.263925	13403

Weight_Watchers	B	43.22081	-75.446617	13440

Wakefield_Furniture	C	43.026357	-74.986297	13350

Visionworks	A	43.228419	-75.492705	13440

Freedom_Plaza	C	43.210116	-75.462345	13440

Clintonblooms	C	43.048403	-75.38002	13323

Fastrac	C	43.229569	-75.492535	13440

G_&_S_Auto	D	43.040143	-75.072333	13340

John_E_Joy_Elementary_School	A	43.258135	-75.460202	13440

Iron_Kettle_Coffee_Shoppe	C	43.209337	-75.45394	13440

Sweet_Temptations	B	43.097225	-75.65281	13421

Fox_Powersports	C	43.027433	-74.946038	13350

Citizens_Bank	C	43.027875	-74.990152	13350

Valley_Health_Services_Inc	B	43.025591	-74.999203	13350

Backbreak_Acres_Outdoor_Power_Equipment	C	43.009938	-75.01887	13357

Max_L_Cowen's_Student_Stores	C	43.135114	-75.262599	13403

Fashion_Nails	B	43.209875	-75.453576	13440

Russell_Park	B	43.006123	-75.033038	13357

Polaris	C	43.284679	-75.46962	13440

Utica_Rome_Korean_Church	A	43.235933	-75.45477	13440

M&T_Bank	C	43.02856	-74.989243	13350

Van_Allen_Nursing_Home	B	43.054444	-74.851685	13365

CITGO	C	43.214225	-75.464014	13440

Burger_King	B	43.017047	-74.802798	13365

Rd's_Vintage_And_Variety	C	43.232094	-75.442403	13440

GameStop	C	43.076181	-75.641646	13421

Liberty_Auto	D	43.075348	-75.701371	13421

Ed's_Pizza_Place	B	43.043748	-74.858926	13365

Velvet_Dog	B	43.02475	-74.984954	13350

Business_Machines_&_Equipment	C	43.085301	-75.330953	13413

Imex_Furniture	C	43.09907	-75.302136	13417

Mark's_Auto_Sales	C	43.282402	-75.470785	13440

Friendship_Baptist_Church	A	43.217584	-75.558983	13440

Gary_Casabs'deli_Cafe	C	43.073539	-75.288254	13413

Mattress_Express_New_Hartford	C	43.086381	-75.316789	13413

Eastern_Park	B	43.044996	-74.85271	13365

Erie_Boulevard_Hydropower_LP_Beardslee_Plant	E	43.017047	-74.802652	13365

Custom_Auto_Cleaning	D	43.020415	-74.986746	13350

The_Home_Depot	C	43.089991	-75.280469	13413

Day_&amp_Read_Insurance_Services	C	43.028118	-74.978021	13350

Oneida_Health_Rehabilitation_And_Extended_Care	B	43.076882	-75.65459	13421

Kimchi_Furji_Sushi	B	43.076502	-75.64405	13421

Charlie's_Pizza	B	43.053369	-75.277206	13413

Oneida_Herkimer_Madison_Boces	A	43.093781	-75.321368	13413

National_Gold_Buyers_&_Pawn	A	43.213373	-75.465264	13440

Maple_Crest_Golf_Course_&_Range	B	43.034393	-75.070495	13340

White_Rose_Bakery	E	43.043611	-74.859334	13365

Circle_K	C	43.283105	-75.471446	13440

Marcy_Elementary_School	A	43.137962	-75.260153	13403

Planned_Parenthood	A	43.077508	-75.651637	13421

Fisher_Auto_Parts	C	43.04976	-75.377781	13323

Ilion_Village_Police_Department_Ilion_New_York	A	43.014314	-75.037379	13357

First_United_Methodist_Church_Oneida	A	43.087666	-75.648097	13421

Rome_Auto_Electric	D	43.214038	-75.465196	13440

Slocum_Dickson_Medical_Group	A	43.015867	-75.037945	13357

Schulman_&_Rozanski_Dentistry	A	43.07229	-75.289165	13413

NBT_Bank	C	43.079249	-75.642652	13421

Krenichyn's_Plumbing_&_Heating	A	43.044383	-74.986634	13350

Herkimer_Eyecare_Center	A	43.027531	-74.979534	13350

Price_Chopper_New_England	C	43.043567	-74.857684	13365

Papa_Rick's_Snack_Shack	B	43.239905	-75.438083	13440

Monai_Interiors	D	43.091621	-75.315673	13413

Rome_Memorial_Hospital_Inc_R_H_C_F	B	43.228747	-75.442629	13440

Indian_Castle_Church_Cemetery	B	43.002698	-74.777583	13365

Mavis_Discount_Tire	D	43.078369	-75.648129	13421

Pecoraro_Dairy_Prods	C	43.219045	-75.478843	13440

Agway	C	43.050316	-75.379381	13323

Bodily_Charm_Tattoo_&_Piercing	B	43.077275	-75.293685	13413

Plato's_Closet	C	43.083798	-75.327609	13413

Shaklee_Wellness_Concepts	A	43.036682	-75.101213	13340

St_Mary's_Roman_Catholic_Church_Of_Clinton	A	43.045418	-75.380777	13323

Gentlemen's_Corner_Barber_Shop	B	43.077239	-75.294295	13413

First_United_Methodist_Church	A	43.025481	-74.988828	13350

Jerusalem_Hill_Cemetery	B	43.008473	-75.037486	13357

Hurd_Douglas_H_DDS	A	43.058479	-75.310663	13413

New_Hartford_Barber_Shop	B	43.07416	-75.287759	13413

Bremer_Hearing_&amp_Audiology	B	43.2202	-75.424109	13440

Black_River_Ale_House	B	43.233935	-75.437933	13440

ULTA_Beauty	A	43.093275	-75.309435	13413

LabCorp	A	43.23111	-75.442292	13440

Madison_House_Restaurant	B	43.096133	-75.650892	13421

ScreenSavers	D	43.08261	-75.323993	13413

V_Ja's_Lounge	B	43.034747	-75.065588	13340

Oneida_American_Legion	C	43.103148	-75.659048	13421

Crescent_Field	B	43.219611	-75.436609	13440

Dean_Grosack_Nancy_DPM	A	43.091672	-75.650343	13421

Moe's_Southwest_Grill	B	43.235792	-75.436704	13440

Enea_Family_Funeral_Home	B	43.026596	-75.056718	13357

My_Favorite_Muffin_&_Bagel_Cafe	B	43.13779	-75.276776	13403

Rome_General_Lumber	C	43.214285	-75.470671	13440

SavOn	C	43.093996	-75.651547	13421

Poonati_Apparao_Dr	A	43.217076	-75.455215	13440

Skenandoa_Club	A	43.070782	-75.415878	13323

The_Vitamin_Shoppe	A	43.086406	-75.314266	13413

Oasis	B	43.078464	-75.114383	13340

Sally_Beauty_Supply	A	43.090437	-75.316743	13413

CITGO	C	43.027844	-74.978894	13350

Dollar_General	C	43.04933	-75.380178	13323

Beauty_Plus_Salon	B	43.081601	-75.315308	13413

Western_Union	C	43.229526	-75.439496	13440

Westmoreland_Antique_Center	C	43.127059	-75.409734	13440

Central_Towing_and_Repair	C	43.034117	-74.989432	13350

Save-A-Lot	C	43.023288	-74.989241	13350

Star_of_India	B	43.048344	-75.379268	13323

Brad_Bennett_PHD	A	43.08102	-75.400205	13323

Ampersand_Mount_Ida_Hydro_Forestport_Plant	E	43.442492	-75.215962	13421

The_Dessert_Booth	E	43.050128	-75.378774	13323

Fall_Beverage	C	43.106672	-75.291896	13417

Mohawk_Vly_Community_Action_Agncy_Inc_Hd_Strt_Ctrs	C	43.013325	-75.037424	13357

Campbell_Dean_Funeral_Home_Inc	B	43.091942	-75.650513	13421

Melfe's_Shoe_Service	C	43.016796	-75.034244	13357

At_Home	C	43.089255	-75.314092	13413

Mohawk_Acres_Plaza	C	43.231871	-75.436569	13440

Moreland_Park	B	43.047009	-74.845558	13365

Veils_of_The_Valley	A	43.217336	-75.475242	13440

Balloons_And_Blossoms	C	43.093161	-75.651034	13421

Fort_Stanwix_National_Monument	B	43.210878	-75.454959	13440

CrossFit	B	43.052926	-75.277025	13413

Price_Chopper_New_England	C	43.085984	-75.319631	13413

Charlie's_Place	B	43.084194	-75.344713	13323

Rome_City_Police_Department_Rome_New_York	A	43.213618	-75.45557	13440

Knotty_Pine_Diner	B	43.07576	-75.704796	13421

Mohawk_Valley_Cat_Care	A	43.011766	-75.39737	13323

Dollar_General	C	43.042265	-74.858614	13365

Charles_D_Stahl_Sales_&_Service	C	43.02788	-74.770014	13365

All_Saints_Parish_Polish_National_Catholic_Church	A	43.239158	-75.450969	13440

St_Patrick's_School	A	43.089727	-75.647413	13421

Standard_Poodles_For_Sale	B	43.227944	-75.346035	13440

Redco_Foods	B	43.03756	-74.865083	13365

Just_Breathe_Yoga_Studio	B	43.238946	-75.43699	13440

Clinton_Pet_Vet	A	43.039885	-75.391537	13323

Erie_Insurance	C	43.063635	-75.260564	13413

Auntie_Anne's	B	43.017059	-74.803092	13365

TQ_Nails_&_Spa	B	43.086368	-75.316884	13413

Dunkin'	B	43.0147	-75.036779	13357

The_Cafe_At_Stone_Mill	B	43.040465	-74.859229	13365

Shoe_Department_1378	C	43.235705	-75.501062	13440

New_Hartford_Family_YMCA	B	43.070966	-75.286438	13413

CITGO	C	43.098352	-75.301442	13417

Utica_Gas_&_Electric_Employees_Federal_Credit_Un	C	43.082238	-75.29702	13413

Mohawk_Valley_Nursing_Home	B	43.019057	-75.047442	13357

St_Mary's_Church	A	43.044973	-75.380257	13323

Sentinel_Security_&_Communications	C	43.051218	-75.273685	13413

Peterpaul_Recreation_Park	B	43.227464	-75.517223	13440

Lombardi_Chiropractic	A	43.075573	-75.690896	13421

China_Sea_Restaurant	B	43.048886	-75.379198	13323

Marcy_Highway_Department	C	43.185465	-75.259518	13403

Sleep_Number	C	43.095398	-75.305934	13413

Herkimer_Homestead_Cemetery	B	43.025818	-74.986061	13365

Avenue_Plaza	C	43.089768	-75.312281	13413

Heffron's_General_Contracting	C	43.076008	-75.691184	13421

Celeste_Food_Incorporated	C	43.05617	-75.366831	13323

Oriskany_Battlefield_State_Historic_Site	B	43.17781	-75.3656	13440

Paca_Gardens	C	43.042571	-74.860737	13365

Bob's_Guitar_&_Piano_Instruction	C	43.073154	-75.28919	13413

Wilbert_Mitchell_W_DDS	A	43.217552	-75.44805	13440

Majestic_Fireworks	C	43.048044	-75.379952	13323

Rome_Savings_Bank	C	43.283889	-75.470055	13440

Choo_Choo_Charlie's	B	43.093092	-75.650957	13421

Auntie_Anne's	B	43.073346	-75.288624	13413

Bath_&_Body_Works	A	43.082027	-75.315121	13413

Marcy_Federal_Credit_Union	C	43.157963	-75.301133	13403

King's_Performance	C	43.019498	-74.871928	13365

Living_Faith_Bible_Church	A	43.004164	-75.259458	13456

Cedarville_Cemetery	B	42.975985	-75.071455	13357

Walmart_Distribution	E	43.174061	-75.314241	13403

In_Bloom_Yoga	B	43.073722	-75.28631	13413

Utica_Drug_Rehab_Centers	A	43.231571	-75.437343	13440

Miner_Realty_and_Property_Management	C	43.213464	-75.463856	13440

Miller's_Automotive	D	43.012804	-75.029166	13357

NBT_Bank	C	43.028878	-74.97994	13350

Cricket_Wireless	C	43.230808	-75.437825	13440

Shear_Perfection	B	43.05144	-74.947288	13350

The_Kellogg_Agency	C	43.082164	-75.322966	13413

Super_Walmart_Plaza	C	43.020997	-74.997329	13350

Nava_Browtique	B	43.097267	-75.65019	13421

M&T_Bank	C	43.076431	-75.103216	13340

Blocks_and_Rocks	C	43.106805	-75.664864	13421

Hamil_Cemetery	B	43.183937	-75.488889	13440

Dunkin'	B	43.080351	-75.3915	13323

Frank_Mazzaferro_DDS	A	43.219545	-75.455266	13440

Wilcove_Rockford_Auto_Glass	D	43.21193	-75.462855	13440

Homewood_Suites_by_Hilton	B	43.091266	-75.330182	13323

Hapanowicz_Bros_Meat_Market	C	43.094534	-75.298739	13417

Stewart's_Shops	C	43.095328	-75.318128	13413

Words_of_Life_Promotions	C	43.208719	-75.474855	13440

Brick_House_Acres	C	43.000732	-75.192752	13340

Hess	C	43.235461	-75.43583	13440

KeyBank	C	43.055268	-75.277467	13413

Immanuel_Baptist_Church	A	43.226267	-75.473996	13440

Counseling_Center_of_New_Hartford	A	43.030195	-74.990037	13350

Okey_Dokey's_Restaurant	B	43.218915	-75.335571	13440

Pizza_Hut	B	43.22377	-75.485139	13440

Helen_Sarandera_Physical_Therapy	A	43.083936	-75.342153	13323

Morehouse_Appliances	E	43.083393	-75.327664	13413

Tracy_Lynn_Fashions	C	43.043698	-74.859141	13365

Sugarbeets	B	43.214385	-75.465683	13440

Showcase_Antiques	C	43.041314	-74.858357	13365

K_D_K_Sports	C	43.231261	-75.497157	13440

Sorrento's_Pizzeria_&_Restaurant	B	43.017314	-75.033646	13357

Finish_Line_Automotive	C	43.204665	-75.456948	13440

New_York_Mills_Fire_Department_Rescue	A	43.10351	-75.292407	13417

NextGen_Car_Care_Centers	D	43.079004	-75.372231	13323

Pezdek's_Auto_Repr_&_Maintenance_Center	C	43.100635	-75.295273	13417

New_York_Mills_Elementary_School	A	43.092407	-75.291209	13417

Paris_Hill_Fire_Department	A	43.000993	-75.31561	13456

Saint_Paul's_Episcopal_Cemetery	B	43.002444	-75.314755	13456

CrossFit	B	43.131139	-75.249355	13403

Herkimer_County_Probation_Department	C	43.028806	-74.988072	13350

Roller's_Collision	D	43.081643	-75.295711	13413

D_H_Burrell_Overlook_Mansion	B	43.048817	-74.859762	13365

Sitrin_Child_Day_Care_Facility_Inc	A	43.056226	-75.229408	13413

Social_Security_Administration	C	43.212615	-75.461567	13440

Veterans_Memorial_Park	B	43.041404	-74.840739	13365

Religious_Education_Ofc	A	43.066264	-75.285835	13413

Jones_Family_Chiropractic	A	43.079247	-75.317013	13413

AT&T	C	43.228392	-75.492667	13440

Sauquoit_Valley_Cemetery	B	42.986352	-75.245736	13456

Schilling_George_J_Md_Pc	A	43.054002	-75.279525	13413

Fiberdyne_Labs	C	43.040603	-75.083185	13340

Quest_Diagnostics	A	43.078239	-75.69169	13421

Tallman's_Express_Lube_New_Hartford	D	43.083147	-75.326395	13413

Allen_Park	B	43.082069	-75.646746	13421

Diane_J_Wooldridge_Physical_Therapy	A	43.035574	-75.392224	13323

Mary_Anns_Mother_Design	D	43.026487	-74.986341	13350

Giovanni's_Pizzeria	B	43.049703	-75.377783	13323

Lizzy's_Cupcakery_&_Candies	C	43.078013	-75.294945	13413

Joe's_Pizza_&_Sauce	B	43.094503	-75.643259	13421

Blaze_Pizza	B	43.093778	-75.307517	13413

The_Happen_Inn_Sports_Bar_&_Grill	B	43.043257	-74.859903	13365

Jackson_Hewitt_Tax_Service	A	43.016785	-75.037247	13357

Adirondack_Vapor	C	43.074233	-75.287769	13413

Smooth_Transitions_Laser_Salon	B	43.059204	-75.28687	13413

Every_Single_Restaurant	E	43.077642	-75.643896	13421

Gleasman_Chiropractic	A	43.059173	-75.361784	13323

CITGO	C	43.073479	-75.28681	13413

Costanza_Agency	C	43.039048	-75.071796	13340

Cuomo_Winters_&_Schmidt_CPAs	A	43.0924	-75.65075	13421

Grande's_Pizzeria_&_Restaurant	B	43.220365	-75.425257	13440

Logoz_Custom_T_Shirts	C	43.082598	-75.32402	13413

Rome_Access_Site	B	43.213885	-75.459601	13440

FYE	C	43.082134	-75.316402	13413

Western_Union	C	43.016176	-75.035897	13357

Gem_Boutique	C	43.214409	-75.459946	13440

Engelbert's_Jewelers	C	43.212545	-75.461588	13440

Rail_and_Canal	B	43.199489	-75.449075	13440

Unstoppable_You	A	43.074258	-75.288387	13413

Rome_Income_Tax_Service	A	43.207177	-75.461009	13440

Hampton	B	43.091385	-75.329346	13323

Rome_Pre_Owned_Auto_Sales	C	43.21856	-75.433744	13440

Doggie_Doos	B	43.214784	-75.466455	13440

Mitsuba_Ramen	B	43.093956	-75.307722	13413

Jbf's	B	43.21925	-75.461471	13440

Linda's_Unisex_Salon	B	43.027453	-74.992068	13350

Little_Falls_Middle_School	A	43.059027	-74.872088	13365

Holy_Trinity_Lutheran_Cemetery	B	43.052816	-74.853179	13365

Tony's_Pizzeria	B	43.021245	-74.991999	13350

Pinti_Field	B	43.208779	-75.443052	13440

The_Frigault_Agency	C	43.071828	-75.327641	13413

Green_Garden_Aromatherapy	B	43.204146	-75.433037	13440

The_Beeches_Inn_&_Conference_Center	B	43.244419	-75.454744	13440

Kirk_Automotive	C	43.210731	-75.465294	13440

Hardscrabble_Wind_Power_LLC	E	43.112244	-74.878892	13365

Gary's_Indoor_Garden_Supply	C	43.21197	-75.460662	13440

Wesleyan_Church	A	43.216762	-75.464087	13440

Fatboys_Pizzeria	B	43.21934	-75.461688	13440

Chestnut_Commons_Diagnostic_Medicine	A	43.232078	-75.440567	13440

Bianca_Bussey	B	43.135728	-75.26151	13403

New_York_State	B	43.211945	-75.457252	13440

Varano_Photography	A	43.215375	-75.462111	13440

Cost_Cutters	B	43.079165	-75.645847	13421

New_Hartford_Senior_High_School	A	43.070018	-75.28443	13413

Better_Hearing	B	43.095506	-75.651852	13421

First_Assembly_Of_God	A	43.038872	-74.857778	13365

Insure_One_Insurance_Agency	C	43.137878	-75.277292	13403

East_Dominick_Xtra_Mart	C	43.207799	-75.451938	13440

Gem_Agency	C	43.068072	-75.348254	13323

Lain_Leigh_Dr	A	42.978798	-75.311399	13456

Utica_Spray_&_Chemical	C	43.074645	-75.286807	13413

Wilcove_Rockford_Glass_&_Radiator	C	43.212902	-75.466354	13440

Angel_Touch_Massage_Spa	B	43.082584	-75.32385	13413

Route_A_Auto_Sales	C	43.199044	-75.448664	13440

Crimmins_Automotive_Sales	C	43.030668	-75.062132	13340

H&R_Block	A	43.231278	-75.437321	13440

State_Farm	C	43.073842	-75.293687	13413

Specialty_Auto_Sales	C	43.171243	-75.478387	13440

LabCorp	A	43.084028	-75.32756	13413

Lincoln_Park	B	43.085664	-75.657969	13421

Shopper's_Service	C	43.230915	-75.499161	13440

McDonald's	B	43.225077	-75.485559	13440

Upstate_Cerebral_Palsy	A	42.990339	-75.257646	13456

Cliff's_Local_Market	C	43.240427	-75.437899	13440

Walmart_Pharmacy_10_2444	A	43.078201	-75.691724	13421

Rockin'_Jump	B	43.085409	-75.320907	13413

Sicilian_Delight	B	43.082413	-75.315555	13413

Ace_Hardware	C	43.208728	-75.455947	13440

Sherril_Brook_Town_Park	B	43.067159	-75.321075	13413

Mamie's_Waffles	B	43.205816	-75.443968	13440

Escape_Away_Massage	B	43.097275	-75.296872	13413

Rome_Wesleyan_Church	A	43.216872	-75.460155	13440

Tarson_Pools_and_Spas	C	43.078034	-75.665835	13421

David_P_Jalowiec_Dc	A	43.029906	-74.993943	13350

Mills_Electrical_Supply	C	43.216548	-75.474846	13440

The_Herkimer_Reformed_Church_Inc	A	43.028973	-74.989829	13350

Massaro_&_Son_Florist_&_Greenhouses	C	43.026249	-74.945118	13350

Barr_Samuel_I_DMD	A	43.091814	-75.651472	13421

Alexander's_Ragtime_Cafe	B	43.095314	-75.65224	13421

Western_Union	C	43.231572	-75.437347	13440

The_Falcon_Clinic_for_Health_Wellness_and_Recovery	A	43.054327	-75.279185	13413

Salvatore's	B	43.026482	-74.998289	13350

Myers_Park	B	43.024761	-74.990078	13350

Central_Market_Florist	C	43.232463	-75.436644	13440

Studio	B	43.222073	-75.445075	13440

Central_Paving	D	43.029316	-75.059479	13340

Cignarale's_Tony_Body_Shop	D	43.217642	-75.475515	13440

Ruggierio's_Trattoria	B	43.043959	-74.858489	13365

Berkshire_Bank	C	43.07333	-75.28904	13413

Jimmy_John's	B	43.074971	-75.288234	13413

Maple_Crest_Golf_Course	B	42.995689	-75.099204	13340

Litchfield_Cemetery	B	42.994165	-75.103256	13340

The_Church_of_Jesus_Christ_of_Latter_day_Saints	A	43.064008	-75.62035	13421

Woodberry_Hills_Swim_Club	A	43.060809	-75.295607	13413

Price_Chopper_New_England	C	43.232455	-75.436618	13440

Lafa_Mediterranian_by_Zeinas	B	43.088548	-75.31171	13413

Hannaford_Supermarkets	C	43.23728	-75.453418	13440

Spaghetti_Kettle	B	43.078417	-75.373851	13323

Debbie's_Cafe	B	43.054647	-75.271747	13413

Mohawk_Valley_Health_Care_Center	B	43.01905	-75.047472	13357

Fat_Cat's_Fish_Fry	C	43.025411	-74.981905	13350

Falcone_Auto_Sales	C	43.223306	-75.484685	13440

Casey's_Tavern	B	43.200814	-75.37575	13440

Korner_Kafe	B	43.092677	-75.642656	13421

Travel_Mart	C	43.013789	-74.855803	13365

Wagner_Farms	C	43.180441	-75.501519	13440

Aromatherapy_Spa	B	43.212012	-75.463084	13440

Vogel_Park	B	43.228122	-75.448402	13440

Daniel_E_Burgdorf_DC	A	43.237941	-75.456267	13440

Utica_Safe_Schools_Healthy_Students_Partnership_Inc	A	43.206179	-75.421739	13440

Mandy's_Diner	B	43.026851	-74.94787	13350

Allen_Matthew_C_OD	A	43.078937	-75.652742	13421

Flaming_Wok	B	43.068769	-75.286697	13413

Save-A-Lot	C	43.220045	-75.448113	13440

Foot_Locker	C	43.082129	-75.315747	13413

Play_It_Again_Sports	C	43.094833	-75.304913	13413

Luxury_Nails	B	43.026179	-74.985145	13350

UTICA_MACK_INC	C	43.135833	-75.264235	13403

Clinton_Farmer's_Market	C	43.049252	-75.379353	13323

Paul_Robert	C	43.097227	-75.647818	13421

Thats_Amore'_Pizza_And_Pasta	B	43.026384	-74.998122	13350

Colonial_Park_Rehabilitation_And_Nursing_Center	B	43.217418	-75.43307	13440

North_Columbia_Church_Cemetery	B	42.975975	-75.071469	13357

Advance_Auto_Parts	C	43.085715	-75.319951	13413

Allstate_Insurance	C	43.208816	-75.453022	13440

Christyl_Touch_Massage	B	43.027431	-74.996597	13350

Franco's_Oneida_Pizzeria	B	43.096564	-75.650984	13421

Marshall_Agency	C	42.999667	-75.048981	13357

Hearing_Health	B	43.237285	-75.501872	13440

MassMututal	A	43.082683	-75.329991	13413

Zion_Lutheran_Church_Elca	A	43.093289	-75.275065	13413

Reaves_Dental_Practice	A	43.073516	-75.343462	13413

Ryder	C	43.136282	-75.275766	13403

Nye_Ford	C	43.075714	-75.683979	13421

Moe's_Southwest_Grill	B	43.087187	-75.313051	13413

Byrne_Dairy	C	43.20604	-75.45681	13440

Saint_John_Lutheran_Church	A	43.23533	-75.448943	13440

Kinney_Drugs	A	43.042181	-74.858389	13365

Grand_Colonial_Bed_and_Breakfast	C	43.030847	-74.991757	13350

Academy_of_Performing_and_Creative_Arts	B	43.053247	-75.375912	13323

Budlong_Cemetery	B	43.096924	-75.110123	13340

Oneida_Health_Care_Center	A	43.076483	-75.653567	13421

Renaissance	B	43.043927	-74.858375	13365

Ruth_And_Elmer_Wellin_Museum_Of_Art	B	43.05114	-75.409552	13323

Kirkland_Automotive_Svce	D	43.07742	-75.378188	13323

United_States_Postal_Service_(USPS)	C	43.038577	-75.07062	13340

Bella_Cucina	B	43.083693	-75.322206	13413

Licari_Motor_Car	C	43.030982	-74.982507	13350

Applegate_Day_&_Enea_Family_Funeral_Home	B	43.013007	-75.040043	13357

Our_Lady_Queen_of_the_Apostles_Parish_Center	A	43.034117	-75.073603	13340

Inksanity_Tattoo_Studio	B	43.259498	-75.462324	13440

Blend	B	43.082062	-75.323148	13413

Verizon_Wireless	C	43.023554	-74.98943	13350

Rubinovich_R_Mitchell	A	43.231957	-75.440652	13440

Circle_K_Gas	C	43.0964	-75.623488	13421

Fisher_Auto_Parts	C	43.043856	-74.856825	13365

Oneida_Medical_Imaging_Center	A	43.078973	-75.65275	13421

Associated_Medical_Professionals_Of_Ny	A	43.077919	-75.658411	13421

Mitsuba_Japanese_Cuisine	B	43.230476	-75.438014	13440

Hair_Creaters_&_Tropical_Tanning	B	43.259827	-75.461804	13440

Brian's_Roast_Beef_Deli	B	43.025906	-74.986184	13350

Gualtieri_Rocco_Market	C	43.207137	-75.450543	13440

The_Cellular_Shop_Rome	C	43.228354	-75.492655	13440

St_Mary's_Church	A	43.213567	-75.4589	13440

Jackson_Hewitt_Tax_Service	A	43.220525	-75.447643	13440

Goldmine_Jewelers	C	43.088273	-75.311317	13413

Mike's_Cycle_&_Sport_Shop	C	43.30028	-75.472743	13440

Rome_Fire_Department	A	43.211147	-75.452477	13440

St_Paul's_United_Methodist_Church	A	43.081855	-75.661903	13421

St_Joseph's_Church	A	43.098691	-75.656302	13421

SPI_Cryo	A	43.093794	-75.276856	13413

Associated_Medical_Professionals_Of_Ny	A	43.231315	-75.443285	13440

Designs_By_Shelly	C	43.044629	-74.85667	13365

St_Elizabeths_Medical_Arts	A	43.080405	-75.335353	13413

Marquee_Cinemas	A	43.09262	-75.314319	13413

Adirondack_Chiropractic	A	43.097256	-75.296919	13417

T_P_Brake_&_Muffler	C	43.213591	-75.454281	13440

SmartStyle_Family_Hair_Salons	B	43.02133	-74.997045	13350

A_Vitullo	C	43.077272	-75.293893	13413

Ski_Doo_Bowen's_Power_Sports	C	43.006565	-75.043361	13357

Gary's_Music	C	43.212012	-75.460652	13440

Oneida_Dental_Group	A	43.091014	-75.649884	13421

Dick_s_Sporting_Goods	C	43.0771	-75.643848	13421

Deer_Run_Golf_Facility	B	43.090352	-75.398622	13323

Catherines	C	43.095616	-75.309954	13413

Herkimer_County_Community_College	A	43.033824	-75.007778	13350

Schuss_Ski_&_Bicycle_Shop	C	43.0864	-75.314225	13413

Anken_Stuart_W_Dr_Chiropractor	A	43.24283	-75.455593	13440

Arby's	B	43.213742	-75.451711	13440

Twin_Ponds_Country_Club	C	43.10721	-75.282637	13417

Every_Body_Physical_Therapy	A	43.027416	-74.979875	13350

GreyStone_Animal_Hospital	A	43.22813	-75.492019	13440

Subway	B	43.214282	-75.451223	13440

Taylor_True_Value_Rental	C	43.226298	-75.489478	13440

Reich_Supply_Company_Inc	C	43.074595	-75.286992	13413

Waterfront_Grille	B	43.01707	-74.996357	13350

Western_Union	C	43.209083	-75.458371	13440

First_Baptist_Church	A	43.027228	-74.985864	13350

Hanifins_Tire_&_Service_Center	C	43.078652	-75.640706	13421

Health_Street	A	43.027101	-74.98294	13350

Ben_Jerry's_ice_cream	B	43.082928	-75.315824	13413

Rome_Rescue_Mission	B	43.206644	-75.447562	13440

Ilion_Wine_&_Spirits	C	43.014598	-75.035295	13357

Armory_Hill_Cemetery	B	43.008438	-75.037483	13357

Nicky_Doodles	B	43.075379	-75.297523	13413

Kwik_Fill	C	43.097126	-75.653501	13421

Greg_Ellinger_Collision	D	43.23361	-75.498752	13440

Uvanni_Park	B	43.203866	-75.458624	13440

Oneida_Surgical_Group	A	43.07791	-75.658393	13421

Heron_Creek_Golf_Club's	B	43.071223	-75.378575	13323

Montgomery_Street_Park	B	43.016865	-75.047236	13357

Tony's_Pizzeria_&_Deli	B	43.047878	-75.381206	13323

Boscov's	C	43.082054	-75.317754	13413

Chase	C	43.094829	-75.652248	13421

All_Seasons_Outfitters	C	43.084713	-75.32124	13413

Singh_Talbir_DDS	A	43.015175	-75.03625	13357

Oneida_Community_Cemetery	B	43.061561	-75.611163	13421

De_Angelo_&_Associates	C	43.074742	-75.287193	13413

Kevin_Bedford	B	43.085911	-75.328456	13413

O_really_auto_parts	C	43.218165	-75.477599	13440

Professional_Transmission_&amp_Converter	D	43.132597	-75.255648	13403

Western_Union	C	43.088184	-75.316385	13413

Church_Of_Jesus_Christ_L_D_S	A	43.036147	-74.961372	13350

Taj_Mahal_Indian_Restaurant	B	43.073136	-75.289465	13413

Rite_Aid	A	43.053735	-75.278254	13413

Rogue_and_Royale_Boutique	C	43.048363	-75.379067	13323

Jimmy_Jazz	C	43.08296	-75.314736	13413

Miracle-Ear	A	43.09628	-75.303285	13413

Parker_Cemetery	B	43.000271	-75.14946	13340

Ann_St_Restaurant_&_Deli	B	43.040938	-74.858636	13365

Little_Falls_Hospital	A	43.043799	-74.847665	13365

Famco_Express	C	43.055343	-75.279268	13413

Olivia_Dawn_Hair_Horizons	B	43.29758	-75.4727	13440

Denny's	B	43.018458	-74.99195	13350

Sweet_Frog	B	43.092231	-75.315463	13413

Function_Better	B	43.047561	-74.986166	13350

Family_Home_Care	B	43.220064	-75.458839	13440

Crescent_Field	B	43.219987	-75.437053	13440

Green_Wave_Salvage_&_Recycling	E	43.075315	-75.112154	13340

First_Source_Federal_Credit_Union	C	43.083533	-75.324021	13413

Day_&_Scarafile_Associates	B	43.012219	-75.037916	13357

Supercuts	B	43.087568	-75.314309	13413

New_Hartford_Shopping_Center	C	43.0763	-75.296983	13413

Cafe_Crete	B	43.091006	-75.278232	13413

Burrstone_Inn_Ascend_Hotel_Collection	B	43.094043	-75.284574	13413

Stonehedge_Health_and_Rehabilitation_Center	A	43.221192	-75.450852	13440

Western_Union	C	43.025525	-74.984779	13350

Copper_City_Driving_School	A	43.255659	-75.378671	13440

Walmart_Pharmacy_10_2334	A	43.237324	-75.501832	13440

United_States_Postal_Service_(USPS)	C	43.005426	-75.260381	13456

Old_Navy	C	43.095387	-75.308785	13413

Hotdog_Burger_Cheese	B	43.077608	-75.643891	13421

St_Albans_Anglican_Church_Inc	A	43.030719	-75.395884	13323

Custom_Cut_Salon	B	43.220416	-75.447561	13440

Passport_Health_New_Hartford	A	43.090999	-75.311718	13413

Hannaford_Pharmacy	A	43.077097	-75.643847	13421

Cliff's_Local_Market	C	43.020608	-74.991153	13350

The_Pizza_Shop	B	43.028233	-74.988231	13350

United_States_Postal_Service_(USPS)	C	43.042702	-74.860266	13365

Kay_Jewelers	C	43.082282	-75.315261	13413

Bella_Vista_Restaurant	B	43.000205	-74.878768	13365

Bikes_&_Boards_At_Surf'n_Ski	C	43.08317	-75.321871	13413

Rome_Federal_Credit_Union	C	43.207804	-75.432047	13440

Bonita's_Sandwich_chef	B	43.044145	-74.860434	13365

Volo_Alicia_Rpa_C	A	43.027671	-74.982759	13350

North_Country_Flooring	C	43.017696	-75.040198	13357

Christ_Luth_Church	A	43.044653	-74.851392	13365

Christopher_&_Banks	C	43.090353	-75.315402	13413

New_Hartford_Shopping_Center	C	43.059229	-75.28609	13413

Dick's_Sporting_Goods	C	43.082389	-75.313994	13413

Hot_Spot_Salon_and_Spa	B	43.026116	-74.985591	13350

Burger_King	B	43.080575	-75.318703	13413

Pinz_New_Hartford	B	43.082571	-75.314648	13413

Western_Union	C	43.055208	-75.276567	13413

Ms_Annie_Wafer_APRN_MSN_FNP_C	A	43.050121	-75.378804	13323

Lorinda_Fiorini_Lmt	B	43.074002	-75.32036	13413

Cricket_Wireless	C	43.210461	-75.453098	13440

The_Big_Cheese	B	43.094982	-75.652254	13421

The_Treehouse_Reading_&_Art_Center	C	43.097276	-75.296825	13417

The_Topping_Tree	A	43.073129	-75.289414	13413

Walgreens	A	43.229558	-75.439275	13440

Aranda_Christina	A	43.027452	-74.983228	13350

Teugega_Country_Club	B	43.27095	-75.439598	13440

Hi_Way_Haircuts	B	43.217209	-75.34251	13440

Sauquoit_Valley_High_School	A	42.987955	-75.254723	13456

Walgreens	A	43.016164	-75.035887	13357

The_Locavore	C	43.037994	-75.069241	13340

Reformed_Church_Cemetery	B	43.020395	-75.008396	13357

Mvcaa_Inc_Oneida_Head_Start	A	43.102768	-75.661039	13421

McDonald's	B	43.015685	-75.034299	13357

Just_Archery_by_George	C	43.21744	-75.439034	13440

Klippers	B	43.084293	-75.339147	13323

Taco_Bell	B	43.022119	-74.993241	13350

Sunnyside_Cemetery	B	43.023559	-75.67955	13421

Erins_Kitchen	B	43.083745	-75.645461	13421

VP_Supply_Corporation	C	43.088856	-75.311177	13413

The_Wig_Gallery	A	43.216101	-75.454948	13440

Norine's_Salon_&_Blow_Dry_Bar	B	43.072279	-75.289116	13413

NBT_Bank	C	43.079577	-75.315982	13413

Precision_Polish	A	43.044328	-75.080987	13340

New_York_Mills_Village_Police_Department_New_York_Mills_New_York	A	43.10345	-75.292584	13417

Herkimer_County_Community_College	A	43.03382	-75.006158	13350

Ficano_Jeff	A	43.027403	-74.983481	13350

CARSTAR_Auto_Body_Repair_Experts	D	43.231889	-75.495876	13440

Manheim_Collision	D	43.084185	-74.821329	13365

Master_Planners_&_Associates	A	43.05562	-75.280663	13413

Shear_Envy	B	43.090948	-75.316982	13413

Sirchia	B	43.0945	-75.650878	13421

The_Fireside_Sunny's_Kitchen	B	43.07805	-75.665173	13421

Belly_Up_Pub	B	43.025238	-74.987059	13350

Saint_Peter's_Cemetery	B	43.190858	-75.57213	13440

Tom's_Small_Engine_Servies	C	43.078318	-75.380955	13323

Hearth_Lane_Field	B	40.738674	-73.548309	13365

NorthSide_Fitness	B	43.132586	-75.255652	13403

Marcy_Community_Church	A	43.178005	-75.286234	13403

MC_Nails_&_Spa	B	43.093046	-75.650951	13421

Pizza	B	43.070011	-75.284465	13413

Rite_Price_Gas_&_Foodmart	C	43.204164	-75.433118	13440

Patty's_Hair_Studio	B	43.277038	-75.569221	13440

Missionettes_Of_The_First_Assembly_Of_God	A	43.215476	-75.462886	13440

YMCA	B	43.07535	-75.651285	13421

Catholic_Daughters_Of_The_Americas	A	43.014383	-75.065631	13357

Staple's_Karate_Studios	A	43.220063	-75.449233	13440

La_Galleria	C	43.052164	-74.987698	13350

Herkimer_High_School	A	43.025844	-75.001548	13350

Beautique_Salon_and_Spa	B	43.027212	-74.980884	13350

Russo_Physical_Therapy	A	43.02798	-75.059121	13340

IHOP	B	43.087619	-75.28045	13413

Rick_Spinella_Truck_Repair	D	43.076928	-75.376665	13323

Fastrac	C	43.215131	-75.470624	13440

Zebb's_Deluxe_Grill_&_Bar	B	43.082383	-75.326274	13413

Stewart's_Shops	C	43.30306	-75.472626	13440

Mavis_Discount_Tire	D	43.025137	-74.985366	13350

Brandy_Keg_Kennel	B	43.004187	-75.157684	13340

Dollar_General	C	43.016115	-75.037349	13357

Paravati_Chiropractic_Care	A	43.055294	-75.271587	13413

Dollar_Tree	C	43.210187	-75.460528	13440

Greek_Gyros_Herkimer	B	43.028178	-74.98888	13350

Putrelo_Building_Enterprises	C	43.027317	-75.274047	13413

Angel_Nails	B	43.010308	-75.054727	13357

Solutions_Medical_Billing	A	43.217197	-75.342504	13440

Racha_Eric_B_DDS	A	43.216198	-75.454162	13440

Shoe_Dept_Encore	C	43.210545	-75.460443	13440

Adirondack_Cheese_Company_Inc_Store	C	43.048852	-75.378989	13323

Yellow_Church_Cemetery	B	43.075887	-74.849868	13365

Nola's	B	43.04862	-75.379082	13323

Mr._Smoothie	B	43.073358	-75.288608	13413

Pizza_Place	B	43.097416	-75.653076	13421

John_Deere	C	43.08353	-75.343215	13323

Bargain_Grocery	C	43.077633	-75.64391	13421

Vitkus_Robert_J_DDS	A	43.078974	-75.652733	13421

Darkroom_Unlimited	E	43.214697	-75.465165	13440

Jt_Nails_And_Spa	B	43.076666	-75.294485	13413

Kao_Janice_MD_Pediatrician	A	43.04425	-74.848734	13365

Wassel_Anwar	A	43.231271	-75.443306	13440

Hccc_Child_Care_Center	A	43.032269	-75.006236	13350

Hair_Affair	B	43.023286	-74.989293	13350

Weisser's_Jewelers	C	43.027748	-74.987701	13350

House_of_Israel_Cemetery	B	43.076428	-75.259522	13413

Kelly's_Hair_Design	B	43.086946	-75.669373	13421

Alliance_Bank	C	43.079823	-75.643762	13421

Two_Ewes	C	43.046546	-75.382892	13323

Hannaford_Supermarkets	C	43.029697	-74.981283	13350

Rome_Sand_Plains_Unique_Area	B	43.236217	-75.573778	13440

Auto_Restoration	D	43.226528	-75.509944	13440

Health_Street	A	43.09729	-75.296873	13417

Byrne_Dairy	C	43.075287	-75.289682	13413

The_Indigo_Tree	C	43.098598	-75.30276	13417

Utopia	B	43.239302	-75.441766	13440

The_smoothie_bar_ice_cream	B	43.077447	-75.642541	13421

Kidsteethonly	A	43.07378	-75.293645	13413

The_Hair_Shoppe	B	43.038755	-75.072111	13340

Omnicare	A	43.082672	-75.329863	13413

Vescio's_Franklin_Hotel	B	43.207894	-75.460006	13440

Michael_T's_Restaurant	B	43.08274	-75.328514	13413

Clinton_Early_Learning_Center	A	43.050821	-75.381774	13323

Kanon_Valley_Country_Club	B	43.139079	-75.714179	13421

R_P_Heintz_Funeral_Service_Inc	B	43.049422	-75.377776	13323

Laurey's_Pizzeria	B	43.084592	-75.341774	13323

Insure_One_Insurance_Agency	C	43.01222	-75.03792	13357

Joette's_Gifts	C	43.073189	-75.289898	13413

Frankfort_Valley_Auto_Sales	C	43.028914	-75.060258	13340

Massoud's_Tree_Farm	C	43.026797	-75.245093	13456

United_States_Postal_Service_(USPS)	C	43.1058	-75.291117	13417

Ponderosa_Steak_House	B	43.026376	-74.982722	13350

Grace_Hair_Studio	B	43.236832	-75.436842	13440

Pizza_N_Stuff	B	43.295373	-75.473163	13440

Gordmans	C	43.07829	-75.689554	13421

Pop_A_Top	B	43.097044	-75.653807	13421

Gentle_Dental_Care	A	43.215706	-75.454112	13440

Carter's	C	43.095603	-75.309874	13413

Planet_Fitness	B	43.235559	-75.437966	13440

Andrew_Vogel_LMT	B	43.046318	-74.855647	13365

Donald_Knapp	A	43.027551	-74.979531	13350

Mt_Zion_Ministires	A	43.212531	-75.459134	13440

ABC_Supply	C	43.138163	-75.278249	13403

Upper_Cemetery	B	43.037584	-74.772908	13365

Tramacera's_Trends_Salon_&_Gifts	B	43.068399	-75.287482	13413

Land_&_Sea_Marine_Specialists	C	43.135952	-75.278526	13403

Waheguru_Marcy_Petroleum	C	43.140685	-75.301218	13403

Kingdom_Harvest_Apostolic_Church	A	43.221653	-75.456145	13440

Borunda_Asian_Buffet	B	43.024681	-74.984909	13350

Main_Moon_Chinese_Kitchen	B	43.015825	-75.03685	13357

Piano_Lab	C	43.026229	-75.271131	13456

L_P_Trucking_&_Excavating	E	43.263891	-75.529508	13440

Ellis_Family_Chiropractic	A	43.074584	-75.301146	13413

New_Hope_Ministries_Church	A	43.024815	-74.980334	13350

Primerica	A	43.214025	-75.458002	13440

Maranatha_Church	A	43.218361	-75.453124	13440

Fastrac	C	43.024039	-74.987752	13350

New_Hope_Christian_Community_Church	A	43.057468	-75.636138	13421

AR_Physical_Therapy	A	43.090883	-75.277262	13413

VCA_Animal_Hospitals	A	43.187609	-75.480484	13440

Latteri_Charles_B	C	43.106639	-75.652951	13421

Harbor_Freight_Tools	C	43.024474	-74.98923	13350

Mohawk_Valley_Cash_Register	C	43.083751	-75.339146	13323

Eddie's_Paramount_Diner	B	43.214609	-75.464845	13440

G_T_Auto_Maintenance	D	43.061212	-75.36635	13323

Stoney's_Tavern	B	43.025001	-74.985297	13350

Blando_Chiropractic	A	43.055529	-75.2795	13413

Dr_David_Patalino	A	43.08041	-75.335215	13413

CPR_Cell_Phone_Repair	D	43.096479	-75.30304	13413

Hannaford_Plaza	C	43.053674	-75.277639	13413

Donna's_Cafe	B	43.229952	-75.495379	13440

Oxford_Medical_Imaging	A	43.072953	-75.287212	13413

Daughter_for_Hire	B	43.047887	-75.378914	13323

Brookdale_Senior_Living	B	43.037751	-75.358672	13323

Spencer_Gifts	C	43.08248	-75.31488	13413

New_Wave_Hair_Systems	B	43.0091	-75.263527	13456

Vitality_Fitness_and_Wellness	B	43.277516	-75.470196	13440

The_Clover	B	43.207637	-75.450625	13440

Sinha_Nalin	A	43.054316	-75.279249	13413

SunEast_Hills_Solar_Project	E	43.067762	-74.849362	13365

NBT_Bank	C	43.094489	-75.651797	13421

Ann_Street_Liquors	C	43.043903	-74.860446	13365

Save-A-Lot	C	43.076389	-75.644002	13421

Thompson_Appliances	C	43.096117	-75.651755	13421

Berkshire_Bank	C	43.230281	-75.440105	13440

Clinton_Elementary_School	A	43.051629	-75.380026	13323

Ellinwood_Dental	A	43.091013	-75.311718	13413

Boshart_Welds_and_Metal_Works	E	43.220584	-75.378518	13440

ALDI	C	43.081816	-75.325857	13413

Nice_N_Easy_Grocery_Shoppe	C	43.080251	-75.391573	13323

Affordable_Wellness_By_Raymond_Ermacor	A	43.055991	-75.28078	13413

State_Farm	C	43.098999	-75.30349	13417

Fastrac	C	43.22918	-75.439986	13440

Crystal_Springs_Beverage	C	43.027241	-74.914169	13365

Resurrection_Life_Church	A	43.214898	-75.444787	13440

Spring_Farm_Cares	C	43.026617	-75.327032	13323

Health_Street	A	43.230889	-75.437733	13440

Circle_K	C	43.038567	-74.866164	13365

Community_Mammography_Center	A	43.019842	-75.045369	13357

De_Matteo_Patricia_D_Dr	A	43.219429	-75.478671	13440

Bellamy_Harbor_Park	B	43.202066	-75.450478	13440

The_Grand_Rehabilitation_And_Nursing_At_Rome	B	43.221189	-75.450858	13440

State_Farm	C	43.23193	-75.442569	13440

Swan_Pool	C	43.012461	-75.030833	13357

Byrne_Dairy	C	43.079268	-75.373585	13323

Skinner_Service_Station	C	43.027149	-74.946138	13350

Oneida_Area_Day_Care_Center_Inc	A	43.084792	-75.662698	13421

Ralph's_Collision	D	43.075687	-75.689666	13421

Mind_Games	C	43.095751	-75.651708	13421

Mohawk_Valley_Surgical_Associates	A	43.073165	-75.293525	13413

Schuyler_Volunteer_Fire_Company_Incorporated_Substation	A	43.054498	-75.074341	13340

Harvest_Hills_Baptist_Church	A	43.038033	-74.986313	13350

Trinity_Lutheran_Church	A	43.02904	-74.994727	13350

Alessi_Robert_E_PC	A	43.231248	-75.443325	13440

Rome_Podiatry_Group	A	43.218169	-75.459372	13440

Rome_Vapors	C	43.213799	-75.454782	13440

Savicki_Capital	A	43.071146	-75.286439	13413

Adirondack_Freight_Brokerage	C	43.036406	-75.065414	13340

Tractor_Supply_Co.	C	43.018737	-74.993553	13350

Klockowski_Orthodontics	A	43.214588	-75.461509	13440

Roselawn_10	B	43.102483	-75.295533	13417

FranklynS_Field	B	43.22398	-75.445909	13440

Larkin_Richard_S_Dr	A	43.218193	-75.45941	13440

Mount_Hope_Reservoir_Park	B	43.060555	-75.652761	13421

Mobil	C	43.076696	-75.104053	13340

Woodchuckers_Axe_Throwing	B	43.142535	-75.216448	13403

Big_Al's_Bikes	D	43.073838	-75.320855	13413

Ferdula_Top_Soil_Products	C	43.041996	-75.064271	13340

Putnam_James_H	A	43.082396	-75.296073	13413

Faith_Bible_Baptist_Church	A	43.216859	-75.460144	13440

Express_Factory_Outlet	C	43.082677	-75.316263	13413

Moretz_J_Alfred	A	43.015882	-75.037947	13357

Instachek	A	43.207146	-75.449296	13440

Subway	B	43.094805	-75.312463	13413

Frankfort_Wine_&_Spirts	C	43.038774	-75.072067	13340

The_Grapevine_Restaurant	E	43.076913	-75.296733	13413

That_Little_Place_On_Main	B	43.042824	-74.86094	13365

East_Dynasty_Buffet	B	43.077563	-75.295302	13413

AutoZone	C	43.023313	-74.989259	13350

Frank's_Transmission_Service	D	43.199028	-75.448668	13440

Rituals	B	43.046825	-75.273742	13413

Premo's_Automotive_Sales_&_Service	C	43.212538	-75.451637	13440

Canal_Side_Inn_Restaurant	B	43.040428	-74.858715	13365

Circle_K	C	43.096716	-75.623466	13421

Blonde_Ambition	B	43.095482	-75.294448	13417

The_Medicine_Shoppe	A	43.055744	-75.280287	13413

Mackay_Rippey_Acupuncture	A	43.056173	-75.366812	13323

GameStop	C	43.02728	-74.980175	13350

Ridgewood_Heights_Park_Rock_Park	B	43.240589	-75.448643	13440

Michael_White_Painting_&_Coatings	A	43.074015	-75.330404	13413

Herkimer_Home_&amp_Leisure	C	43.0894	-74.992128	13350

Pizza_Hut	B	43.08265	-75.327965	13413

Ramen_Rose	B	43.095881	-75.652178	13421

Delta_Lake_Veterinary_Hospital	A	43.283707	-75.471494	13440

Dye_Namic_Do's_HAIR_STUDIO	B	43.204235	-75.433441	13440

Christine_Salomon_LMT_RMT_Namaste_Lightwork	B	43.083268	-75.342395	13323

Statewide_Agency	C	43.222202	-75.444707	13440

C_N_Nail	B	43.224721	-75.483567	13440

Dollar_Tree	C	43.23619	-75.437249	13440

T.J._Maxx	C	43.093505	-75.309705	13413

John's_Place	B	43.03966	-75.070873	13340

Faxton_St_Luke's_Healthcare	A	43.094986	-75.65161	13421

Pulaski_Park	B	43.108906	-75.28853	13417

Crystal_Motors_Sales	C	43.227399	-75.491285	13440

Villa_Verona_Vineyard_&_Bistro	D	43.099495	-75.614034	13421

Bailey's_Automotive_&_Small_Engine_Repair	D	43.024117	-75.054518	13357

Enterprise_Rent-A-Car	C	43.215999	-75.472094	13440

Hairstyling_by_Joseph	B	43.037357	-75.069755	13340

Cole_Auto_Repair_Shop	D	43.20822	-75.375061	13440

First_Baptist_Church_Of_Little_Falls_Ny	A	43.047777	-74.86758	13365

Albert_O_Nichols_House	B	43.025898	-74.981409	13350

Java_Chalet	B	43.090987	-75.278254	13413

Nutrishop	A	43.088421	-75.311533	13413

T_Mobile_Authorized_Retailer	C	43.086887	-75.313331	13413

OneMain_Financial	A	43.078624	-75.688792	13421

Down_Under_Hair_Fashions	B	43.010285	-75.024545	13357

WellNow_Urgent_Care	A	43.093105	-75.306752	13413

Mohawk_Valley_Christian_Academy	A	43.047814	-74.867218	13365

Clinton_United_Methodist_Church	A	43.058155	-75.363611	13323

Herb_Philipson's_New_Hartford	C	43.057815	-75.284464	13413

Western_Union	C	43.079475	-75.641249	13421

Carmella's_Cafe	B	43.079302	-75.31798	13413

George's_Used_Appliances	E	43.059626	-75.083453	13340

Western_Union	C	43.049207	-75.380172	13323

Church_On_The_Rocks	A	43.097193	-75.651781	13421

Rome_Medical_Radiology	A	43.231309	-75.443386	13440

Olivia's_Happy_Tails	C	43.026351	-74.98714	13350

DeMatteo's_Restaurant	B	43.205829	-75.444486	13440

Chestnut_Commons_Physical_Therapy	A	43.232059	-75.440606	13440

Brown_Steven_M_MD_PC	A	43.231289	-75.4433	13440

Mohawk_Valley_Community_College	A	43.220168	-75.428442	13440

Who's_Next_Barbershop	B	43.026351	-74.988474	13350

First_Baptist_Church	A	43.072321	-75.286797	13413

Copperccinos_Coffee_House	B	43.212653	-75.460743	13440

SavOn	C	43.078538	-75.646343	13421

Flower_Barn	C	43.01807	-75.033666	13357

Shampooches	C	43.05361	-75.273085	13413

Jimmy_John_Subs	B	43.076121	-75.641608	13421

Barry_Funeral_Home	B	43.236473	-75.454112	13440

R_&_S_Auto_Parts	C	43.092954	-75.181002	13340

Brown's_Detail	D	43.19483	-75.438761	13440

Paul_Chapman_Insurance_Agency	C	43.094851	-75.282635	13413

Mc_Kennan_John_M	A	43.019857	-75.04537	13357

Dunkin'	B	43.05512	-75.277097	13413

Catholic_School_Tuition_Ofc	A	43.238607	-75.452778	13440

Famous_Footwear	C	43.083252	-75.31413	13413

Rose_Petals_Florist	C	43.042612	-74.857945	13365

Utica_Coffee_Of_Clinton	B	43.048347	-75.379012	13323

Eye_Care_At_Slocum_Dickson_Optical_Shop	A	43.092981	-75.278847	13413

Tamby's_Auto_Body_Svce	D	43.199202	-75.45085	13440

Violin_Shoppe	C	43.078231	-75.612366	13421

Kirkland_Cemetery	B	43.082585	-75.383827	13323

Extreem_Car_Wash_System	D	43.078544	-75.64386	13421

Western_Union	C	43.237286	-75.501861	13440

Kinney_Drugs	A	43.014581	-75.036711	13357

Sally_Beauty_Supply	A	43.23569	-75.501083	13440

Natural_Health_Center	A	43.21907	-75.478821	13440

Sauquoit_Knolls_Golf_Club	B	42.997594	-75.234885	13456

SmartStyle_Family_Hair_Salons	B	43.094753	-75.312614	13413

Hideaway_Pub	C	43.220858	-75.335877	13440

Aquino's_Family_Restaurant	B	43.216886	-75.43859	13440

Rome_Adult_Learning_Center_Boces	B	43.212924	-75.461311	13440

12_North_Sports_Bar	B	43.14254	-75.216444	13403

Twin_Orchards_Farms	C	43.090889	-75.318781	13413

Mohawk_Valley_Apartments_Housing_Development_Fund_Company_Inc	A	43.039631	-75.388486	13323

Clinton_Auto_Service	D	43.039625	-75.391673	13323

Safe_Harbor_Ministries_Inc	A	43.079098	-75.658047	13421

LabCorp	A	43.077508	-75.651638	13421

Fall_Hill_Bead_and_Gem	C	43.042792	-74.861078	13365

Ilion_Self_Storage	C	43.014271	-75.030451	13357

Henry's_Tailor_Shop	D	43.013942	-75.036991	13357

Boonville_Big_M	C	43.475929	-75.319647	13323

George_Kahler_Sales	D	43.213816	-75.570393	13440

Auntie_Anne's	B	43.082521	-75.324865	13413

United_States_Postal_Service_(USPS)	C	43.218978	-75.448348	13440

Sunoco	C	43.093902	-75.276331	13413

Billy_Beez	B	43.083122	-75.315396	13413

Charles_T_Sitrin_Health_Care_Center_Inc	B	43.055463	-75.229672	13413

Monro	D	43.026685	-74.981962	13350

Lowell_Volunteer_Fire_Department	A	43.132865	-75.498628	13440

Arch_By_Design	B	43.076679	-75.294456	13413

Marble_Hill_Inn	B	43.059996	-75.591036	13421

Herkimer_County_Jail	A	43.029561	-74.988156	13350

Whims_n_Doodles	C	43.077216	-75.293663	13413

Chahfe_Fayez_Fadi	A	43.077277	-75.652482	13421

Skate_A_While	C	43.209515	-75.463431	13440

Niki_Marie's_Salon	B	43.01539	-75.036809	13357

Starbucks	B	43.015937	-74.803672	13365

Nicky_Doodles	B	43.224608	-75.486685	13440

Sit_Means_Sit_Dog_Training	B	43.082222	-75.393087	13323

Dr_Matthew_C_Allen	A	43.078964	-75.652722	13421

American_Job_Centers	B	43.213333	-75.461796	13440

Community_Bank	C	43.240235	-75.454932	13440

Fairview_Cemetery	B	43.04652	-74.862109	13365

Rome_Income_Tax_Service	A	43.216574	-75.466657	13440

Don's_Rok	B	43.048348	-75.38142	13323

J_&_J_Nail_Spa	B	43.039566	-75.070956	13340

The_Burns_Agency	C	43.049635	-75.379104	13323

G_P_O_Federal_Credit_Union	C	43.078034	-75.687725	13421

West's_Auto_Wash	D	43.075547	-75.690932	13421

Planned_Parenthood	A	43.231306	-75.440365	13440

Nimey's_Automotive_and_Tire_Center	C	43.135823	-75.261927	13403

Alpine_Rehabilitation_And_Nursing_Center	B	43.054407	-74.851716	13365

Angelic_Inspirations_&_Down_to_Earth_Counseling	A	43.048018	-75.378918	13323

Lowe's	C	43.080355	-75.68681	13421

The_Franklin_Marcy	B	43.135074	-75.260245	13403

Owens_Pavlot_&_Rogers_Funeral_Service_Inc	B	43.04793	-75.380188	13323

American_Martial_Arts_Institute	A	43.082624	-75.329414	13413

Abundant_Life_Worship_Center	A	43.082954	-75.665593	13421

State_Farm	C	43.05533	-75.271609	13413

St_Augustine's_Episcopal_Church	A	43.014347	-75.04068	13357

G_&_M_Sports_Outlet	C	43.218219	-75.473688	13440

Zale	C	43.081096	-75.3154	13413

Mid_State_Correctional_Facility	A	43.165396	-75.296138	13403

Fastrac	C	43.21439	-75.453483	13440

Mancino_Insurance	C	43.12701	-75.237649	13403

K_Bagel	B	43.090998	-75.278247	13413

New_China	B	43.078436	-75.689198	13421

Sunoco	C	43.020417	-74.991371	13350

M&T_Bank	C	43.03818	-75.070151	13340

Mohawk_Valley	D	43.029071	-74.918405	13365

Diamond_Leggs	A	43.213907	-75.454869	13440

First_Source_Federal_Credit_Union	C	43.023246	-74.991884	13350

Kitlas_Restaurant	B	43.091903	-75.179131	13340

Hair_Studio_69	B	43.19397	-75.43414	13440

M&T_Bank	C	43.230938	-75.43755	13440

First_Tabernacle_Church_of_God_In_Christ	A	43.253984	-75.455501	13440

Mike_Jr's_Auto_Repair	D	43.204289	-75.438602	13440

The_UPS_Store	C	43.231037	-75.437524	13440

Target	C	43.083556	-75.315894	13413

United_States_Postal_Service_(USPS)	C	43.025824	-74.9881	13350

New_Hartford_Eye_Associates	A	43.082689	-75.330175	13413

Village_Floral	C	43.073246	-75.287491	13413

Kellogg_Street_Cemetery	B	43.045694	-75.36789	13323

Villa_Verona_Vineyard	D	43.099527	-75.614127	13421

Even_Really_restaurants	B	43.207298	-75.457162	13440

Church_of_Christ	A	43.239511	-75.450493	13440

D_B_Automotive_Services	D	43.223175	-75.484317	13440

Sherwin-Williams	C	43.231677	-75.439441	13440

The_Grand_at_Rome	A	43.221221	-75.450868	13440

Parker_William	A	43.02742	-74.983481	13350

Day_&amp_Read_Insurance_Services	C	43.012246	-75.037858	13357

Bhatt_Shiv_S_PC	A	43.23112	-75.443371	13440

Mvcaa_Inc_Little_Falls_Head_Start	A	43.042551	-74.865497	13365

Woolner_Family_Eye_Care	A	43.015134	-75.03627	13357

Computer_Tec	D	43.210481	-75.453091	13440

Harbor_Point_Fuel_Service	C	43.038312	-75.070363	13340

Frankfort_Center_Cemetery	B	43.047663	-75.138676	13340

Berkshire_Bank	C	43.014854	-75.035965	13357

Girardi_David_M_DO	A	43.078948	-75.652717	13421

Aceti's_Classic_Gardens	C	43.075115	-75.317206	13413

Zoom_Tan	B	43.231606	-75.437088	13440

Wendy's_Beauty_Connection	B	43.012501	-75.038829	13357

GameStop	C	43.23572	-75.501142	13440

Life_In_Christ_Family_Church	A	43.062384	-75.366936	13323

Weight_Watchers	B	43.029811	-75.061416	13340

Gina_Pearce_Life_Coach	C	43.069958	-75.286762	13413

Earthbound_Trading_Co.	C	43.082425	-75.317604	13413

CoreLife_Eatery	B	43.084905	-75.319354	13413

Surgical_Associates_of_Utica	A	43.080377	-75.335231	13413

Signature_81	C	43.04806	-75.379361	13323

Stewart's_Shops	C	43.044409	-74.860481	13365

Farmers_Insurance_Group	C	43.043038	-74.859786	13365

Utica_Safe_Schools_Healthy_Students_Partnership_Inc	A	43.223691	-75.45019	13440

Puff_n_Stuff	C	43.207219	-75.449576	13440

Saint_Agnes_Cemetery	B	43.025088	-75.031712	13357

Bonomo_Insurance_Agency_Inc	C	43.084582	-75.324362	13413

Towpath_Vision_Care	A	43.042353	-74.861268	13365

Bremer_Hearing_&amp_Audiology	B	43.074144	-75.294979	13413

Herkimer_Police_Station	A	43.026913	-74.986096	13350

All_Season_Ice_Cream_and_Chocolate_Factory	B	43.091606	-75.314155	13413

Side_Kicks_Family_Karate	A	43.212663	-75.460972	13440

Painting_with_a_Twist	A	43.091649	-75.315658	13413

Hartmans_Enterprises_INC	E	43.087155	-75.643741	13421

Dick_Sonne's_Cycles_Fitness_&_Skis	C	43.083433	-75.323196	13413

Tangles_Salon	B	43.208775	-75.452913	13440

Garica_De_Paredes_Daniel	A	43.022411	-74.982225	13350

Kirkland_Town_Library	B	43.047918	-75.384259	13323

Anchor's_Away_Cafe	B	43.041048	-75.068778	13340

Mel's_Place	B	43.034037	-74.871078	13365

Jm_Heating_Service	C	43.036405	-75.065407	13340

KFC	B	43.211659	-75.462265	13440

El_Jarocho_Mexican_Restaurant_and_Bar	B	43.220826	-75.424323	13440

Posh_Salon	B	43.096636	-75.296778	13417

Community_Bank	C	43.094081	-75.651529	13421

Grippe's_Hairstyling	B	43.140041	-75.276522	13403

The_Tot_Spot_Play_Center	A	43.062395	-75.603237	13421

Mt_Calvary_Baptist_Church_Clerk	A	43.20672	-75.455922	13440

Western_Union	C	43.053452	-75.277913	13413

Oneida_Seventh_Day_Adventist_Church	A	43.090195	-75.658182	13421

Northern_Physical_Therapy	A	43.014384	-75.044595	13357

Betsy_Ross_Rehabilitation_Center_Inc	B	43.23315	-75.465401	13440

Flower_Barn	C	42.99351	-75.073109	13357

Cheveux	B	43.054686	-75.27176	13413

Empire_Bath_&_Kitchen	C	43.14003	-75.276799	13403

Duross_Conservancy	B	43.083305	-75.640557	13421

Glenside_Cemetery	B	43.103294	-75.287641	13417

ALDI	C	43.01925	-75.031214	13357

McDonald's	B	43.022569	-74.993785	13350

STEET_PONTE_CHEVROLET_INC	C	43.04617	-74.984926	13350

Revelations_Salon_&_Spa	B	43.027395	-74.97992	13350

Amendola's_Country_Florist	C	43.057519	-75.160024	13340

Scruples_Hair_&_Tanning_Salon	B	43.133076	-75.256319	13403

Cannon_Pools	C	43.096458	-75.621329	13421

Flowers_By_Suzanne	C	43.020079	-74.990769	13350

Town_of_Paris_Park	B	42.987054	-75.258696	13456

Salvatore's_Italian_Bakery_&_Bagel_Shoppe	B	43.052532	-75.273377	13413

Oneida_Shopping_Center	C	43.102928	-75.660275	13421

Graniero_Kenneth_D	A	43.054132	-75.279067	13413

Empire_Drugs	A	43.231601	-75.439575	13440

Pizza_Boys	B	43.041553	-74.8647	13365

Braden_Packaging	C	43.080413	-75.367259	13323

Tehan_Shopping_Center	C	43.08668	-75.316881	13413

Tucker_Backyard_Pools_&_Spas	C	43.094291	-75.305523	13413

Sunoco	C	43.04383	-74.860111	13365

Zurich_Cinemas	A	43.224591	-75.483189	13440

Allstate_Insurance	C	43.016511	-75.039258	13357

Universalist_Church	A	43.043178	-74.856995	13365

Tractor_Supply_Co.	C	43.075424	-75.690564	13421

WellNow_Urgent_Care	A	43.210697	-75.458004	13440

Eastern_Auto_Mall	D	43.011886	-75.028484	13357

Park_Row_Espresso	B	43.048337	-75.379101	13323

Eastup_Automotive_Repair	D	43.216701	-75.470583	13440

Dunkin'	B	43.052222	-75.374419	13323

South_Side_Alignment	D	43.039062	-74.858972	13365

Whisky_Jack's_Salon_For_Men	B	43.082241	-75.322844	13413

Oneida_Fire_Department	A	43.096312	-75.653338	13421

Mohawk_Valley_Florist_&_Gift_Inc	C	43.016841	-75.037393	13357

Papaleo's_Wise_Guys_Pizzeria	B	43.025947	-74.986081	13350

New_Beginnings_Church	A	43.275295	-75.493174	13440

Just_Teasin'	B	43.229412	-75.43872	13440

K_&_K_Dance_Wear	C	43.095703	-75.651387	13421

Association_Chiroptractic	A	43.040711	-75.391293	13323

G_K_Management	C	43.219477	-75.476361	13440

Smoke_Shop	C	43.040908	-75.622999	13421

State_Farm	C	43.221183	-75.445738	13440

Miracle_Nails	B	43.091699	-75.314098	13413

Bowne_Catherine_E_Csw_R_&_Associates	A	43.030202	-74.990046	13350

Tri_County_Medical_P_C	B	43.231618	-75.442001	13440

Shaffer_Insurance_Agency	C	43.061059	-75.272092	13413

Red_Roof_Inn	B	43.018786	-74.991315	13350

Donald_B_Knapp_OD	A	43.025081	-74.988106	13350

Crabby's_Fish_Market	C	43.036623	-74.86056	13365

Reaves_Dental_Practice	A	43.048001	-75.378376	13323

Chowder_House	B	43.095464	-75.29185	13417

Jones_Road_Cemetery	B	43.047641	-75.138681	13340

All_Saints_Cemetery	B	43.26083	-75.489447	13440

Anaconda_Sports	C	43.09726	-75.29688	13417

Purple_Moods	A	43.226956	-75.471798	13440

S_&_S_School_of_Martial_Arts	A	43.095975	-75.650971	13421

Norm's_Garage	D	43.214344	-75.466844	13440

Doggy_D'zynes	C	43.277557	-75.470218	13440

Teddys	B	43.220766	-75.447496	13440

La_Pizzeria	B	43.133409	-75.253562	13403

Kohl's	C	43.090966	-75.317009	13413

MV_Golf_&_Events_Center	B	43.027339	-74.913194	13350

Coalyard_Charlie's	B	43.206804	-75.456943	13440

Onyx_Lamphear_Road_CSG	E	43.185773	-75.479044	13440

Stewart's_Shops	C	43.21407	-75.467452	13440

Price_Chopper_New_England	C	43.079606	-75.643975	13421

AutoVations	D	43.20428	-75.437703	13440

Daylight_Donuts	C	43.074024	-75.287016	13413

Dave's_Clip_Joint	B	43.112666	-75.28454	13417

Brigitte_Hair_&_Tanning_Salon	B	43.075936	-75.689883	13421

Heartsome_Handicrafts	C	43.076885	-75.297103	13413

Brookwood_Park	B	43.031011	-74.999244	13350

Kavic_Bob_Chrysler_Plymouth_Dodge_Jeep_Eagle	C	43.029657	-74.988851	13350

Premier_Technologies	C	43.228389	-75.492635	13440

Oneida_Plaza	C	43.078526	-75.689213	13421

Ironwood_Furniture	C	43.077257	-75.378876	13323

Custom_Cutz_Barbershop	B	43.026191	-74.98712	13350

Midas	D	43.233581	-75.436188	13440

Monro	D	43.078563	-75.642492	13421

One_Genny	B	43.073812	-75.286233	13413

Pet_Supplies_Plus	C	43.083259	-75.321453	13413

U-Haul	C	43.204095	-75.455781	13440

The_Children's_Place	C	43.082678	-75.318051	13413

Pizza_Hut	B	43.023448	-74.991228	13350

Sunnyside_Dispensary_New_Hartford	A	43.094031	-75.305743	13413

Khangle	C	43.082225	-75.322996	13413

The_Skeleton_Key	B	43.095159	-75.652232	13421

D_E_Cleveland_Antiques	C	43.215121	-75.460038	13440

The_Golf_Box	B	43.039171	-75.063729	13340

Herkimer_Fire_Department	A	43.026855	-74.985659	13350

Americu_Credit_Union	C	43.078926	-75.651636	13421

Cedarville_Country_Store	C	42.930557	-75.112745	13357

Food_Center	C	43.219529	-75.324356	13440

Rock_City_Grocery	C	43.044745	-74.848962	13365

Oak_Ridge_Free_Methodist_Church	A	43.023323	-75.004216	13350

Alteri's_Restaurant	B	43.048075	-75.379167	13323

Triangle_Park	B	43.21776	-75.444233	13440

Endless_Summer_Hair_Tanning_&_Nail_Salon	B	43.025499	-74.984206	13350

Spectrum	C	43.094603	-75.308433	13413

Domino's_Pizza	B	43.077863	-75.64363	13421

McDonald's	B	43.231084	-75.439805	13440

Christain_And_Missionary_Alliance_Church_Rome_New_York	A	43.235945	-75.454748	13440

NBT_Bank	C	43.224391	-75.484827	13440

Burger_King	B	43.213456	-75.465241	13440

Nora's_Candy_Shop	C	43.222405	-75.471925	13440

Snip_&_Clip	B	43.048078	-75.379584	13323

Burke_Park	B	43.045452	-74.859137	13365

Dey_Chevrolet	C	43.045372	-75.38335	13323

Marcy_Marina	B	43.13406	-75.273235	13403

Subway	B	43.076137	-75.64175	13421

Speedway	C	43.235465	-75.435734	13440

Smokers_Choice	C	43.027109	-74.987274	13350

Dollar_General	C	43.260602	-75.461514	13440

31_Express_Deli_&_Grocery	C	43.095413	-75.649813	13421

Mum_Farm	C	43.035305	-75.291541	13413

West_Hill_Cemetery	B	43.136279	-75.574391	13421

Red_Samurai_Steak_House	B	43.078502	-75.31574	13413

4_Seasons_Goodyear_Tire_&_Auto_Repair_Center	C	43.021559	-75.038481	13357

Hearing_Health_USA	B	43.10234	-75.660509	13421

Gahan_Sheila_Fnp	A	43.027686	-74.982782	13350

Oneida_Anchor_Hocking_Company	D	43.057338	-75.602884	13421

Club_Meadow_Dog_Daycare_and_Boarding	B	43.104168	-75.661152	13421

Army_Carinci_Park	B	43.098366	-75.643446	13421

Floyd_Cemetery	B	43.212115	-75.336319	13440

Tian_Tang_Spa	B	43.212034	-75.463086	13440

Oneida_City_Police_Department_Oneida_New_York	A	43.095613	-75.652842	13421

Ilion_Park	B	43.015291	-75.02719	13357

The_Salvation_Army	C	43.018125	-75.041208	13357

Juice_ice_Cream_Rolls	B	43.08245	-75.318447	13413

Andrew_J_Spiridigloizzi_DDS	A	43.056061	-75.271695	13413

Northeastern_District_Of_The_Christian_And_Missionary_Alliance	A	43.296236	-75.472441	13440

Applebee's	B	43.233302	-75.436785	13440

Western_Union	C	43.076268	-75.29515	13413

Catholic_Daughters_Of_The_Americas	A	43.05534	-74.977592	13350

Sears_Home_Services	C	43.088741	-75.314834	13413

Rogers_Laser_Wash	D	43.081579	-75.321547	13413

Big_Lots_Stores	C	43.088777	-75.315106	13413

Clinton_Ale_House	B	43.042923	-75.386203	13323

Schuyler_Travel_Plaza	C	43.076427	-75.103139	13340

Freeway_Insurance_Services	C	43.209329	-75.454014	13440

Serendipity_Hair_Salon	B	43.07475	-75.287289	13413

Medical_Speciality_Center	A	43.044293	-74.848875	13365

Hats_Off_Hair_Salon	B	43.277707	-75.470161	13440

All_Weather_Power_Equipment	C	43.20524	-75.422909	13440

Byrne_Dairy	C	43.078313	-75.663734	13421

Paris_Hill_Cat_Hospital	A	43.000144	-75.31464	13456

Whitesboro_High_School	A	43.151573	-75.288627	13403

Mohawk_Correctional_Facility_Rome_New_York	A	43.182142	-75.483072	13440

Ohlbaum_Steven_A_Od	A	43.072259	-75.289221	13413

Hospice_&_Palliative_Care	B	43.071195	-75.345106	13413

Hancock_James	B	43.03471	-75.065527	13340

Olive_Garden	B	43.087456	-75.312435	13413

Rmh_Retail_Pharmacy_Llc	A	43.229049	-75.442674	13440

Pho_Ever_Noodles	B	43.082098	-75.323092	13413

Friendly_Bake_Shop	B	43.03877	-75.070785	13340

Link_Cemetery	B	43.250797	-75.523212	13440

Fatboys_Deli	C	43.082586	-75.323849	13413

Mohawk_Missionary_Baptist_Church	A	43.189187	-75.456814	13440

New_York_&_Company	C	43.082691	-75.318052	13413

Hot_Spot	B	43.022897	-74.992578	13350

Nye_Volkswagen_of_Rome	C	43.233027	-75.497802	13440

United_States_Postal_Service_(USPS)	C	43.048568	-75.381501	13323

Erie_Canal_Cruises	E	43.016928	-74.996175	13350

Friendly's	B	43.094316	-75.275656	13413

Hummel's_Office_Plus	C	43.228793	-75.437797	13440

Fischer_Harold_Vet	A	43.019151	-74.990714	13350

Bassett_Healthcare_Little_Falls_Dialysis	A	43.044234	-74.84768	13365

Rome_Surgical_Specialists	A	43.231111	-75.442336	13440

Rome_Family_Dental_Svce	A	43.213563	-75.45828	13440

Sacred_Heart_Cemetery	B	43.08476	-75.326483	13413

Orchard_Hall_Restaurant	B	43.005294	-75.261345	13456

Centrex_Clinical_Laboratories_Incorporated	A	43.07394	-75.296918	13413

John's_Garage	D	43.034989	-74.869819	13365

Master_Seng's_Martial_Arts_Academy	A	43.082629	-75.323444	13413

Carolina_Bedding_of_The_Mohawk_Valley	C	43.226272	-75.487817	13440

Seneca_Street_School	A	43.085696	-75.653412	13421

Flawless_Salon_&_Beauty_Bar	B	43.038041	-74.986333	13350

Dippin_Donuts	B	43.225023	-75.487288	13440

Rick's_Body_Shop	D	43.211759	-75.364108	13440

Cato	C	43.235621	-75.500909	13440

The_Blend	B	43.220898	-75.453569	13440

Merle_Norman_Cosmetics	A	43.07807	-75.295141	13413

Advanced_Technologies	B	43.0278	-74.987748	13350

East_Hill_Cemetery	B	43.05128	-75.240791	13413

Two_Tones'_Tacos	B	43.082887	-75.322627	13413

Mohawk_Valley_Federal_Credit_Union_Marcy_Branch	C	43.137895	-75.277495	13403

Dunkin'	B	43.230874	-75.44005	13440

Raspberries_Cafe	B	43.094575	-75.305254	13413

Western_Union	C	43.079776	-75.643988	13421

KeyBank	C	43.23264	-75.438941	13440

Asian_Bistro_&_Grill	B	43.073487	-75.294994	13413

Rural_Park_Cemetery	B	43.059528	-74.769275	13365

Dinh_Thanh_Temple	A	43.085281	-75.17064	13340

America's_Wireless_Company	C	43.2208	-75.480875	13440

Fastrac	C	43.017602	-75.032859	13357

Fleetpride_Parts	D	43.138483	-75.270837	13403

Oneida_Carpets	C	43.096819	-75.649713	13421

PetSmart	C	43.092803	-75.309276	13413

Rock_City_Iron	C	43.030722	-74.873464	13365

Saint_Marys_Cemetery	B	43.020402	-75.008401	13350

Sunoco	C	43.079956	-75.319023	13413

Exclusive_Events_Entertainment	A	43.225284	-75.425781	13440

C_T_Male_Associates_Little_Falls	E	43.044619	-74.859908	13365

Furji_Sushi_Asia_Sushi	B	43.096055	-75.652222	13421

Bonomo_Insurance	C	43.084433	-75.323541	13413

St_Elizabeth_Medical_Group	A	43.073552	-75.291791	13413

Champs_Sports	C	43.081728	-75.315698	13413

Tallman's_Tire_&_Auto_Repair	D	43.021444	-74.993145	13350

Dojo_1_MMA_Academy	A	43.051454	-75.271948	13413

Cavarino's_Pizzeria_&_Restaurant	B	43.078441	-75.114367	13340

Mangia_Macrina's_Wood_Fired_Pizza	B	43.040422	-74.859248	13365

Clinton_Senior_High_School	A	43.050827	-75.381617	13323

Western_Union	C	43.047007	-75.382867	13323

Super_8	B	43.077727	-75.644942	13421

St_John's_Episc_Church	A	43.089959	-75.648246	13421

Fastrac_Markets	C	43.13864	-75.275228	13403

Kirkpatrick_Daniel_P	A	43.027027	-74.987205	13350

Hearing_Health_USA	B	43.082678	-75.330003	13413

NY_Outdoor_Realty	C	43.052177	-75.367591	13323

CNY_Medicine_&_Allergy	A	43.245962	-75.453763	13440

Saint_Patricks_Cemetery	B	43.071771	-75.647883	13421

Cooperative_Magnetic_Imaging	A	43.092973	-75.278885	13413

Beardslee_Castle	B	43.00735	-74.744999	13365

Daniel_T_Dreimiller_CPA	A	43.07502	-75.289088	13413

Mohawk_Valley_Electronics	C	43.080979	-75.11681	13340

West_Park_Row_Salon	B	43.048405	-75.379062	13323

Polish_Nail_Spa	B	43.096467	-75.303008	13413

Valley_Gymnastic_Co	A	43.218883	-75.457355	13440

House_Of_Hair	B	43.082285	-75.32301	13413

Salty_Shamrock_LLC	B	43.02275	-74.98247	13350

Stone_Presbyterian_Church	A	43.047956	-75.378559	13323

Athmedics	C	43.218632	-75.435833	13440

The_Blend	B	43.095999	-75.652165	13421

New_Hartford_Retail_Center	C	43.090625	-75.32007	13413

Superior_Home_Health_Care	B	43.039081	-74.987357	13350

SUMO_Japanese_Restaurant	B	43.089884	-75.312703	13413

St_Elizabeth_Health_Support_Services	B	43.051204	-75.273686	13413

Southwestern_Christian_And_Missionary_Alliance_Church	A	43.296234	-75.472416	13440

Gas_Way	C	43.016875	-75.03851	13357

O'Callaghan_Sally_FNP	A	43.073576	-75.291774	13413

Big_Apple_Music	C	43.082539	-75.32411	13413

China_King_Chinese_Restaurant	B	43.096067	-75.652236	13421

Junior_Junction_Inc_At_St_Luke's_Memorial_Hospital_Center	A	43.094755	-75.277434	13413

Jimmy_D's_Pizza_Royale	B	42.465856	-73.392596	13357

Inn_Towne_Motel	B	43.028395	-74.986937	13350

First_Presbyterian_Church	A	43.213947	-75.455887	13440

The_Barker_Barber	C	43.040095	-75.670737	13421

Anthony_R_Tardugno_DDS	A	43.216161	-75.457533	13440

Berkshire_Bank	C	43.228548	-75.491063	13440

Central_Valley_Academy	A	43.008389	-75.038995	13357

China_Express_Sangertown	B	43.082687	-75.316251	13413

Ricky's_Tire_&_Auto_Center	C	43.227886	-75.491332	13440

Robert_A_Dicks_Jr	C	43.097264	-75.296912	13417

Kikko's_Koffee_House	E	43.257193	-75.461857	13440

Paul_M_Caruso_DDS_Caruso_Orthodontics	A	43.027333	-74.980011	13350

Silver_City_Tire	C	43.078477	-75.64459	13421

Dollar_General	C	43.102809	-75.66095	13421

Hannaford_Supermarkets	C	43.088202	-75.316425	13413

Ollie's_Bargain_Outlet	C	43.076641	-75.292167	13413

Nutrivite_com	A	43.091634	-75.66245	13421

Winner's_Circle_Pizzeria	B	43.093399	-75.644182	13421

Gigliotti's_Utica_Driving_School	A	43.027279	-74.980173	13350

Crestwood_Golf_Club	B	43.159004	-75.271218	13403

La_Galerie_Rouge	C	43.08378	-75.339507	13323

Harley's_Auto_Sales	C	43.261945	-75.462515	13440

Dunkin'	B	43.224416	-75.486319	13440

Karate_USA	A	43.074235	-75.288405	13413

Little_Falls_High_School	A	43.059056	-74.872056	13365

The_Salvation_Army	C	43.226364	-75.486784	13440

City_Cemetery	B	43.047001	-74.868043	13365

SunEast_Skyline_Solar_Project	E	43.063085	-75.45197	13323

Holy_Cross_Academy	A	43.092721	-75.630888	13421

Shu_Maker_Mountain_Climbers	A	42.977137	-74.823375	13365

Tractor_Supply_Co.	C	43.225301	-75.488032	13440

Trinity_Episcopal_Church	A	43.214513	-75.459041	13440

Walgreens	A	43.097787	-75.303493	13413

Ruff_Gordon_James_DDS	A	43.217564	-75.457051	13440

Allstate_Insurance	C	43.074353	-75.300191	13413

Veterans_Memorial_Park	B	43.212719	-75.45527	13440

Jenny_Nail_&_Spa	B	43.048333	-75.379718	13323

All_State_Professional_CAD_Service	C	43.062023	-75.224919	13413

Furino_Anthony_J_DDS_MSD	A	43.072537	-75.289384	13413

Lock_20_State_Canal_Park	B	43.133093	-75.256286	13403

Ridge_Mills_Elementary_School	A	43.241632	-75.439018	13440

Hawaiian_Holiday_Tanning_Salon	B	43.236868	-75.437044	13440

Pep_Boys	C	43.084407	-75.322781	13413

Subway	B	43.04839	-75.380991	13323

Ace_of_Diamonds_Jewelry	C	43.093748	-75.652551	13421

First_Source_Federal_Credit_Union	C	43.234823	-75.435976	13440

Madden_Timothy_J_Pt	A	43.083816	-75.293669	13413

Bethany_Gardens_Skilled_Living_Center	B	43.237012	-75.45217	13440

Budget_Mini_Storage	C	43.208245	-75.462467	13440

Slocum_Medical_Group_PC	A	43.027415	-74.983515	13350

The_Church_of_Jesus_Christ_of_Latter_day_Saints	A	43.257647	-75.461977	13440

Morey's_Diner	B	43.095241	-75.651191	13421

Walmart_Supercenter	C	43.095263	-75.312424	13413

Red_Lobster	B	43.086108	-75.316826	13413

Crystal_Waters_LMT	A	43.097137	-75.296859	13417

Visionworks	A	43.085426	-75.317907	13413

Chesterfield's_Tuscan_Oven	B	43.076085	-75.641859	13421

Liquor_Warehouse	C	43.229596	-75.494908	13440

Bostwick's_Liquor_Store	C	43.210973	-75.458428	13440

Amtrak	E	43.016883	-74.992135	13350

Rio_Grande_Tex_Mex_Grill	B	43.05202	-75.272527	13413

Lower_Cemetery	B	43.019293	-74.765441	13365

Hess_Cemetery	B	43.012569	-74.798779	13365

Hamilton_College	A	43.052061	-75.405237	13323

Walmart_Supercenter	C	43.078199	-75.69198	13421

Dunn's_Barber_Beauty_Shop	B	43.104974	-75.65587	13421

CVS	A	43.043374	-75.385594	13323

Sulphur_Springs_Golf_Course	B	42.976644	-75.305252	13456

First_Presbyterian_Church	A	43.013157	-75.0387	13357

Automotive_Rescue_Repair_&_Towing	C	43.042822	-74.860959	13365

Rome_Electronics_Repair	D	43.215846	-75.468821	13440

Delta_Plumbing_and_Building_Supplies	A	43.29663	-75.472507	13440

Gooldy_Samuel_K	A	43.07293	-75.287175	13413

Unique_Car_&amp_Motorcycle_Storage	C	43.130378	-75.24693	13403

Veterans_Memorial_Park	B	43.102197	-75.656812	13421

Ss_Peter_And_Paul_Russian_Orthodox_Church	A	43.029117	-74.957785	13350

The_Village_Barbershop	B	43.109558	-75.287609	13417

Spencer's	C	43.095299	-75.30618	13413

Witchley_Chiropractic_and_Acupuncture	A	43.216854	-75.474285	13440

Aspen_Plaza	C	43.087004	-75.313158	13413

Action_Ear_Hearing	B	43.078824	-75.316095	13413

Disposable_Gowns_Com	A	43.082697	-75.149679	13340

George_R_Staley_Upper_Elementary_School	A	43.210724	-75.442319	13440

Back_Nine_Restaurant_&_Sports_Bar	B	43.284981	-75.470612	13440

Mc_Craith_Beverages	C	43.095044	-75.296487	13417

Croad_Mary_Lou_Insurance_Agency	C	43.219242	-75.446911	13440

Long_John_Silver's	B	43.077912	-75.642005	13421

Smokers_Choice	C	43.044026	-74.856413	13365

Valley_View_Cemetery	B	43.060448	-75.617523	13421

St_Mary's_Church_Clinton	A	43.046006	-75.379793	13323

Dollar_General	C	43.219634	-75.448096	13440

Community_Recovery_Center_of_Rome	A	43.212799	-75.461112	13440

Custymize_Computer_Room	D	43.040369	-75.072785	13340

Silverado_Inn	B	43.019127	-74.983709	13350

Barnes_and_Noble	C	43.0952	-75.306218	13413

Walgreens	A	43.022083	-74.992091	13350

Sunoco	C	43.195438	-75.437943	13440

China_Inn	B	43.20899	-75.4532	13440

Nunn_and_Harper_Funeral_Home_Inc	B	43.217205	-75.457344	13440

Frankfort_Schuyler_Central_High_School	A	43.029962	-75.072612	13340

Clinton_Therapy_&_Testing_Center	A	43.08102	-75.400391	13323

Linda_Boehm_DMD	A	43.104773	-75.65308	13421

Madupu_Gangadhar_Md_Ms	A	43.231119	-75.443376	13440

Pandora	C	43.082278	-75.315525	13413

Ace_Auto_Repair	D	43.225552	-75.489369	13440

CARQUEST_Auto_Parts	C	43.021001	-75.034374	13357

Half_Pint_Academy_Child_Care_Center	A	43.080596	-75.369358	13323

Herkimer_County_ARC	A	43.021459	-74.982547	13350

Immaculate_Mobile_Detailing	D	43.113889	-75.645919	13421

Suburban_Propane	A	43.131823	-75.253462	13403

Norwich_Corners_Cemetery	B	43.016021	-75.211529	13456

Tony's	B	43.082689	-75.323227	13413

Rome_Taberg_Plaza	C	43.23884	-75.504707	13440

Holy_Spirit_Polish_Catholic_Cemetery	B	43.025125	-74.937389	13350

Shedeed_Reda	A	43.093115	-75.279204	13413

Panella's_Collision_&_Auto_Service	D	43.099022	-75.303035	13417

Mohawk_Valley_Women's_Health_Associates	A	43.231845	-75.440741	13440

Brian's_Body_Svce	D	43.206424	-75.455928	13440

Ravangard_Firooz_MD_PC	A	43.015997	-75.038873	13357

Precision_Auto_Restoration	D	43.043886	-74.973995	13350

Irish_Benjamin_Kathy_A	A	43.234408	-75.437865	13440

Faxton_St_Luke's_Healthcare_Rome	A	43.227019	-75.430008	13440

Wiggins_Park	B	43.226208	-75.467384	13440

Allen_Zuck_OD	A	43.076228	-75.2976	13413

Abandoned_Cemetery	B	43.047683	-75.138664	13340

Glenwood_Plaza	C	43.076984	-75.643335	13421

The_Reef_Room	C	43.221666	-75.455639	13440

Michelina's	B	43.244386	-75.455045	13440

Rosy_Nails	B	43.077432	-75.642351	13421

The_Fitness_Mill	B	43.097116	-75.296901	13417

Subway	B	43.055445	-75.271634	13413

Subway	B	43.044113	-74.856094	13365

Cazenovia_Equipment_Company	C	43.083841	-75.343244	13323

Marshalls	C	43.210776	-75.462879	13440

Napoleons_Cafe	B	43.095722	-75.651925	13421

Frankfort_Schuyler_Middle_School	A	43.02996	-75.072583	13340

Hertz	C	43.021664	-75.039009	13357

Wasabi_Wok_Chinese_&_Japanese_Food	B	43.053984	-75.278542	13413

Mill	B	43.2061	-75.445142	13440

Ashley_Furniture_HomeStore	C	43.140045	-75.2761	13403

Dyett_Park	B	43.260192	-75.466299	13440

ElderChoice	B	43.054315	-75.279202	13413

Gary's_Auto_Parts	C	43.089858	-75.671352	13421

Speedy_Awards_and_Engraving	C	43.083673	-75.327643	13413

Fort_Rickey_Game_Farm	B	43.224727	-75.547425	13440

Seniore's_Pizza	B	43.076265	-75.644001	13421

Connect_Medical_Products	C	43.078513	-75.644883	13421

Happy_Waffle	B	43.044283	-74.857405	13365

Johnny_Rae's	C	43.081345	-75.368553	13323

The_Photo_Shoppe_Fusion_Art_&_Gift_Gallery	C	43.276969	-75.46917	13440

Once_Upon_a_Child	C	43.083913	-75.327562	13413

Presbyterian_Homes_&_Service	B	43.073655	-75.341734	13413

Villas_of_Sherman_Brook	B	43.038685	-75.35901	13323

German_Flatts_Veterinary_Clinic	A	42.99788	-75.051969	13357

Peterpaul_Recreation_Park	A	43.227464	-75.517223	13440

Upper_Cut_Salon	B	43.216743	-75.471273	13440

Oneida_Castle_Village_Park	B	43.080784	-75.635578	13421

United_States_Postal_Service_(USPS)	C	43.139947	-75.276032	13403

Alterations_at_Barb's_&_Custom_Sewing	D	42.996471	-75.09684	13340

Jamrock's_Island_Breeze	B	43.023698	-74.988572	13350

GNC_(General_Nutrition_Centers)	A	43.082603	-75.315883	13413

Reilly's_Dairy	D	43.005598	-75.25569	13456

Larry_A_Rocco_Photography	A	43.219943	-75.453243	13440

Ace_Hardware	C	43.018541	-75.032075	13357

Quest_Diagnostics	A	43.230862	-75.437718	13440

Gardner_Cemetery	B	43.004617	-74.844408	13365

Presbyterian_Home_For_Central_New_York_Inc	B	43.072249	-75.341633	13413

Kalies_Collision	D	42.961997	-75.315594	13456

Superior_Car_Wash	D	43.135612	-75.261159	13403

Ole_Sal's_Cafe_and_Creamery	B	43.040453	-74.859254	13365

Oak_Hill_Cemetery	B	43.02262	-75.007811	13350

Paris_Town_Park	B	42.982451	-75.255028	13456

Remington_Federal_Credit_Union	C	43.015609	-75.037135	13357

The_Yoga_Studio	B	43.211977	-75.459678	13440

Claire's	C	43.081848	-75.315265	13413

Child_Health_Associates_of_Madison_County_MD_PC	A	43.075498	-75.640075	13421

Abdoo_Security_&amp_Automation	C	43.073549	-75.288422	13413

Furniture_Weekend	C	43.0275	-74.978757	13350

Gianni_Lauryn_Hair_Studio	B	43.046994	-75.273444	13413

Coughlin_Giambrone	B	43.091527	-75.276669	13413

Ferreiro_MD_Jorge_L_Dr	A	43.073167	-75.293532	13413

H&R_Block	A	43.039086	-74.865786	13365

Budlong_Cemetery	B	42.962621	-75.255855	13456

Health_Street	A	43.073144	-75.293521	13413

Piercing_Pagoda	C	43.082342	-75.315547	13413

Finish_Line_Autos	C	43.093491	-75.653346	13421

Big_Daddy_Sandwiches_Soups_&_Salads	B	43.215483	-75.452713	13440

Copper_City_Brewing_Company	D	43.204906	-75.431557	13440

State_Farm	C	43.025967	-74.984107	13350

Franklin_Field	B	43.224812	-75.447593	13440

Pawn_Pro	A	43.080008	-75.643187	13421

Catholic_Charities_Of_Herkimer_Coun_Ty	A	43.014156	-75.038898	13357

Rite_Aid	A	43.097044	-75.302518	13413

Metro_by_T_Mobile_Authorized_Dealer	C	43.210109	-75.462346	13440

Big_Jays_Pizzeria	B	43.137901	-75.27568	13403

Comstock_Cemetery	B	43.135841	-74.817521	13365

Maggie's_Cafe	B	43.214173	-75.454566	13440

Pawn_Stars_Rome	A	43.213375	-75.465243	13440

Kirkland_Prospect_Hill_Cemetery	B	43.033569	-75.449229	13323

Robert_L_Bradley_Elementary_School	A	43.070196	-75.285646	13413

Pat's_Tire_Service	C	43.213547	-75.467986	13440

Centrex_Clinical_Laboratories	A	43.027427	-74.983508	13350

Moose_River_Restaurant	B	43.094249	-75.284649	13413

Davis_Optical	A	43.230825	-75.441754	13440

Upstate_Auto_Sales	C	43.220793	-75.480858	13440

Mohawk_Oneida_Baptist_Association	A	43.013308	-75.037418	13357

Lynn_R_Henry_OD	A	43.015137	-75.036138	13357

Folts_Home	B	43.027011	-74.984228	13350

The_BBQ_bistro_restaurants	B	43.0912	-75.660913	13421

Carr_Cemetery	B	43.15776	-75.286372	13403

Marcy_Town_Center	C	43.139729	-75.276477	13403

State_Farm	C	43.018441	-75.042867	13357

Sauquoit_Valley_United_Methodist_Church	A	43.005094	-75.248904	13456

Cayuga_Bank	C	43.232639	-75.438949	13440

Cliff's_Local_Market	C	43.051949	-75.375064	13323

Sauquoit_Automotive_Sales_&_Service	C	42.995708	-75.256379	13456

Mastrangelo_John_J_DPM	A	43.218462	-75.45528	13440

Top_End_Automobile	D	43.017608	-75.013319	13350

Big_League_Haircuts	B	43.092259	-75.315586	13413

St_James_Church_Day_School	A	43.046772	-75.378432	13323

Adam_Sell_My_Home	B	43.225139	-75.464619	13440

Bill_Herrig's_Auto_Parts_&_Repair	C	43.217427	-75.547906	13440

First_Church_of_Christ_Scientist	A	43.09185	-75.648864	13421

CosmoProf	C	43.225003	-75.483795	13440

AP_Auto_Repair	C	43.204559	-75.463838	13440

City_Hall_Liberty_Plaza	B	43.211851	-75.459154	13440

Robertelli's_ABC_Driving_School	A	43.048512	-75.23367	13413

East_Schuyler_Automotive	D	43.044694	-75.060721	13340

Oneida_County_Cemetery	B	43.236485	-75.45412	13440

Western_Union	C	43.021652	-74.997258	13350

Starbucks	B	43.093943	-75.307747	13413

Ye_Olde_Pizza_Pub	B	43.076952	-75.611142	13421

Totally_Browtiful	B	43.047018	-75.273669	13413

Stewart's_Shops	C	43.016134	-75.033704	13357

All_Valley_Smiles	A	43.015151	-75.036261	13357

Trevisani_&_Laporte_Auto_Sales	C	43.095461	-75.298763	13417

Brimfield_Farm_Winery	D	43.050446	-75.335794	13323

New_Hartford_Town_Police_Department_New_Hartford_New_York	A	43.054848	-75.278784	13413

Aspen_Dental	A	43.093156	-75.306696	13413

Fashion_Nail_&_Pedicure_Spa	B	43.23656	-75.436811	13440

Subway	B	43.093784	-75.276415	13413

Benton_Hall_Academy	A	43.044044	-74.851923	13365

Paw_Prints_Pet_Boarding	B	43.036492	-75.077284	13340

CITGO	C	43.080296	-75.391532	13323

Perry_Junior_High_School	A	43.05856	-75.259815	13413

Zensations_Therapeutic_Massage	B	43.214888	-75.456384	13440

Dunkin'	B	43.017085	-74.802861	13365

Women's_Health_Associates	A	43.076509	-75.653524	13421

Saint_Marys_Cemetery	B	43.03401	-75.382773	13323

PROS_Clinic_Oneida	A	43.102279	-75.659534	13421

Side_Kicks_Family_Karate	A	43.240691	-75.438351	13440

Mary_Go_Round	C	43.096871	-75.650461	13421

La_Belle_Vie_at_311	B	43.214885	-75.457329	13440

Blueberry_Hill_Farms_&_Nursery	C	43.022626	-75.430756	13323

Western_Union	C	43.0435	-74.857931	13365

Edible_Arrangements	C	43.21337	-75.474217	13440

Eye_Glass_&_Contact_Lens_Center_of_Oneida	A	43.078975	-75.652742	13421

Shear_Image	B	43.217404	-75.475132	13440

Rent-A-Center	C	43.075668	-75.642966	13421

Northeast_Motors	C	43.133394	-75.257653	13403

Wilcor_International	C	43.08542	-75.119625	13340

Jean_Burgdorf_Piano_Lessons	C	43.237831	-75.456264	13440

Vintage_Spirits	C	43.023076	-74.988887	13350

Indian_Castle_Travel_Plaza	C	43.043478	-74.859466	13365

Frankfort_Village_Police_Department_Frankfort_New_York	A	43.0391	-75.069149	13340

Sitrin_Medical_Rehabilitation_Center	A	43.054965	-75.229967	13413

Chabad_At_Hamilton_Inc	A	43.048675	-75.392469	13323

American_Pie_Pizza_Subs_and_Catering	B	43.213515	-75.451927	13440

Happy_Valley_Farms	C	43.198982	-75.469195	13440

Trek_Store_of_New_Hartford	C	43.083924	-75.327596	13413

Franco's_Pizzeria	B	43.015952	-75.036266	13357

OneMain_Financial	A	43.087866	-75.31099	13413

Injoy_nails_&_spa	B	43.21983	-75.448109	13440

Western_Union	C	43.029689	-74.981287	13350

Nails_By_Tina	B	43.023866	-74.986679	13350

Ferdula_Landscape_Supply	C	43.041988	-75.064274	13340

Robert_E_Schulman_DDS	A	43.072269	-75.289183	13413

Mattress_Express_Oneida	C	43.076009	-75.641995	13421

Goodyear_Auto_Service_Centers	D	43.233872	-75.438033	13440

Portrait_Innovations	A	43.090492	-75.316584	13413

In_Touch_Therapeutic_Massage	B	43.045663	-74.858382	13365

Washworld	D	43.051958	-75.271146	13413

Full_Lotus_Yoga	B	43.205224	-75.456406	13440

Dans_Auto_repair	D	43.026336	-74.883366	13365

Crazy_Ottos_Empire_Diner	B	43.025565	-74.986384	13350

Mvcaa_Inc_Herkimer_Perc_Head_Start	A	43.030438	-74.984096	13350

Hematology_Oncology_Assoc_of_Cny_PC	A	43.231904	-75.440689	13440

Ella's_Room_Children's_Consignment	C	43.222253	-75.482295	13440

Visions_From_Above	C	43.025492	-74.984206	13350

Next_Level_Barber_Shop	B	43.082185	-75.323471	13413

College_Barber_Shop	B	43.048324	-75.379416	13323

Clinton_Cider_Mill	C	43.051177	-75.38357	13323

Joyfuls_Vintage_Designs	C	43.043204	-74.860155	13365

Mariah_Faith_at_Julie_Diehl_Salon	B	43.094386	-75.299566	13417

Texas_Roadhouse	B	43.084598	-75.320357	13413

Bill_Deyle's_Repair	D	43.005882	-75.076051	13357

Walmart_Supercenter	C	43.237384	-75.502196	13440

Jersey_Mike's	B	43.093934	-75.307707	13413

Yahnundasis_Golf_Club	B	43.083724	-75.307036	13413

Clifford_Fuel_Co_Mobil	C	43.240509	-75.437826	13440

Carol's_Crafts	C	43.22741	-75.490811	13440

Rizio_and_Calandra_Plumbing_Excavation	A	43.202941	-75.439629	13440

Sherwin-Williams	C	43.087506	-75.314371	13413

Northside_Collision	D	43.021654	-75.039052	13357

Subway	B	43.082087	-75.323069	13413

Furji_Sushi	B	43.076667	-75.643936	13421

Peking_Tokyo	B	43.094829	-75.299785	13417

Burrstone_Dairy_Isle	B	43.09418	-75.279869	13413

Kirley's_Auto_Care	D	43.09208	-75.635522	13421

Rome_Christian_Center_Inc	A	43.261239	-75.456445	13440

Tony's_Pizzeria	B	43.219934	-75.461914	13440

John's_Auto_Restoration	D	43.233206	-75.361912	13440

Garage_Gym	B	43.083661	-75.676103	13421

Planet_Fitness	B	43.076713	-75.64401	13421

Planned_Parenthood_Mohawk_Hudson	C	43.03393	-74.987924	13350

Holt_John_E_Rev	A	43.072992	-75.294399	13413

Hearts_Desire_Crafts_and_Gift_Shop	C	43.054401	-74.850479	13365

Rome_Memorial_Hospital	A	43.2349	-75.437506	13440

Salon_Moda	B	43.074561	-75.319878	13413

Whiter_Hendrix_Funeral_Home	B	43.012738	-75.037963	13357

YMCA	B	43.218672	-75.457238	13440

Four_Seasons_Pizza	E	43.139949	-75.276076	13403

Clinton's_Car_Wash	D	43.040196	-75.391489	13323

Sam's_Eats_&_Sweets	B	43.258644	-75.46138	13440

Judge_Pizza	B	43.079165	-75.644957	13421

Oneida_Healthcare_Center	B	43.078266	-75.651808	13421

D&D_Carpets_Of_Rome	C	43.20583	-75.443961	13440

Sunoco	C	43.093164	-75.653152	13421

St_Paul's_Roman_Catholic_Church	A	43.236132	-75.446887	13440

Seneca_Wine_and_Liquor	C	43.077088	-75.310336	13413

Baileys_Jamaican_Cuisine	B	43.096614	-75.650965	13421

Hilton_&_Powers_Cpa's_PC	A	43.072466	-75.289609	13413

Michael_pizza	B	43.077607	-75.64389	13421

Adirondack_Bank	C	43.020289	-75.046693	13357

Cliff's_Local_Market	C	43.09802	-75.301561	13417

Time_For_Me_Day_Spa	B	43.080988	-75.408864	13323

Migliori_Vincent_S	B	43.21496	-75.463219	13440

Hubbs_Auto_Services	D	43.092857	-75.65209	13421

Oneida_Podiatry_Group	A	43.091648	-75.650352	13421

EyeCare_Center_of_Rome	A	43.22018	-75.424111	13440

Uno_Pizzeria_&_Grill	B	43.091552	-75.314978	13413

Polish_National_Catholic_Church	A	43.046884	-74.854634	13365

Pizza_Boys	B	43.095244	-75.298295	13417

Cliff's_Local_Market	C	43.226602	-75.489815	13440

Heidelberg_Cafe	B	43.047219	-74.985205	13350

YMCA	B	43.093289	-75.275069	13413

Alvarez_Leslie_C	A	43.090272	-75.649601	13421

Five_Below	C	43.095511	-75.306899	13413

GPO_Federal_Credit_Union	C	43.016385	-75.036399	13357

Slocum_Dixon_Medical_Group_Allergy_Department	A	43.093083	-75.279201	13413

Frankfort_Free_Library	B	43.0362	-75.070553	13340

Street_Legal_NY	C	43.078983	-75.638661	13421

Big_Lots_Stores	C	43.075684	-75.643337	13421

State_Farm	C	43.095029	-75.304731	13413

Shaggy_Chic_Dog_Grooming	C	43.09353	-75.276665	13413

Sleep_Master_Mattress	C	43.228848	-75.491529	13440

The_Vigneto_Restaurant	B	43.209088	-75.453628	13440

United_States_Postal_Service_(USPS)	C	43.07653	-75.289479	13413

Butala_Atul_MD_F_A_C_P	A	43.231265	-75.443302	13440

Paint_and_Paste	C	43.035522	-75.072823	13340

Frankfort_Highland_Airport	E	43.015971	-75.16799	13340

Evangelical_Wesleyan_Church	A	43.225531	-75.536588	13440

Doty's_Golf_Course	B	43.004658	-75.053833	13357

Coolnails_Salon	B	43.082652	-75.318022	13413

Tuesday_Morning	C	43.076979	-75.29643	13413

Pinti_Field	B	43.208943	-75.442848	13440

The_Gas_and_Oil_Grill	B	43.076056	-75.641876	13421

Hobby_Lobby_Stores	C	43.087264	-75.314979	13413

O'Scugnizzo's_Pizzeria	B	43.207523	-75.450298	13440

Euphoria	B	43.050224	-75.408228	13323

Deep_Vapors	C	43.022139	-74.989625	13350

NYE_BUICK_GMC	C	43.076024	-75.681624	13421

BeeUtiful_Skin_Care_&_Waxing	B	43.069676	-75.343637	13413

The_Sneaker_Store	C	43.083234	-75.321283	13413

Affordable_Collision	D	43.229297	-75.492045	13440

Wendy's	B	43.080943	-75.319568	13413

Abin_Pachikara_&_Jane_Samson	A	43.073968	-75.296888	13413

Cece_Nails	B	43.234844	-75.501423	13440

Dream_City_Mattress	C	43.227222	-75.490484	13440

Oneida_Baptist_Church	A	43.092678	-75.650897	13421

Ilion_Lumber_Company	C	43.017536	-75.040981	13357

Brenda's_Natural_Foods	A	43.212423	-75.460476	13440

Mvcaa_Inc_Ilion_Head_Start	A	43.013732	-75.038988	13357

Access_Federal_Credit_Union	C	43.047454	-75.382429	13323

Accents_of_Hair_&_Fashion	B	43.218007	-75.453618	13440

Ilion_Fire_Department	A	43.015673	-75.036124	13357

Herb_Philipson's_Herkimer	C	43.024464	-74.989206	13350

Iroquois_Travel_Plaza	C	43.017463	-74.802365	13365

Women's_Counseling_Service	A	43.062645	-75.303587	13413

Falbo's_Garage	D	43.048041	-75.392506	13323

Steve's_Custom_Jewelry_&_Repair	C	43.013927	-75.036916	13357

Origlio's_Wagon_Wheel_Restaurant	B	43.093521	-75.651289	13421

Midland_Collision	C	43.080795	-75.296793	13413

Plan_B_Emergency_Preparedness	C	43.277159	-75.470073	13440

Ferguson_Cemetery	B	43.087656	-75.16591	13340

Saints_Peter_And_Paul_Orthodox_Cemetery	B	43.026882	-74.943541	13350

Walmart_Supercenter	C	43.022569	-74.99379	13350

Joseph_Capanna_Farms	C	43.187914	-75.336019	13440

Western_Union	C	43.097097	-75.30247	13413

James_Carroll_LCSWR	A	43.092394	-75.650761	13421

Holland_Heights_Golf_Course	B	43.051894	-75.00183	13350

Central_New_York_Developmental_Disabilities_Services_Office	A	43.237468	-75.453329	13440

Holy_Family_Parish	A	43.043711	-74.853057	13365

KFC	B	43.022113	-74.993238	13350

Herkimer_County_Boces_Educational_Complex	B	43.039003	-74.964405	13350

The_Orchard	C	43.091607	-75.314415	13413

Gems_Along_The_Mohawk	C	43.016891	-74.995988	13350

Wendy's	B	43.212688	-75.465431	13440

Enterprise_Rent-A-Car	C	43.078279	-75.648378	13421

Floyd_Town_Park	B	43.224604	-75.33647	13440

Transitions_Studio	B	43.236589	-75.436897	13440

HomeGoods	C	43.083091	-75.316935	13413

Peck_Jeffrey_A_DDS	A	43.21614	-75.457548	13440

Herkimer_Veterinary_Assocs	A	43.01919	-74.990569	13350

SunEast_Watkins_Road_Solar_Project	E	43.061267	-75.055842	13340

Katherine_Luther_Residential_Hlth_Care_&_Rehab	B	43.056303	-75.364344	13323

Minar_Fine_Indian_Cuisine	C	43.091819	-75.277617	13413

Rome_Sand_Plains_Unique_Area	B	43.191251	-75.507457	13440

Campione_Water_Co	C	43.021286	-74.981067	13350

Victory_Chrysler_Dodge_Jeep_Ram	C	43.234596	-75.499925	13440

Stewart_A_Bruce_Dntst	C	43.090707	-75.648727	13421

Tops_Friendly_Markets	C	43.210316	-75.462447	13440

Rollin'_Bowlz_Acai	B	43.082597	-75.323992	13413

Trace's	B	43.20489	-75.431544	13440

Fisher_Auto_Parts	C	43.132448	-75.252556	13403

Uncles_Tavern	B	43.102198	-75.293912	13417

Family_Video	C	43.215801	-75.452309	13440

Village_Green	B	43.048381	-75.379377	13323

Nye_Automotive_Group	D	43.0758	-75.683964	13421

Lowe's	C	43.09074	-75.320666	13413

Rome_Nail_&_Spa	B	43.230625	-75.43778	13440

Clinton_Arena	B	43.053792	-75.376905	13323

PK's_Pub	B	43.025471	-74.981044	13350

Acchino_Auto_Body	D	43.221874	-75.424267	13440

Music_Video_Game_toys	C	43.077632	-75.643913	13421

Salon_Echo	B	43.223859	-75.484674	13440

Furji_Fire_House_Sushi	B	43.076504	-75.644038	13421

The_Piano_Lab	C	43.048047	-75.380704	13323

The_Phoenician_Restaurant	B	43.092948	-75.276656	13413

Rome_orthodontics	A	43.214592	-75.461485	13440

Gordon_David_C	A	43.092425	-75.651506	13421

Sprint	C	43.081879	-75.321958	13413

Mavis_Discount_Tire	D	43.098386	-75.302574	13417

Louis_V_Denti_Elementary_School	A	43.23281	-75.463121	13440

Yetty's	B	43.024376	-74.985616	13350

Adirondack_Vapor	C	43.22046	-75.44763	13440

Jda_Management	C	43.039528	-75.07108	13340

PS_Insurance_Shopper	C	43.061064	-75.272122	13413

Exxon_Mobil	C	43.217111	-75.437671	13440

Oneida_Senior_High_School	A	43.081006	-75.654015	13421

Slocum_Dickson_Medical_Group_PC	A	43.093089	-75.279202	13413

Church_Street_Schools_Out	A	43.029092	-74.988931	13350

Utica_Partners_LLC	A	43.075672	-75.642858	13421

The_Garage	B	43.231926	-75.442596	13440

Shoe_Dept_Encore	C	43.095439	-75.309432	13413

Anatomy_In_Motion	B	43.050055	-75.379199	13323

Zoom_Tan	B	43.079995	-75.643283	13421

Klockowski_Richard_J_DDS	A	43.21503	-75.458789	13440

Absolute_Foot_Care	A	43.215703	-75.454126	13440

Medical_Laser_Therapeutics	A	43.072954	-75.287187	13413

Peter's_Cornucopia	A	43.077191	-75.295671	13413

Love_Bites_Bakery	E	43.054692	-75.271805	13413

Davi_Nails	B	43.022547	-74.99378	13350

HBE_Group	C	43.030279	-74.982854	13350

Dutchtown_Ace_Hardware	C	43.085743	-75.081123	13340

St_James_Episcopal_Church	A	43.046769	-75.378453	13323

The_New_Testament_Church	A	43.215429	-75.466497	13440

Bonomo's_Dari_Creme	B	43.078266	-75.384925	13323

Pedro's_Kitchen	B	43.087846	-75.311167	13413

Hair's_the_Deal	B	43.047716	-75.377573	13323

Denny's	B	43.209869	-75.45915	13440

Subway	B	43.082348	-75.315546	13413

Alexander_Home_Supply	C	43.13594	-75.278538	13403

SavOn	C	43.040893	-75.62301	13421

Frankfort_Schuyler_Elementary_School	A	43.027438	-75.071284	13340

Citizens_Bank	C	43.077612	-75.641985	13421

Dave_Kinney's_Auto_Body	D	43.078194	-75.648416	13421

Lutheran_Care	A	43.056281	-75.364341	13323

CITGO	C	43.226404	-75.48969	13440

Rusty_Nail_Grill	B	43.08143	-74.933013	13365

Acme_Pool	C	43.219836	-75.448107	13440

Harley_Davidson	C	43.099112	-75.300576	13417

Colonial_Laundromat	E	43.017064	-75.034897	13357

Cochran_Memorial_Presbyterian_Church	A	43.079928	-75.634861	13421

Capital_Cash_Gold_Exchange	A	43.039548	-75.070961	13340

Efk_Plaza	C	43.02727	-74.979955	13350

Greyson_Ross_Acupuncture	A	43.047673	-75.378127	13323

Cycle_Shack_Cars	C	43.225985	-75.488861	13440

Cliff's_Local_Market	C	43.005644	-75.25582	13456

Torrid	C	43.082274	-75.316078	13413

Rent-A-Center	C	43.025875	-74.985619	13350

Rome_Country_Club	B	43.253693	-75.533657	13440

Western_Union	C	43.226426	-75.487804	13440

Worosylo_Greenhouses_&_Flower_Shop	C	43.091419	-75.298293	13417

Ravenswood_Comics_Baseball_Cards	C	43.082062	-75.323138	13413

City_of_Rome	A	43.219499	-75.462938	13440

Twin_Ponds_Golf_&_Country_Club	B	43.104459	-75.282377	13417

Tony's_Pizzeria_&_Deli	B	43.213513	-75.451942	13440

New_Testament_Church	A	43.191648	-75.440789	13440

Cloud_Giant	C	43.08216	-75.323385	13413

Granny's_Kitchens	E	43.079239	-75.179118	13340

Fashion_Nails_&_Hair_Salon	B	43.087643	-75.31132	13413

Little_Caesars	B	43.090978	-75.661674	13421

Subway	B	43.020621	-74.991144	13350

McDonald's	B	43.04398	-75.385109	13323

Carpet_One_Floor_&_Home	C	43.092213	-75.643414	13421

Motel_6	B	43.010388	-75.021426	13357

Hannaford_Supermarkets	C	43.041994	-75.387076	13323

Wright's_Hardware_Bike_Video	C	43.042747	-74.859196	13365

Delta_Cemetery	B	43.248815	-75.452096	13440

Melone's_Tire_Shop	C	43.21297	-75.466577	13440

VCA_Animal_Hospitals	A	43.084194	-75.291977	13413

Steve_Kotary_General_Contractor	C	43.219986	-75.324985	13440

Maple_Hill_Creamery_&_Market	B	43.11253	-74.949553	13365

Chipotle_Mexican_Grill	B	43.095459	-75.305864	13413

Tops_Plaza	C	43.080152	-75.643372	13421

Caribbean_Restaurant	B	43.213737	-75.464398	13440

Rome_Foursquare_Church	A	43.251939	-75.458869	13440

Clinton_Middle_School	A	43.049642	-75.382371	13323

Subway	B	43.226264	-75.489101	13440

Lock_20_State_Canal_Park	B	43.142915	-75.290834	13403

Oneida_Pediatrics_Group_PC	A	43.088126	-75.647126	13421

Circle_K_Gas	C	43.038572	-74.866157	13365

Smoke_and_Vapor	C	43.089806	-75.312438	13413

Palumbo_Mozloom_Joanne_OD	A	43.077558	-75.338174	13413

Autum_Leigh_Rotach_LAc_Dipl_Ac	A	43.073061	-75.296478	13413

Little_Caesars	B	43.210387	-75.453161	13440

Mobil	C	43.015761	-74.802762	13365

Clinton_Road_Baptist_Church	A	43.071811	-75.328655	13413

Ritter_Marc_Physician	A	43.014598	-75.266828	13456

Temple_Beth_Joseph	A	43.027782	-74.990989	13350

Supercuts	B	43.076085	-75.642058	13421

Apr_Travel	B	43.095065	-75.304731	13413

New_2_You_Consignments	C	43.015749	-75.036479	13357

Graffenburg_Cemetery	B	43.037564	-75.205172	13413

Tony's_Lounge	B	43.039071	-75.072393	13340

Mike's_Towing_&_Auto_Repair	C	43.228934	-75.491815	13440

New_York_State_Police_Department	A	43.144311	-75.29021	13403

Marks_Lawrence_B_PC	A	43.072953	-75.287198	13413

El_Canelo_Restaurant	B	43.076185	-75.641512	13421

Rite_Aid	A	43.212852	-75.466189	13440

Humane_Society_of_Rome	C	43.186567	-75.475823	13440

Mangia_Macrina's_Wood_Fired_Pizza	B	43.077135	-75.309979	13413

Slocum_Dickson_Medical_Group	A	43.093132	-75.279209	13413

Previte_Chiropractic_Center	A	43.217054	-75.474563	13440

Christ_Church	A	43.219563	-75.32732	13440

Lehman_Park	B	43.035266	-75.077959	13340

Mohawk_Valley_Refinishing_&_Upholstery	D	43.016317	-75.034751	13357

Bargain_Price_Auto_Glass	D	43.205242	-75.422935	13440

Party_City	C	43.085593	-75.320255	13413

Cynthia_I_Davis_LCSW_R	A	43.0927	-75.312866	13413

Finish_Line_Auto	C	43.204693	-75.456916	13440

Zumiez	C	43.082926	-75.31539	13413

Synergy_Communications_Systems	C	43.046544	-75.266513	13413

Nail_&_Hair_Enterprise_by_Trina	B	43.077133	-75.296313	13413

Delft_Blue	C	43.104831	-75.295367	13417

Disposable_Gowns	C	43.082686	-75.149697	13340

KFC	B	43.078465	-75.642838	13421

Dr_John_M_Syrotynski_Chiropractic	A	43.073698	-75.293184	13413

Carbone_Auto_Group	C	43.103847	-75.299043	13417

NBT_Bank	C	43.220822	-75.447412	13440

Miners_Table	B	43.127504	-74.976955	13350

Shatter_and_case	D	43.082591	-75.31461	13413

New_York_Mills_Senior_Center	B	43.10565	-75.292045	13417

Perfect_Eyebrow_Threading	B	43.081543	-75.31502	13413

Oneida_Healthcare_Ctr_Physical_Therapy_Outptnt_Dpt	A	43.092397	-75.651707	13421

Little_Falls_City_of_Veteran's_Park	B	43.044234	-74.847697	13365

Joe_Tahan's_Furniture	C	43.075769	-75.288672	13413

Milan_Laser_Hair_Removal	B	43.091603	-75.314081	13413

St_Peter's_Roman_Catholic_Church	A	43.212173	-75.455496	13440

Applebee's	B	43.093541	-75.30793	13413

Pediatric_&_Adolescent_Medical_Associates	A	43.212274	-75.458004	13440

New_Hartford_Chiropractic_Associates	A	43.072949	-75.28721	13413

Rosinski_Judith_M	A	43.110161	-75.28692	13417

Basloe_Frank_J_Library_of_Herkimer	B	43.027561	-74.988645	13350

New_London_Food_Mart	C	43.210542	-75.588446	13440

Lenox_Auto_Center	C	43.092332	-75.641968	13421

Carmen_Caramanica_Music_Instruction_Studios	C	43.07313	-75.28915	13413

Tucciarone_Michael	A	43.040691	-75.391308	13323

Tri_County_Medical	A	43.231591	-75.442001	13440

Roll_Roll_ice_Cream	B	43.082589	-75.314612	13413

Harmon_Field	B	43.093315	-75.663237	13421

Woodforest_National_Bank	C	43.022571	-74.993809	13350

Moore_Ronald_DC	A	43.21663	-75.456015	13440

Bible_Baptist_Church	A	43.08151	-75.331623	13413

Long's_Auto_Elec	D	43.21325	-75.466917	13440

The_Blend	B	43.232867	-75.497917	13440

Colianni_John_P	A	43.015872	-75.037963	13357

Oneida_nails_&_spa	B	43.094255	-75.650837	13421

Cooley_Group	E	43.097263	-75.296938	13417

Allstate_Insurance	C	43.220022	-75.447773	13440

Anken_Mark_C_Dr_Chiropractor	A	43.242838	-75.455555	13440

VarilityX3	A	43.054889	-75.414437	13323

Luxury_Nails_2	B	43.027772	-74.979268	13350

Vinny's_Pizzeria	B	43.023391	-74.989937	13350

Allstate_Insurance	C	43.093341	-75.276344	13413

Clinton_Tractor_and_Implement_Co	C	43.044864	-75.383816	13323

Nunn's_Home_Medical_Equipment	C	43.221765	-75.421648	13440

Eaton's_Bush_Cemetery	B	43.080905	-74.931544	13365

Arizona_Tacos	B	43.215095	-75.46719	13440

Michael's_Greenhouse	C	42.997002	-75.255641	13456

Hughes_Elementary_School	A	43.061128	-75.258599	13413

Battista_Denny_J_DO	A	43.081892	-75.365827	13323

Bravos_Machine_Shop_&_Auto_Repair	C	43.216222	-75.470286	13440

Dollar_General	C	43.075582	-75.297535	13413

Francos_Pizza	B	43.015962	-75.036254	13357

T_Mobile_Authorized_Retailer	C	43.082808	-75.315602	13413

Laserspa	B	43.091558	-75.276709	13413

VCA_Animal_Hospitals	A	43.054023	-75.272075	13413

Le_Jardin_Cafe	B	43.244387	-75.455076	13440

Cynthia_Dave	A	43.092521	-75.312658	13413

Saint_John's_Cemetery	B	43.178258	-75.013857	13440

Dr_John_J_Costello_Jr	A	43.078946	-75.652723	13421

USA_Auto_Glass_Repair	D	43.205138	-75.423001	13440

River_Of_Life_Outreach_Center	A	43.023252	-74.983105	13350

Estate_at_169	B	43.107234	-75.282663	13417

Floyd_Fire_Department	A	43.220102	-75.332437	13440

Burger_King	B	43.079195	-75.645579	13421

Black_River_Wine_&_Spirits	C	43.220614	-75.447466	13440

Relaxing_Center	B	43.082871	-75.315258	13413

Suzuki	C	43.091335	-75.660972	13421

Mayflower_Chinese_Restaurant	B	43.230827	-75.437746	13440

John_Latini_Salon	B	43.053135	-75.276296	13413

Bruce_DDS	A	43.09069	-75.648806	13421

The_Savoy_Restaurant	B	43.208647	-75.45237	13440

AAA_Promotional_Signs	C	43.208724	-75.47484	13440

One_Realty_Partners	C	43.077167	-75.294098	13413

The_Italian_Chef	B	43.072964	-75.288133	13413

Heads_R_Turning_Spa	B	43.016595	-75.035201	13357

Mohawk_Valley_Community_College_Rome_Campus	A	43.219559	-75.42912	13440

Primo_On_The_Greens	B	43.141056	-75.707727	13421

Health_Street	A	43.210713	-75.458006	13440

Burger_King	B	43.230364	-75.438857	13440

Little_Learners_On_Campus	A	43.238998	-75.453869	13440

Green_n_Wave	B	43.082387	-75.314973	13413

Burrstone_Energy_Center	E	43.096606	-75.276185	13413

Herb_Philipson's_Rome	C	43.235895	-75.437782	13440

Inghams_Mills_Baptist_Church	A	43.054411	-74.764821	13365

Day_&amp_Read_Insurance_Services	C	43.220026	-75.425801	13440

LabCorp	A	43.073161	-75.293514	13413

Melo_Larry_J_DDS	A	43.027596	-74.989734	13350

Domino's_Pizza	B	43.022946	-74.988779	13350

Western_Union	C	43.210121	-75.462332	13440

Marisa_D'Ambro_Artistry	B	43.140059	-75.276043	13403

Kevin's_Bistro	B	43.039716	-75.071207	13340

John_D_Mecca_DDS_PC	A	43.072993	-75.296378	13413

Guyer_Field	B	43.226931	-75.460711	13440

rue21	C	43.210568	-75.46261	13440

The_Gun_Barn	C	43.034734	-75.065525	13340

Little_Falls_Veterinary_Clinic	A	43.101741	-74.771292	13365

Marcy_Discount_Beverage_Center_Inc	C	43.137837	-75.274456	13403

GPO_Federal_Credit_Union	C	43.074498	-75.342836	13413

Five_Corners_Auto_Parts	C	43.07605	-75.685404	13421

Snubbing_Post_Restaurant	B	43.260006	-75.439684	13440

Jervis_Public_Library	B	43.218657	-75.45404	13440

Downown_Sushi_Opening_Soon	B	43.096071	-75.6523	13421

Luigis_Italian_Cuisine	B	43.215383	-75.453597	13440

Old_McMarley's_Apple_Farm	C	43.050205	-75.355854	13323

Copper_Moose_Ale_House	B	43.04363	-74.859187	13365

Infinity_Tree_Energy_Healing_and_Wellness	A	43.069946	-75.286781	13413

Crazy_Williez_Brewery	D	42.985066	-75.106809	13357

DeSalvo's	E	43.215081	-75.453779	13440

Tom's_Autobody	D	43.026366	-74.883344	13365

Creekside_Inn	B	43.096039	-75.62492	13421

United_States_Postal_Service_(USPS)	C	43.014861	-75.037414	13357

Roma_Sausage	B	43.052612	-75.272326	13413

Ollie's_Outlet	C	43.076632	-75.292184	13413

KOA_(Kampgrounds_of_America)	E	43.128804	-74.974706	13350

Reimagine_Records	C	43.084024	-75.319374	13413

National_Lube_Express	D	43.078631	-75.644074	13421

St_Francis_De_Sales_Church_Hall	A	43.025796	-74.991505	13350

WellNow_Urgent_Care	A	43.078667	-75.641563	13421

Trail_Styling_Salon	B	43.07626	-75.61952	13421

Conservative_Baptist_Association_Of_America	A	43.05658	-75.259863	13413

Geraty_Pools_&_Spa_Inc	C	43.021114	-74.992364	13350

The_Avenue	C	43.084449	-75.327485	13413

I_Ramen_Bar	B	43.078375	-75.292589	13413

Iocovozzi_V_J_Funeral_Home	B	43.035097	-75.071194	13340

Big_Papi's_Coquito_Iceys	E	43.09006	-75.302139	13417

Trunk_n_treasures	C	43.216587	-75.468877	13440

Toccolana_Club	B	43.204265	-75.432065	13440

Joe_Tahan's_Furniture	C	43.207778	-75.463545	13440

Illustrated_Studios	B	43.22179	-75.481891	13440

Low_Priced_Auto	C	43.208008	-75.451481	13440

Sipe_Financial_Group	C	43.047688	-75.378088	13323

Honey_Brook_Hobbies	C	43.014694	-75.035467	13357

Clinton_Manor_Apartments_Housing_Development_Fund_Company_Inc	A	43.040742	-75.386512	13323

AT&T	C	43.095435	-75.309626	13413

Tuxedo_by_Sarno	C	43.082872	-75.315661	13413

Bridenbecker_Sales_&_Service	C	43.142445	-75.287519	13403

Advance_Auto_Parts	C	43.233837	-75.436333	13440

Precision_Unlimited_Carcare	D	43.079914	-75.390144	13323

Rome_Catholic_School	A	43.237974	-75.452034	13440

Cafe_Divino	B	43.215135	-75.453799	13440

New_Hartford_Recreation_Center	B	43.071731	-75.285404	13413

Dollar_Tree	C	43.075962	-75.644007	13421

Nuccio_Chiropractic	A	43.224865	-75.455062	13440

Subway	B	43.015764	-75.034804	13357

Merrill's_Restaurant	B	43.18445	-75.333045	13403

State_Bowling_Center	B	43.015474	-75.034651	13357

Laser_Center_of_Central_New_York	A	43.232011	-75.440606	13440

Ed_&_Bud's_Bar_&_Grill	B	43.043166	-74.860279	13365

St_Marys_Ukrainian_Orthodox_Church	A	43.024436	-74.978504	13350

Mini_Falls_Miniature_Golf	B	43.137631	-75.265969	13403

Whisper_Wind_Equestrian_Center	B	43.122628	-75.481504	13440

Hospice_Oneida	B	43.092424	-75.651349	13421

Captain_Samuel_Maytan_Fishing_Access_Site	B	43.018491	-74.978438	13350

Remington_Firearms_Museum_And_Country_Store	B	43.013391	-75.03374	13357

BAIRD_/_Hilliard_Lyons	A	43.09052	-75.279908	13413

Oneida_Medical_Associates	A	43.077251	-75.652487	13421

Urbanke_Insurance	C	43.036769	-75.068505	13340

M&T_Bank	C	43.094267	-75.306877	13413

Francesca's	C	43.082342	-75.315739	13413

Time_Warner_Cable_Enterprises_Martino	E	43.182534	-75.430305	13440

Western_Union	C	43.212909	-75.466378	13440

CITGO	C	43.053362	-75.272035	13413

Western_Union	C	43.014582	-75.036525	13357

Bremer's_Wine_and_Liquor	C	43.089387	-75.310721	13413

Insure_One_Insurance_Agency	C	43.028114	-74.978049	13350

New_York_Mills_Junior_Senior_High_School	A	43.092406	-75.291178	13417

A_Buyer_of_Gold_and_Silver	C	43.074224	-75.287622	13413

Thompson_Appliances_&_Furniture	C	43.235688	-75.50106	13440

Super_Sport_Parts	C	43.143725	-75.4396	13440

Woody's_Ice_Cream_Place	B	43.023081	-74.988919	13350

Herkimer_Bowling_Center	B	43.020208	-74.992498	13350

Sauquoit_Valley_Middle_School	A	42.987955	-75.254728	13456

Hannaford_Supermarket	C	43.078317	-75.689559	13421

First_Baptist_Church	A	43.013375	-75.037575	13357

Forget_Me_Not	B	43.020365	-74.993617	13350

The_Liquor_Loft	C	43.053952	-75.278449	13413

Staples	C	43.095415	-75.308206	13413

Dominick's_Deli	C	43.02527	-74.987074	13350

Verizon_Wireless	C	43.096507	-75.303026	13413

Harmon_Field	B	43.023231	-74.99797	13350

Bloom_Yoga_&_Wellness	B	43.062432	-75.602979	13421

Sage_Truck_Driving_School	A	43.220186	-75.42692	13440

Black_River_Blvd_Shopping_Center	C	43.219638	-75.447789	13440

Saving_Time	C	43.041655	-74.856342	13365

Ferlo's_Orignal_Bakery	E	43.214127	-75.44713	13440

Great_Rentals	C	43.02712	-74.987175	13350

Robinson_Kenneth_DMD_MS	A	43.23128	-75.440378	13440

Berkshire_Bank	C	43.081207	-75.320559	13413

Nye_Chrysler_Dodge_Jeep_Ram	C	43.076986	-75.687005	13421

Vision_Center	A	43.075575	-75.690901	13421

Mohawk_Valley_Church	A	43.138035	-75.263916	13403

KFC	B	43.080136	-75.319767	13413

Prop's_Inn	B	43.074776	-75.299423	13413

Madison_Square_Barbershop	B	43.095635	-75.6518	13421

Fastenal	C	43.205031	-75.425503	13440

Francis_Baggetta_Optician	A	43.026322	-74.991442	13350

Park	B	43.043604	-74.861191	13365

Nook_and_Cranny	C	43.093704	-75.652461	13421

H&M_(Hennes_&_Mauritz)	C	43.082503	-75.314586	13413

Oneida_Savings_Bank	C	43.080111	-75.641954	13421

Premier_Towing_&_Recovery	C	42.974061	-75.03667	13357

Catholic_Daughters_Of_The_Americas	A	43.09654	-75.649989	13421

Jumbo's_Restaurant	B	43.078003	-75.665129	13421

Slocum_Dickson_Medical_Group	A	43.019417	-75.0469	13357

Roy_Rogers	B	43.015721	-74.803562	13365

Allstate_Insurance	C	43.039105	-74.98757	13350

Community_Co_Op	A	43.043507	-74.855823	13365

Glassy_Business_Window_Tinting	D	43.101514	-75.294388	13417

Little_Falls_Municipal_Golf_Course	B	43.061362	-74.859601	13365

Samad_Naeem_F	A	43.015899	-75.037919	13357

Central_New_York_Physiatry_PC	C	43.073071	-75.296492	13413

Stokes_Elementary_School	A	43.300119	-75.474912	13440

Berkshire_Bank	C	43.042978	-74.859695	13365

Great_Northern_Trading_Co	B	43.12791	-75.238736	13403

Ace_Hardware	C	43.034115	-74.870892	13365

Unique_Flower_&_Gift_Boutique	C	43.093661	-75.652413	13421

M&T_Bank	C	43.006853	-75.256717	13456

Fort_Stanwix_National_Monument	B	43.211804	-75.454721	13440

Jobready_Physical_Therapy	A	43.072714	-75.286801	13413

Schillaci_Insurance_Agency	C	43.216138	-75.454029	13440

Prescription_Service_Pharmacy	A	43.212897	-75.458899	13440

Franks_Guns	C	43.140934	-75.28542	13403

The_Boys_From_Italy	B	43.212724	-75.460936	13440

Health_Street	A	43.083927	-75.327588	13413

New_Hartford_Farmers_Market	C	43.067126	-75.320445	13413

Kannan_Arul	A	43.073167	-75.293498	13413

J_J_Automotive_Services	D	43.004102	-75.260097	13456

Lennox_Bros_Pharmacists	A	43.015491	-75.036942	13357

Blood's_Cycle_Shop	C	43.273275	-75.509731	13440

Rome_Memorial_Hospital	A	43.212815	-75.461145	13440

Mohawk_Vly_Plastic_&_Reconstructive_Surgery	A	43.08243	-75.296067	13413

1_800_GOT_JUNK_Utica_Rome	E	43.132446	-75.252481	13403

Weight_Watchers	B	43.043175	-74.857026	13365

Duncan_Mobile_Wash	D	43.180553	-75.381794	13440

Pleasant_Knolls_Golf_Course	B	43.097772	-75.570184	13421

Piggy_Pat's_Smoke_&_Ale_House	B	43.054662	-75.273385	13413

KeyBank	C	43.075749	-75.295728	13413

Central_New_York_Optometry	A	43.075966	-75.297461	13413

Kosar_John_P_Dr	A	43.218175	-75.459389	13440

Limited_Too	C	43.081061	-75.315438	13413

Marshalls_&amp_HomeGoods	C	43.077126	-75.643846	13421

Wingstop	B	43.088525	-75.311688	13413

Snyder's_Sales_&_Service	C	43.026731	-74.944697	13323

Walsh_Michael	A	43.05393	-75.270985	13413

Oneida_County_DMV_Office_Rome	A	43.212739	-75.46221	13440

Travelodge	B	43.042071	-74.859564	13365

O'Connor_Realty	C	43.217012	-75.457005	13440

Leila_Kirdani	A	43.091572	-75.276696	13413

Cajun_Cafe	B	43.082372	-75.315608	13413

Jack_Kunkel's_Revolutionary_Wellness	B	43.091538	-75.276681	13413

Ahluwalia_Prabhat_K	A	43.04421	-74.847491	13365

Cliff's_Local_Market	C	43.093689	-75.276151	13413

True_Value_Hardware	C	43.025666	-74.985945	13350

Lombino's_Mkt	C	43.216183	-75.441963	13440

Shakowi_Cultural_Center	C	43.057464	-75.636184	13421

Hiller_Street_Cemetery	B	42.999765	-75.314621	13456

McDonald's	B	43.078904	-75.650898	13421

Susan's_Lee_Terrace_Beauty_Salon	B	43.295668	-75.470594	13440

Mazzaferro's_Meats_&_Deli	C	43.248539	-75.441626	13440

CITGO	C	43.040407	-75.072761	13340

Little_Falls_Public_Library	B	43.044276	-74.853962	13365

CVS	A	43.083417	-75.315725	13413

St_Francis_De_Sales_Regional	A	43.025708	-74.992165	13350

Colonial_Self_Storage	C	43.242375	-75.52859	13440

Great_Wall_Buffet	B	43.043539	-74.857976	13365

North_Glenview_Eddy_Park	B	43.256232	-75.451232	13440

Herkimer_Village_Police_Department_Herkimer_New_York	A	43.026922	-74.986089	13350

Delta_Lake_Inn	B	43.274794	-75.431168	13440

Christian_Assembly_Church	A	43.026743	-74.944708	13340

Golf_Shack	B	43.081075	-75.315425	13413

North_Broad_Street_School	A	43.098205	-75.655976	13421

New_Life_Church_&_Ministry_Center	A	43.023997	-74.976081	13350

Oneida_City_Hospital	A	43.076834	-75.654595	13421

The_Dental_Office	A	43.083241	-75.321733	13413

Oneida_Music	C	43.07857	-75.643598	13421

Rent-A-Center	C	43.235527	-75.437256	13440

Cricket_Wireless	C	43.027898	-74.978705	13350

Monro	D	43.237342	-75.50536	13440

The_Church_of_Jesus_Christ_of_Latter_day_Saints	A	43.035959	-74.961355	13350

Walgreens	A	43.20909	-75.458487	13440

Catholic_Daughters_Of_The_Americas	A	43.017239	-75.032029	13357

Big_Willy's_Pizzeria	B	43.039024	-75.070439	13340

Jonny_B's_Tavern	B	43.218925	-75.335556	13440

Zoom_Tan	B	43.086456	-75.316949	13413

Simmer	B	43.074222	-75.288392	13413

Mohawk_Valley_Funerals_&_Cremations	B	43.037997	-74.819852	13365

St_Patrick's_Thrift_Shop	C	43.232106	-75.442419	13440

Real_Deal_Auto_Detailing_&_Rustproofing	D	43.215642	-75.468309	13440

Mountainside_Medical_Equipment	C	43.151164	-75.292769	13403

Cafe_Canole	B	43.074288	-75.28821	13413

Footlocker	C	43.082676	-75.318057	13413

Rome_Medical_Pediatrics	A	43.234334	-75.437909	13440

Western_Union	C	43.021954	-74.991831	13350

Raspberries_Cafe_of_Rome	B	43.231585	-75.441922	13440

Little_Falls_City_Police_Department_Little_Falls_New_York	A	43.044522	-74.855589	13365

O'Baby's_Gourmet_Sandwich_Shoppe	B	43.062922	-75.272303	13413

Baggetta_Francis_Optcn	A	43.026342	-74.991416	13350

The_Men's_Wearhouse	C	43.087982	-75.311948	13413

Oneida_Rail_Trail	B	43.083457	-75.683707	13421

Italian_Feast	B	43.042727	-74.861206	13365

Metro_Mattress	C	43.235103	-75.437078	13440

Oneida_Service_Center	D	43.093504	-75.651335	13421

Dippin_Donuts	B	43.081416	-75.321068	13413

Bella_Mia_Salon	B	43.023532	-74.986774	13350

Swan_Pools	C	43.055508	-75.271649	13413

Empire_Gymnastics_&_Fitness	B	43.037146	-75.071653	13340

CITGO	C	43.016346	-75.03471	13357

Dressbarn	C	43.095497	-75.309158	13413

Kinney's_Kar_Kare	D	43.096017	-75.621741	13421

Michele_&_Anthony_Grande_Salon	B	43.220416	-75.447598	13440

Entel_Dataforms	C	43.039176	-75.071076	13340

Colossi_Joseph_DO	A	43.091539	-75.276708	13413

Brass_Tack_Restaurant	B	43.028392	-75.059526	13340

Clinton_Florist	C	43.048013	-75.378332	13323

Mavis_Discount_Tire	D	43.232344	-75.439028	13440

SmartStyle_Family_Hair_Salons	B	43.078045	-75.692136	13421

Clough_Prek_Center	A	43.222296	-75.42756	13440

New_Hope_Baptist_Church	A	43.219579	-75.457944	13440

Mohawk_Valley_Urology_PC	A	43.23115	-75.443408	13440

Barringer_Road_Elementary_School	A	43.008461	-75.057432	13357

McDonald's	B	43.041795	-74.861676	13365

ECOsponsible_Herkimer_Plant	E	43.033562	-74.98341	13350

Asteroga_Ale_House	B	43.025301	-74.987032	13350

Harden_Furniture_Oneida_Div	C	43.092158	-75.659319	13421

Metro_by_T_Mobile_Authorized_Dealer	C	43.095592	-75.651871	13421

Yankee_Candle	C	43.082368	-75.315633	13413

Oxford_Home_Care_Services	B	43.06082	-75.28291	13413

Robert_E_Schulman_DDS_&_Andrew_S_Rozanski_DMD	A	43.072259	-75.289167	13413

Ice_Cream_Station	B	43.016641	-75.037881	13357

Vogel_Lory_Chiropractor	A	43.046289	-74.855663	13365

Wagoner_Hickock_Insurance_Agency	C	43.219459	-75.44728	13440

R&R_Interior_&_Exterior_Improvments	A	43.039568	-75.06739	13340

Rome_Pool_&_Spas	C	43.204903	-75.429773	13440

Mitsuba_Japanese_Cuisine	B	43.09179	-75.314113	13413

Spirit_&_Sanzone_Distributors_Co	C	43.136104	-75.267141	13403

Tommy_Nails	B	43.079258	-75.64455	13421

Whitcomb_Auto_Sales_&_Service	C	43.02631	-74.883434	13365

Bed_Bath_&_Beyond	C	43.095405	-75.30659	13413

Blue_Salon_&_Spa	B	43.090402	-75.316678	13413

St_Elizabeth_Medical_Group	A	43.002608	-75.257702	13456

Sloppy_Joe's_Pizza	B	43.075404	-75.297528	13413

Stan's_Sea_Food	B	43.218223	-75.472544	13440

D'alessandro's_Landscaping_&_Nursery	C	43.031725	-75.176775	13340

Walgreens	A	43.055189	-75.276668	13413

Roy_Boys_Farm_Produce	C	43.106195	-75.293732	13417

Whitestown_Automotive	D	43.133884	-75.41127	13440

Allcare_Dental_&_Dentures	A	43.096068	-75.305076	13413

CNY_Auto_Brokers	E	43.077853	-75.38472	13323

Holland_Kennels	B	43.172994	-75.320815	13403

Panera_Bread	B	43.09594	-75.305236	13413

Fortune_Cookies	B	43.082612	-75.323552	13413

New_Hartford_Shopping_Center	C	43.076822	-75.294007	13413

Edible_Arrangements	C	43.060566	-75.268314	13413

Herkimer_Fulton_Hamilton_Otsego_Boces	A	43.039214	-74.964195	13350

Rockin'_Horse_Tattoo	B	43.085432	-75.316148	13323

Day_&_Read_Insurance_Services	C	43.044312	-74.859636	13365

Sroka's_Service_Center	C	43.093702	-75.652602	13421

Little_Falls_Antique_Center	C	43.042154	-74.858921	13365

Dippin_Donuts	B	43.238553	-75.436889	13440

Quality_Inn	B	43.210155	-75.45936	13440

Auto_Zoes	E	43.093388	-75.652171	13421

Redeeming_Life_Ministries	A	43.195353	-75.438237	13440

Sangertown_Square	C	43.082239	-75.315626	13413

Uno_Chicago_Grill	B	43.091551	-75.314982	13413

Cricket_Wireless	C	43.075832	-75.642222	13421

Killabrew_Saloon	B	43.076749	-75.310709	13413

DJR_Custom_Electronics	C	43.075573	-75.690892	13421

Trovato_Suzette_NP	A	43.076016	-75.702881	13421

Hearing_Health_USA	B	43.231283	-75.443323	13440

Arby's	B	43.026887	-74.981497	13350

Interactive_Engineering_Solutions	B	43.232129	-75.439431	13440

NAPA_Auto_Parts	C	43.217197	-75.474813	13440

First_United_Presbyterian_Church	A	43.045105	-74.858799	13365

Appearance's_Salon	B	43.239828	-75.437348	13440

Carney's_Corners	B	43.028586	-74.986542	13350

Byrne_Dairy	C	43.092967	-75.653432	13421

U_S_Black_Belt_Martial_Arts	A	43.088519	-75.311637	13413

North_Milton_Cemetery	B	43.075632	-73.865373	13340

Krizia_Martin	C	43.049075	-75.378968	13323

Precision_Car_Wash	D	43.078088	-75.645637	13421

Stevens_Field	B	43.221302	-75.46964	13440

First_Assembly_Of_God	A	43.138055	-75.263885	13403

Haselton_Park	B	43.226101	-75.43573	13440

Beacon_Golf_Center	B	43.07966	-75.300566	13413

Grace_Baptist_Church	A	43.27476	-75.46958	13440

99_Restaurants	B	43.090492	-75.313664	13413

Saint_Mary's_Cemetery	B	42.984495	-75.248344	13456

Insure_One_Insurance_Agency	C	43.219999	-75.425792	13440

Herkimer_Community_Museum	B	43.034279	-75.002287	13350

Central_Ny_Nephrology_Associates_PC	A	43.09055	-75.279886	13413

Time_Warner_Security	C	43.223058	-75.484137	13440

Frank's_Unibody_&_Frame_Service	D	43.077017	-75.291851	13413

Plantation_Island_Wma	B	43.021856	-74.950798	13350

II_Caffe_Espresso_Bar_And_Pastry_Shop	B	43.043541	-74.859515	13365

Unwind_with_Audrey	B	43.0553	-75.271607	13413

Pondra's_Homes_&_Hearth_Realty	C	43.04809	-75.379304	13323

Trans_Rail_Insurance_Assoc	C	43.031192	-75.165013	13340

Super_8_CNY_BUFFET	C	43.077127	-75.643879	13421

Auto_Specialists	D	43.080391	-75.367711	13323

Lombardo's_Pizzeria_Plus_II	B	43.011995	-75.030012	13357

Bec's_Ivy_Grill	B	43.095853	-75.650093	13421

Day_&amp_Read_Insurance_Services	C	43.137853	-75.276935	13403

Voice_Of_The_Faithful_Syracusechapter_Inc	A	43.086367	-75.382414	13323

Rome_Christian_Center_Inc	A	43.248209	-75.45854	13440

Arcuri's_Pizza	B	43.094485	-75.27824	13413

Tom_Gaetano_Engineering	C	43.219337	-75.475857	13440

Melaniuum	B	42.367898	-73.559405	13357

The_Root_Farm	B	42.997882	-75.21515	13456

The_Olde_Wicker_Mill	D	43.077323	-75.293025	13413

Norwich_Corners_Christian_Church	A	43.014077	-75.210524	13456

Hamilton_College_Bookstore	C	43.053864	-75.408905	13323

Knudsen_Enterprise	C	43.205157	-75.42301	13440

Rizzo's_Mkt	C	43.207165	-75.460936	13440

Joe's_Paving	B	43.157508	-75.262053	13403

Beauty_And_The_Beach	B	43.044225	-74.857432	13365

NYE_CHEVROLET	C	43.094225	-75.654523	13421

Primo_Pizzeria	B	43.015573	-75.049047	13357

Nicholas_J_Bush_Funeral_Home_Inc	B	43.236932	-75.455862	13440

Walgreens	A	43.079473	-75.641231	13421

Presbyterian_Homes_&_Services_Inc	A	43.072256	-75.34166	13413

Circle_K_Gas	C	43.283076	-75.471421	13440

Alices_Beauty_Salon	B	43.053642	-75.273101	13413

St_Elizabeth_Medical_Center_Laboratories	A	43.073554	-75.291762	13413

Rome_Savings_Bank	C	43.211025	-75.457613	13440

Cellular_Sales	C	43.212425	-75.464474	13440

Adirondack_Community_Physicians	A	43.073537	-75.343467	13413

Catherine's_Grooming_&_Pet_Care	B	43.106319	-75.661583	13421

Mohawk_Fuel_&_Food_Mart	C	43.140827	-75.301126	13403

Emmanuel_Episcopal_Church	A	43.04423	-74.855308	13365

Western_Union	C	43.042357	-74.858346	13365

Herkimer_Elementary_School	A	43.034296	-74.957954	13350

Day_Scarafile_&_Read	C	43.044321	-74.859626	13365

Rome_Medical_Group	A	43.234351	-75.43793	13440

Marcy_Tavern	B	43.166798	-75.291686	13403

Zion_Episcopal_Church	A	43.212931	-75.4578	13440

Lowe's	C	43.228277	-75.488332	13440

Delta_Knolls_Golf_Center	B	43.268299	-75.447698	13440

Oak_View_Cemetery	B	43.040013	-75.078331	13340

Bamboo_Chinese_Restaurant	B	43.091577	-75.314962	13413

Tom_Cavallo's_Restaurant_&_Banquet_Facility	B	43.073575	-75.288254	13413

Riverside_Park	B	43.215432	-75.435283	13440

The_Finery	A	43.204235	-75.433448	13440

Praxair	C	43.135346	-75.263137	13403

Dunkin'	B	43.097986	-75.301347	13417

SD_Outdoor_Power	C	43.069493	-75.344079	13413

Xavier_Medical_Practice	A	43.090271	-75.649596	13421

Lisa's_Pet_Palace	B	43.215829	-75.459332	13440

Herkimer_Diamond_Mines	C	43.128809	-74.976634	13350

Tokyo_Restaurant	B	43.022955	-74.99283	13350

Great_Northern_Springs	B	43.048409	-75.380041	13323

Primo_Pizza_At_The_Kettle	B	43.078439	-75.373812	13323

Mohawk_Sports_Shop	C	43.21628	-75.47301	13440

Richard_M_Sleeper_MD_FACS	A	43.055716	-75.280235	13413

Advance_Auto_Parts	C	43.023752	-74.990571	13350

JMP_Guns	C	43.034747	-75.065565	13340

Jones_Family_Farm	C	43.090508	-75.009851	13350

New_Life_Apostolic_Church_Of_Utica_New_York_Inc	A	43.109615	-75.290496	13417

Upstate_Cerebral_Palsy	A	43.090556	-75.646122	13421

The_Mary_Rose_Clinic	A	43.103272	-75.661466	13421

Valley_Automotive_Sales_&_Service	C	43.028338	-74.979498	13350

Roman_S_Melnyk_DDS_MS	A	43.072266	-75.289113	13413

Bassin_&_Hession_Orthodontics	A	43.073165	-75.293522	13413

Lairdsville_United_Methodist_Church	A	43.081125	-75.428914	13323

Miracle-Ear	A	43.027745	-74.979371	13350

Nice_N_Easy_Grocery_Shoppe	C	43.020634	-74.991178	13350

DSW_(Designer_Shoe_Warehouse)	C	43.082953	-75.315932	13413

Papa_Joes_Restaurant	B	43.054544	-75.271383	13413

Flat_Iron_Pizza	B	43.010039	-75.040455	13357

Rubicon_Recycling	E	43.243815	-75.527279	13440

Oneida_Believers_Fellowship	A	43.087461	-75.660443	13421

Subway	B	43.237309	-75.50186	13440

Ascension_Lutheran_Church_Nursery_School	A	43.248193	-75.458502	13440

Herkimer_Dental	A	43.023732	-74.991846	13350

Xtra_Fuels	C	43.07917	-75.317538	13413

Gardner's_Farm_to_Table	B	43.213724	-75.464371	13440

Sauquoit_Valley_Elementary_School	A	42.987917	-75.254737	13456

Ram_Collision	D	43.090951	-75.179404	13340

M&T_Bank	C	43.043267	-74.858854	13365

St_Francis_Society	A	43.028218	-75.07379	13340

McDonald's	B	43.079717	-75.318518	13413

Maxwell_Field	B	43.085284	-75.641624	13421

Golf_Knolls_Golf_Course	B	43.251125	-75.536956	13440

Dunkin'	B	43.078517	-75.645741	13421

Riverside_Dental	A	43.027427	-74.979731	13350

Walmart_Pharmacy_10_2285	A	43.022586	-74.993787	13350

Whipple_Cemetery	B	43.018775	-74.841747	13365

Aesthetic_Oral_Arts	A	43.079084	-75.334713	13413

B_&_F_Collision	D	43.196629	-75.44271	13440

Andrew_S_Rozanski_DMD	A	43.072284	-75.289184	13413

Masterangelo_Truck_Refinishers	D	43.198629	-75.446855	13440

Maynard_United_Methodist_Church	A	43.133509	-75.2507	13403

Cafe_Del_Buono	D	43.086921	-75.314765	13413

Briggs_Bucciero_and_Smith_Agency	C	43.004789	-75.256867	13456

CosmoProf	C	43.089899	-75.311773	13413

Lyndon_H_Strough_Middle_School	A	43.228675	-75.462796	13440

Vince's_U_Pull_It_Auto_Parts_&_Recycling_Center	E	43.177188	-75.322471	13403

Central_Distributing	C	43.097702	-75.648575	13421

Mount_Olivet_Cemetery	B	43.04129	-75.079191	13340

Advance_Auto_Parts	C	43.077826	-75.643892	13421

Hollister	C	43.08225	-75.316253	13413

Verizon_Wireless	C	43.080356	-75.320856	13413

Scarafile_Family_Chiropractic	A	43.082205	-75.323662	13413

The_UPS_Store	C	43.040459	-74.859237	13365

Oneida_Pharmacy_LLC	A	43.090384	-75.661366	13421

Acupuncture_Services_of_Central_New_York	A	43.056167	-75.280057	13413

Broadway_Tire_&_Service	D	43.198904	-75.448401	13440

Piccolo_Cafe	B	43.041332	-74.858236	13365

James_Mitsubishi	C	43.237265	-75.436904	13440

Click's_Cakes	E	43.023948	-74.984939	13350

Oneida_Savings_Bank	C	43.094046	-75.651603	13421

Hannaford_Food_And_Drug	A	43.088183	-75.316402	13413

Hall_Financial_Services	A	43.229395	-75.438714	13440

Zales	C	43.082704	-75.315165	13413

Coleman's_Collision	D	43.244924	-75.52571	13440

Erinn's_Grooming	C	43.07873	-75.637631	13421

Hawaiian_Holiday_Tanning_Salon	B	43.026586	-74.986645	13350

Maynard_Frozen_Foods	C	43.13551	-75.260289	13403

Kinney_Drugs	A	43.046938	-75.382701	13323

The_Village_Toy_Shop	C	43.077314	-75.294121	13413

Mvcaa_Inc_Herkimer_Head_Start	A	43.023594	-74.977373	13350

Harbor_Freight_Tools	C	43.238652	-75.504781	13440

Beer_Here	C	43.083905	-75.327584	13413

Metro_Mattress	C	43.087943	-75.312011	13413

Soho_Nails_&_Spa	B	43.082628	-75.323739	13413

Bonvino_Vincent_DMD	A	43.015679	-75.036576	13357

Gates_Cole_Associates_Inc	C	43.073741	-75.292605	13413

Steencken_Joseph_P_Dr_Dntst	A	43.044457	-74.859832	13365

Melrose_Supermarkets	C	43.0371	-75.069029	13340

Oneida_Process_Service	A	43.095062	-75.652275	13421

Paolozzi's_Mitsubishi	C	43.136825	-75.268637	13403

Bassett_Healthcare	B	43.027702	-74.982755	13350

The_Grand_Rehabilitation_And_Nursing_At_Mohawk	B	43.019043	-75.047449	13357

T_&_J_Fruits_&_Vegetables	C	43.021321	-74.991949	13350

Church_On_The_Rock	A	43.096519	-75.650024	13421

Dunkin'	B	43.093818	-75.277524	13413

Curves	B	43.027469	-74.988715	13350

Tallman's_Tire_&_Auto_Repair	D	43.236409	-75.437453	13440

Verona_Fire_Department_Station_2	A	43.099589	-75.635996	13421

Savicki's_Paris_Hill_Farm_Market	C	43.021874	-75.328133	13323

The_Cashman	A	43.213856	-75.464747	13440

Stock's_Garage	D	43.031415	-74.874451	13365

Luigis_II	B	43.295367	-75.473168	13440

FootDoctors	A	43.025109	-74.987526	13350

Slocum_Dickson_Medical_Group	A	43.019416	-75.046884	13357

Thrifty_Shopper_New_Hartford	C	43.076844	-75.297227	13413

Dar_Maur_Manor_Stables	B	43.001762	-75.316896	13456

RJ_Auto_&_Tire	C	43.089376	-75.397794	13323

Georgio's_Village_Cafe	B	43.073147	-75.289642	13413

First_Methodist_Church_of_Ilion	A	43.013761	-75.038966	13357

Vogel_Lory_W_DC	A	43.046292	-74.855633	13365

Casa_Too_Mucha	B	43.073664	-75.286497	13413

WakeUp_with_MakeUp	B	43.069982	-75.286768	13413

Zion_Evangelical_Lutheran_Church	A	43.093297	-75.275095	13413

Photo_solutions_India	A	43.049634	-75.378709	13323

Stewart's_Shops	C	43.223206	-75.420297	13440

New_Hartford_Public_Library	B	43.061544	-75.282828	13413

Oneida_Barbershop	B	43.096446	-75.651351	13421

Hale_Manufacturing	C	43.042699	-75.083566	13340

TQ_Nails_&_Spa	B	43.048342	-75.379744	13323

J_C_Rendering	C	43.044483	-75.193009	13340

The_Bonadio_Group	A	43.082197	-75.361425	13323

St_Thomas_Church	A	43.071798	-75.331475	13413

Jo-Ann_Fabric_and_Craft_Stores	C	43.0767	-75.294474	13413

Adirondack_Veterinary_Service	A	43.247998	-75.523728	13440

Seventh_Day_Adventist_Church_Study	A	43.170516	-75.413662	13440

Domino's_Pizza	B	43.209987	-75.460817	13440

St_Stephen's_Episcopal_Church	A	43.07097	-75.286392	13413

Renewed_&_Rescued	C	43.026375	-74.986599	13350

Beacon_Center	B	43.024557	-74.985462	13350

Uniq_Teaks	C	43.022249	-74.821149	13365

Unique_Salon	B	43.21557	-75.46199	13440

Oneida_Floral_&_Gifts	C	43.09425	-75.651743	13421

NAPA_Auto_Parts	C	43.079116	-75.644507	13421

Passalacqua_Stephen_DDS	A	43.072737	-75.287154	13413

Lowe's	C	43.026918	-74.970209	13350

Dunkin'	B	43.022695	-74.991792	13350

Wink_&_The_Clinton_Coffee_Cup	B	43.048713	-75.379486	13323

Immanuel_Baptist_Church	A	43.056922	-75.259143	13413

Faxton_St_Luke's_Healthcare_HERKIMER	A	43.027358	-74.983283	13350

The_Steak_and_Pickle	B	43.054694	-75.271777	13413

Grace_Furniture	C	43.128016	-75.239788	13403

Tramacera's_Trends_Get_Inspired	B	43.068394	-75.287464	13413

Faxton_St_Luke's_Healthcare	A	43.05393	-75.270976	13413

Cliff's_Local_Market	C	43.027891	-74.978736	13350

Rome_Christian_Center	A	43.248197	-75.458509	13440

Sonw_Cone_Freezing_ice_Cream	B	43.076194	-75.641726	13421

G&K_Services	C	43.13627	-75.266296	13403

College_St_Hair_Designs_by_James	B	43.048074	-75.380488	13323

Genesee_Orthopedic_&_Hand_Surgery_Associates	A	43.080399	-75.3352	13413

Burrito_Blues_Cafe	B	43.075369	-75.297523	13413

Ten_Nails_&_Tanning_Salon	B	43.213502	-75.45664	13440

Charlotte_Russe	C	43.073367	-75.28862	13413

First_Impressions	B	43.028454	-74.991328	13350

Sacred_Eagle_Tattoos	B	43.016832	-75.034233	13357

Sunoco	C	43.022346	-75.051631	13357

American_Eagle_Outfitters	C	43.081503	-75.315778	13413

DiCastro's_Brick_Oven	B	43.214973	-75.471522	13440

Function_Better	B	43.211531	-75.463387	13440

Tri_County_Medical_PC	A	43.044247	-74.847666	13365

New_York_State_School_For_The_Deaf	A	43.223004	-75.457508	13440

DSI_Security	A	43.092443	-75.650789	13421

Western_Union	C	43.086083	-75.318828	13413

New_Hartford_Consumer_Square	C	43.093427	-75.309007	13413

Escape_Away_Massage	B	43.110947	-75.286188	13417

Greg_Morra_Ameriprise_Financial_Services	B	43.071588	-75.293752	13413

KeyBank	C	43.048041	-75.381873	13323

State_Farm	C	43.135274	-75.262499	13403

Foltsbrook_Center_For_Nursing_And_Rehabilitation	B	43.02701	-74.984222	13350

Electrolysis_by_Michele	B	43.059198	-75.286871	13413

Fecal_Matters	B	43.041362	-75.065734	13340

Allstate_Insurance	C	43.232694	-75.496989	13440

SmartStyle_Family_Hair_Salons	B	43.237391	-75.502367	13440

Speech_Language_Therapy	A	43.027981	-75.059118	13340

Allstate_Insurance	C	43.076264	-75.685812	13421

Vinci_David_J	A	43.220193	-75.424149	13440

Sunoco	C	43.005596	-75.255685	13456

Linsey_Layne_Boutique	C	43.073197	-75.289369	13413

Ray's_Svce	C	43.095489	-75.623443	13421

Dream_City_Mattress	C	43.088706	-75.311531	13413

Rome_Teachers_Federal_Credit_Union	C	43.236568	-75.454866	13440

Feeney_Robert_A_PC	A	43.213332	-75.456246	13440

Complete_Canine_Services_of_CNY	C	43.196699	-75.440607	13440

Eye_Q_of_CNY	A	43.08839	-75.311447	13413

Universal_Yoga_and_Massage_Center	B	43.055319	-75.271589	13413

Rizzo_Agency_Erie_insurance	C	43.083751	-75.33916	13323

Sunoco	C	43.258885	-75.462408	13440

Liberty_St_Clippers	B	43.214838	-75.463315	13440

Mercurios_Automotive_Saquoit	C	43.002906	-75.255952	13456

Nye_Toyota	C	43.075197	-75.682638	13421

Taylor_Agency	C	43.017796	-75.037714	13357

Transfiguration_Church	A	43.207808	-75.462025	13440

BigDog_Motors	C	43.028156	-75.05946	13340

Planet_Fitness	B	43.085011	-75.321374	13413

Frank's_Body_Works	D	43.078377	-75.290578	13413

Syracuse_Oral_&_Maxillofacial_Surgery	A	43.078934	-75.652736	13421

Access_Federal_Credit_Union	C	43.076151	-75.643982	13421

Quality_Water_Service	C	43.097226	-75.655605	13421

Bouton_Physical_Therapy	A	43.208508	-75.459393	13440

Twizted_Ink	B	43.227871	-75.491337	13440

Rd's_Gorge_View_Lanes	B	43.042989	-74.842349	13365

Sierra_Computer_Services	C	43.117548	-74.983002	13350

Mohawk_Valley_Retina	A	43.077585	-75.33819	13413

Hjp_Cafe_Vietnamese_Pho_Noodles_Restaurant	B	43.028264	-74.988178	13350

Liberty_Gardens_Thron_Park	B	43.22368	-75.471937	13440

Bartlett_Baptist_Church	A	43.134994	-75.441953	13440

Oneida_Orthopaedic_Assocs_PC	A	43.077911	-75.658403	13421

Oneida_Healthcare_Center	A	43.086935	-75.646856	13421

Visible_Systems	C	43.092397	-75.650777	13421

Hanna_Mounir_PC	A	43.030196	-74.990061	13350

J_D_Hildenbrandt_Auto	D	43.208484	-75.451351	13440

Denny's	B	43.076831	-75.641738	13421

Allyson_Turnbull_at_Julie_Diehl_Salon	B	43.094375	-75.299535	13417

Cianfrocco's_Subs_&_Wings	B	43.208923	-75.453117	13440

Sunnyside_Medical_Cannabis_Dispensary_Mohawk_Valley	C	43.094088	-75.305842	13413

Plumb_Gold	C	43.082913	-75.314714	13413

Sacred_Heart_of_Jesus_Holy_Cross_Polish	A	43.109263	-75.287758	13417

Cliff's_Local_Market	C	43.073465	-75.286721	13413

Sauquoit_Valley_Insurance	C	43.01513	-75.215134	13456

Wendy's	B	43.07859	-75.643242	13421

Wild_Child_Family_Play_&_Party_Space	B	43.08553	-75.667515	13421

SavOn	C	43.085262	-75.670293	13421

McGarvey_Endodontics	A	43.078966	-75.652722	13421

Taco_Bell	B	43.225412	-75.48612	13440

Gansevoort_Elementary_School	A	43.22034	-75.473033	13440

Doll_Shop	C	43.157238	-75.460746	13440

Faster_Form_Corporation	C	43.035949	-75.27552	13413

Exile_Ink	B	43.207165	-75.449461	13440

Breakfast_At_Tiffany's	B	43.080214	-75.368388	13323

Studio_55	B	43.047612	-74.986022	13350

Anticosti_Beer_and_Beverage	C	43.224695	-75.483367	13440

Herkimer_Reformed_Church	A	43.028985	-74.989858	13350

Crown_Hill_Memorial_Park	B	43.034804	-75.324625	13323

Walmart_Pharmacy_10_1677	A	43.095241	-75.31244	13413

Luck_&_Golden_Optometrists_PC	A	43.048404	-74.986048	13350

St_Francis_De_Sales_School	D	43.025796	-74.991507	13350

Giuffrida_LaShawnda_Rpa_C	A	43.231111	-75.443406	13440

W_F_Prior_Elementary_School	A	43.090673	-75.646026	13421

Samson_A_Pachikara_M_D	A	43.073934	-75.296917	13413

Across_the_Row_Bistro	B	43.049049	-75.37772	13323

Pumpernickel's_Deli	B	43.077508	-75.294306	13413

The_Cellular_Shop_Oneida	C	43.079064	-75.646403	13421

Sunoco	C	43.204171	-75.433021	13440

Joe_Jalbert_&amp_Associates	A	43.230653	-75.459118	13440

8_Super_Buffet	B	43.231167	-75.437404	13440

Valvoline	D	43.233482	-75.438307	13440

Back_In_Shape	A	43.073018	-75.343419	13413

The_Old_Barn_Marketplace	C	43.022318	-74.900249	13365

Saint_Marys_Cemetery	B	43.050348	-74.867183	13365

Sassy_Expressions_Hair_Design	B	43.097259	-75.650199	13421

Hershey's_Ice_Cream	B	43.080438	-75.683291	13421

Smokers_Choice	C	43.015989	-75.037067	13357

Oneida_Healthcare_Center	A	43.077625	-75.653818	13421

Dunkin'	B	43.138735	-75.276518	13403

Number_One_Chinese_Restaurant	B	43.075927	-75.64215	13421

Chris'_Collision	D	43.016487	-74.878684	13365

Weight_Watchers	B	43.081787	-75.661463	13421

Nurse_Practitioner_in_Psychiatry_Services_of_CNY	A	43.097282	-75.296874	13417

Country_Marketing	C	43.020819	-75.033574	13357

Western_Union	C	43.220042	-75.448012	13440

The_Palisades_Hotel	B	43.239459	-75.437202	13440

Carl_jr's	B	43.07927	-75.644506	13421

John's_Pizzeria	B	43.137887	-75.275706	13403

Pine_Hills_Golf_Course	B	43.042405	-75.134854	13340

Floyd_United_Methodist_Church	A	43.218724	-75.332108	13440

Myles_Elementary_School	A	43.073625	-75.324531	13413

Total_Solutions	C	43.08402	-75.353441	13323

Eggan_Environmental	B	43.28083	-75.403663	13440

GameStop	C	43.095464	-75.308693	13413

Americu_Credit_Union	C	43.236502	-75.435472	13440

Bowen's_Power_Sports	C	43.006564	-75.043343	13357

Fuji_Japanese_Steak_House	B	43.230174	-75.493556	13440

McDonald's	B	43.076401	-75.103125	13340

Monica_Caplan	B	43.05532	-75.271582	13413

Brenda_Kent	B	43.094379	-75.299561	13417

Dollar_Tree	C	43.022919	-74.995164	13350

Herkimer_College_Bookstore	C	43.032305	-75.006224	13350

Saint_Marys_Cemetery	B	43.227225	-75.478493	13440

Western_Union	C	43.01614	-75.03733	13357

Stewart's_Shops	C	43.022729	-74.988991	13350

Oneida_Healthcare_Center	B	43.040898	-75.622976	13421

Oneida_Full_Gospel_Assembly	A	43.092316	-75.644148	13421

B_&_B_Auto_Tech	D	43.019019	-74.984204	13350

Hot_Topic	C	43.082794	-75.3151	13413

Zambri's_Motorsports	C	43.013654	-74.768879	13365

Community_Bank	C	43.080129	-75.641936	13421

Frankfort_Hill_Cemetery	B	43.017869	-75.176536	13340

CrossFit	B	43.199049	-75.448671	13440

Nothing_Bundt_Cakes	E	43.093823	-75.307566	13413

Upstate_Family_Chiropractic	A	43.023387	-74.989944	13350

Vine_and_Fig	C	43.257196	-75.461809	13440

Active_Day_Seniors_Program	B	43.056297	-75.364301	13323

First_Presbyterian_Church	A	43.090772	-75.651936	13421

Faxton_St_Luke's_Healthcare	A	43.073519	-75.343476	13413

Allstate_Insurance	C	43.260525	-75.461512	13440

Automotive_Service_Center	D	43.13085	-75.248444	13403

CITGO	C	43.051933	-75.375066	13323

Bailey's_Karate_Schools	A	43.231901	-75.49835	13440

Jenny_Nails	B	43.232112	-75.43938	13440

Able_Construction	A	43.287388	-75.469254	13440

Commercial_&_Henderson	C	43.096237	-75.303527	13413

Oneida_Community_Golf_Club	B	43.063937	-75.609826	13421

The_Original_Kitty's	B	43.074516	-75.318871	13413

Meeples_Mug_House	B	43.044276	-74.857413	13365

H_And_H_Accounting	A	43.057222	-74.857768	13365

Michaels_Stores	C	43.093647	-75.310258	13413

Dix_Cemetery	B	43.160871	-75.4353	13440

Heelpath_Brewing_Co	D	43.041917	-75.067704	13340

Young's_General_Store_&_Ace	C	43.018611	-75.032161	13357

Clinton_Park	B	43.040807	-74.859382	13365

Music_and_More_Records	C	43.082603	-75.323576	13413

Dawn_Marie's_Treasures	C	43.049031	-75.378975	13323

Plaza_Wine_&_Liquor	C	43.102231	-75.659677	13421

Sandy's_Nail_Salon_&_Boutique	B	43.077493	-75.294368	13413

DAVIDSON_CADILLAC_OF_ROME	C	43.232004	-75.496996	13440

Advance_Auto_Parts	C	43.214946	-75.468082	13440

Empire_Center_Of_Dance	A	43.131041	-75.247796	13403

Taco_Bell	B	43.07792	-75.641968	13421

Place_Choice_Casino	A	43.077098	-75.643866	13421

Allied_Heating_and_Air_Conditioning	C	43.139102	-75.28331	13403

Pet_Supplies_Plus	C	43.210298	-75.460391	13440

Erie_Boulevard_Hydropower_LP_Inghams_Plant	E	43.060845	-74.764284	13365

The_Java_Shop_by_Cucina_Berto	B	43.02632	-74.987114	13350

Adirondak_Community_Physicians	A	43.019306	-75.047178	13357

Douglas_H_Hurd_DDS	A	43.073963	-75.294217	13413

Kern_Fred_W_Vet	A	43.01915	-74.990718	13350

