occupation	latitude	longitude	zipcode
Rijo_Realty_Group	C	42.728616	-73.743156
Center_of_Excellence_For_Hair_Restoration	A	42.753304	-73.777339
Van_Geest_Nursery	D	42.707008	-73.807556
Comdoc	C	42.761036	-73.821502
Lane_Bryant	C	42.711077	-73.816115
Congregation_Beth_Israel	A	42.800477	-73.897087
Jules_House	B	42.700004	-73.808905
Capitaland_Taxi	C	42.777111	-73.900763
Sake_Japanese_Steakhouse	B	42.754567	-73.771034
Southwest_Airlines	E	42.745771	-73.810099
Bryans_&_Gramuglia	A	42.709549	-73.864287
Marino's_Flying_Pizza_&_Restaurant	B	42.79754	-73.922843
Marble_and_Granite	C	42.733143	-73.85749
Amber	B	42.743789	-73.760005
Ferrara's_Automotive	C	42.73327	-73.711013
Evo_Salon_&_Spa	B	42.732273	-73.761729
KeyBank	C	42.782165	-73.89047
Illusions_Hair_Salon	B	42.696419	-73.768928
LCC_Solution	C	42.791176	-73.914053
Armory_Chrysler_Dodge_Jeep_Ram_FIAT_of_Albany_Opens_in_New_Window	C	42.681537	-73.793439
Wendy's	B	42.769312	-73.820068
Chang's_Garden	B	42.662046	-73.776754
Repsher_&_Associates_Physical_Therapy	A	42.693894	-73.771915
BCBGeneration	C	42.711322	-73.814389
Rainbow_Express_Inc	A	42.782235	-73.950268
Blockhouse_Park	B	42.937299	-73.656249
Auntie_Anne's	B	42.689354	-73.850557
United_Buffet	B	42.783899	-73.916962
Clean2o_Touchfree_Car_Wash	D	42.677274	-73.824552
Mosall's_Grove	B	42.666156	-73.848196
Cody's_Cozy_Pals	C	42.737523	-73.797885
Glennpeter_jewelers	C	42.714419	-73.829858
A_True_North_Massage	B	42.685187	-73.868458
Sunoco	C	42.727449	-73.795532
Tom_Morrissey_OD	A	42.784794	-73.944699
Massage_by_Tera	B	42.686774	-73.856074
Tsl_Daycare_Services_Inc	A	42.673551	-73.849488
Batteries_Plus_Bulbs	C	42.753393	-73.760039
Evolve_Psychiatry	A	42.693042	-73.873354
Peter_Harris_Clothes	C	42.762102	-73.796829
Metro_Mattress	C	42.712662	-73.815294
Spotted_Zebra_Learning_Center	A	42.714475	-73.803302
Upper_Fifteen_Flying_Club	A	42.744272	-73.810985
Above_Grade_Level	A	42.746172	-73.869251
Lipstik_Beauty_Lounge	B	42.702092	-73.817889
Apropos_Prom_&_Bridal	C	42.690734	-73.866573
Enterprise_Rent-A-Car	C	42.792357	-73.916933
ACME_Auto_Radiator_Service	D	42.731104	-73.70424
Kimberley's_A_Day_Spa	B	42.770361	-73.754541
Happy_Pets_Pet_Sitting_Services	B	42.792387	-73.907265
brick_house_TAVERN_+_TAP	B	42.751937	-73.765582
Lorenzos_Italian_Cafe	B	42.79139	-73.916876
LIDS	C	42.71054	-73.815694
Bacares_Michelle_MD	A	42.738943	-73.841283
House_of_Pops_Barbershop	B	42.796005	-73.922303
Family_Auto_Repair	C	42.789946	-73.942051
Albany_Advanced_Dental_Care	A	42.716155	-73.785706
LINE-X	E	42.744762	-73.863177
21_Below_Thai_Rolling_Ice_Cream	B	42.770907	-73.824295
FedEx	C	42.717549	-73.809431
New_York_State_Council_of_Catholic_Schl_Sprntndnts	A	42.658537	-73.768454
Guido's_Frozen_Desserts	B	42.663031	-73.775821
Wexler_Donald_MD	A	42.804495	-73.915997
Parikh_Shirish_MD	A	42.758068	-73.777363
Virjee_S_A_DMD	A	42.727013	-73.702434
Eclectic_Hair_Studio	B	42.762945	-73.799247
A_Plus	C	42.774523	-73.698012
JCPenney	C	42.687751	-73.847229
Market_Bistro	C	42.753526	-73.756932
Adams_Frank_Jewelers	C	42.684361	-73.839334
Eric_Mitchell_Salon	B	42.777634	-73.901292
Niskayuna_Electrolysis	A	42.811659	-73.885454
M&T_Bank	C	42.80181	-73.899001
CAP_COM_Federal_Credit_Union	C	42.672446	-73.809176
The_College_Of_Saint_Rose	A	42.664164	-73.785635
St_Peters_Health_Partners	A	42.769573	-73.822378
Lash_Blvd	B	42.712758	-73.828043
Logomotive_Promotions	E	42.690694	-73.808684
Northeastern_Fine_Jewelry	C	42.684902	-73.848016
Southwoods_Pediatric_Dentistry	A	42.683749	-73.77124
Mercury_Insurance	C	42.755774	-73.821685
John_D_Marcella_Appliances	C	42.800424	-73.948984
Sweet_Frog	B	42.772508	-73.893992
Capital_Cardiology_Associates	A	42.683682	-73.771093
Fucillo_Kia	C	42.767022	-73.889958
T.J._Maxx	C	42.696017	-73.847266
Shakil_A_Virjee_DMD_PC	A	42.727013	-73.702401
AutoZone	C	42.800526	-73.926133
U-Haul	C	42.749399	-73.868002
Latham_76_Diner	B	42.74035	-73.762508
The_Center_For_Nia_&_Yoga	B	42.724506	-73.841796
Bradley_Lise_DDS	A	42.772384	-73.821906
Denooyer_Collision_Center	D	42.717648	-73.806344
Northeast_Acura	C	42.764017	-73.756329
Sisters_of_Mercy	A	42.666336	-73.787524
Arian_Kabob_&amp_Pizza	B	42.774923	-73.89736
Our_World_Montessori	A	42.810216	-73.893051
Talma_Theodore_MD	A	42.758091	-73.777246
Blowfish	B	42.68723	-73.858563
Grace_Bible_Church	A	42.803607	-73.733568
Putting_On_the_Dog	B	42.764282	-73.814866
Christopher_R_Walsh_DDS	A	42.691449	-73.869346
PetSmart	C	42.695975	-73.847053
Boght_Hills_School	A	42.775288	-73.756748
McDonald's	B	42.768934	-73.891811
Everyday_Gourmet	B	42.681722	-73.768962
Cricket_Wireless	C	42.78487	-73.943692
Stewart's_Shops	C	42.735115	-73.700481
Inga's_Diner	B	42.700909	-73.820539
Board_&_Brush_Latham	A	42.761677	-73.750364
Ophthalmic_Consultants_Of_The_Capital_Region	A	42.688657	-73.776615
Big_Lots_Stores	C	42.73274	-73.855292
Kennedy_Ophthalmology_Associates	A	42.830041	-73.9034
Pombo_Insurance_Services	C	42.720131	-73.807681
Golden_1_Credit_Union	C	42.732501	-73.849281
Religious_of_the_Sacred_Heart	A	42.66924	-73.786971
Sunoco	C	42.765263	-73.938227
Days_Inn	B	42.677708	-73.829014
Hidden_Pet_Fence_of_Albany	B	42.784031	-73.945893
Felthousen's_Florist_&_Greenhouse	C	42.772159	-73.71568
Drome_Sound_Music_Store	C	42.778146	-73.900884
All_in_Adventures	B	42.688354	-73.847666
River_Road_Park	B	42.802019	-73.863553
Northrup_Dennis_E_Insurance	C	42.69349	-73.878192
Maywood_Pocket_Park	B	42.745254	-73.857129
Subway	B	42.804564	-73.902869
Ram_Orthotic_&_Prosthetic_Lab	A	42.826251	-73.90809
Albany_Complementary_Health	B	42.697405	-73.885536
Eden_Cafe	B	42.707516	-73.774835
McCambley_John_DMD	A	42.788724	-73.913859
Shear_Perfection	B	42.734267	-73.851381
Fitness_Artist	B	42.734874	-73.762743
Albany_Health_Management_Assoc	A	42.72599	-73.761346
Vallecorsa_J_David_DDS	A	42.750844	-73.763383
Milan_Laser_Hair_Removal	B	42.713609	-73.813552
Holland_Nursery_Ghses_&_Flower_Shop	C	42.725493	-73.82367
CarMax	C	42.732136	-73.852942
Alden_March_Care_Pathology_Group	A	42.734967	-73.79297
Party_City	C	42.774603	-73.889642
Trustco_Bank	C	42.762201	-73.751174
Albany_MRI_Transfer_Station	B	42.746926	-73.786805
Accent_on_Skin	B	42.72846	-73.759666
Marjorie_Doyle_Rockwell_Center	A	42.775765	-73.725676
Maharaja_Indian_Restaurant	B	42.709661	-73.821585
Get_Air	B	42.689334	-73.848415
Marshalls	C	42.754621	-73.756357
Village_Square_Shopping_Center	C	42.728508	-73.846452
St_Peter_&_St_Paul_Ukranian_Catholic_Church	A	42.773696	-73.695049
Kids_&_Family_Dental	A	42.713562	-73.813521
La_Mexicana_Grocery	C	42.781715	-73.905048
Grace_Nail_&_Spa	B	42.733233	-73.854352
Shaw_Environmental_&_Infrastructure	E	42.761061	-73.818492
Alvarez_Oscar_DDS	A	42.773604	-73.935004
Latham_Farms_Shopping_Center	C	42.755201	-73.762072
Amica_Mutual_Insurance_Company	C	42.7158	-73.81448
Homewood_Suites_by_Hilton	B	42.686832	-73.852416
Sondra's_Fine_Jewelry	C	42.804431	-73.904584
MGX_Fitness	B	42.691164	-73.868036
Lanie's_Cafe	B	42.707655	-73.777157
Kent_Molino_DDS	A	42.802428	-73.898652
Spare_Time_Latham	B	42.745287	-73.750839
DogWatch_by_TopDog_Pet_Fence	C	42.745002	-73.753817
Capital_Care_Family_Practice_River_Road	A	42.829125	-73.88871
STS_Tire_&_Auto_Centers	D	42.772566	-73.895681
Cajun_Cafe	B	42.689204	-73.849816
Short_and_Stout_Tea	C	42.689897	-73.849907
Bender_Lane_Advisory	A	42.685977	-73.842399
ALDO	C	42.689085	-73.849
SparkShoppe	C	42.705725	-73.860884
Boost_Mobile	C	42.772857	-73.700788
Hertz	C	42.740572	-73.807429
The_Edge_Skate_Sharpening_&_Profiling	C	42.712663	-73.828122
The_Cheesecake_Factory	B	42.710331	-73.817292
Cali_Nail	B	42.728257	-73.759761
Albany_NY_Fitness_&_Revolution_Fitness_NY	B	42.698451	-73.828752
Conlon_Alan_MD	A	42.796794	-73.892811
Gayne_Optical	A	42.804358	-73.904242
CAPITAL_KITCHEN_&amp_GRANITE_INC	C	42.737861	-73.761752
Against_All_Odds	C	42.68932	-73.848418
Cumberland_Farms	C	42.7974	-73.923924
Blue_Rose_Cheesecake_&_Bake_Shop	B	42.780388	-73.903301
Mario's_Restaurant_&_Pizzeria	B	42.803256	-73.861905
TCC	C	42.683401	-73.84044
Dance_Me	B	42.804974	-73.904446
English_Language_Study_Center	A	42.664123	-73.785664
Hudson_Shores_Medical_Group	A	42.726422	-73.701562
Terminix	D	42.71747	-73.838285
State_Farm	C	42.690492	-73.868057
Latham_Center	C	42.757264	-73.769098
Studio_Orlo	B	42.814904	-73.893062
Casa_De_Richani	B	42.803654	-73.864613
Allan_L_Nahman_DDS	A	42.674354	-73.815347
Capital_Region_Physical_Therapy	A	42.69322	-73.87324
Camelot_Room	B	42.664182	-73.78531
Janet_Gioia_Cruise_Planners	B	42.780006	-73.933657
Beer_Ruth_MD	A	42.758116	-73.7772
United_States_Postal_Service_(USPS)	C	42.722291	-73.75695
Andrew_Wood_DDS	A	42.678292	-73.84456
New_York_State_Association_Of_Library_Boards	B	42.703475	-73.745774
Bank_of_America	C	42.690546	-73.866184
The_Home_Depot	C	42.684983	-73.792173
Today's_Dental_Care	A	42.814865	-73.891113
Rose_Dental_Associates	A	42.70756	-73.861099
Starbucks	B	42.728145	-73.761156
Appliance_Man	C	42.706434	-73.826436
Dixon_David_J	A	42.693898	-73.771922
Lucie_Capek_MD_Plastic_Surgery	A	42.759071	-73.777148
Messing_Steven_G_DMD	A	42.684736	-73.837723
Table_41_Brewing_Co	D	42.772539	-73.754361
Pink	C	42.689641	-73.85158
Albany_Montessori_Education_Center	A	42.788458	-73.740815
Siena_Barber_Shop	B	42.735104	-73.762652
Avid_Insurance_Agency	C	42.737498	-73.844227
Albany_Urologic_Surgeons_PC	A	42.685478	-73.839067
Ramesh_West_Indian_American_Grocery_Store	C	42.799987	-73.948605
Weight_Watchers	B	42.761641	-73.750216
Algaithi_Grocery	C	42.791593	-73.92502
DCs_Pizza_&_Catering	B	42.676615	-73.824606
Chopped_&_Topped_Salads	B	42.71025	-73.81653
A_Perfect_Pet_Salon_&_Boutique	C	42.738712	-73.762781
Adirondack_Oral_Maxillofacial_Surgery	A	42.688118	-73.773156
Jj's_Cycle	C	42.724186	-73.700937
Johnson_Controls	C	42.701448	-73.8303
HomeGoods	C	42.736168	-73.764583
Price_Darin_M_DO	A	42.726884	-73.938158
Sears_Outlet_Store	C	42.695523	-73.847106
Guerra_Family_Chiropractic	A	42.745188	-73.865044
Pediatric_Dentistry_of_Albany	A	42.672993	-73.81322
Sneak_Peek_Keepsake_Ultrasound	A	42.744119	-73.837676
Trios_Pizzeria_&_Delicatessen	B	42.661061	-73.781927
Cook_Park	B	42.705821	-73.835268
Walmart	C	42.785604	-73.941729
Board_of_Cooperative_Educational_Svces	A	42.745551	-73.83634
Cdy_Albany_Pine_Hills	A	42.667288	-73.790473
Corporate_Woods_Children's_Center_Managed_By_Bright_Horizons_Inc	A	42.683319	-73.765867
Tai_Chi_&_Kung_Fu_Assoc	B	42.674534	-73.834273
Pizza_Express	B	42.676494	-73.824099
Dragon_City	B	42.676454	-73.82392
Discount_Dumpsters	E	42.772754	-73.715815
Frederick_J_Marra_DMD	A	42.769628	-73.700693
Panera_Bread	B	42.713352	-73.813801
Pizza_Hut	B	42.781579	-73.951727
Animal_House	C	42.77	-73.701732
Dott_Garage	D	42.693594	-73.804751
Upstate_Cellular_Phones	C	42.731868	-73.70723
Albany_Hypnosis_Center	A	42.721406	-73.863705
Albany_Medical_Center_Center_For_Donation_&_Transplant	A	42.682144	-73.847723
Grace_Nail_&_Spa	B	42.732976	-73.854598
Bethel_Thrift_&_Donation_Center	C	42.782482	-73.94193
Hudson_Valley_Foot_Associates	A	42.6893	-73.774632
Goodyear_Wholesale_Tire_Center	C	42.727952	-73.861199
Loudinville_Assisted_Living_Residence	B	42.682002	-73.760757
Spencer_Gifts	C	42.689248	-73.849798
Enterprise_Rent-A-Car	C	42.744258	-73.74887
The_Scarantino_Agency	C	42.781535	-73.904849
APlus	C	42.757791	-73.75818
Gold_Exchange	C	42.68977	-73.851118
St_Ambrose_School	A	42.757682	-73.752826
Anthem_Health_Svcs	B	42.726989	-73.854154
CAP_COM_Federal_Credit_Union	C	42.774299	-73.695905
One_Step_Above	B	42.76212	-73.752256
Hulse_Contracting_&_Construction	D	42.727406	-73.828088
Interfaith_Alliance_of_Nys	A	42.752734	-73.779903
Tesla_Supercharger_Guilderland	C	42.689306	-73.848395
Lisha_Kill_Sports_Complex	B	42.756999	-73.856912
True_Value_Hardware	C	42.732983	-73.792275
Emil_J_Nagengast_Florist	C	42.684198	-73.84095
Keller_Williams	C	42.763562	-73.754271
Hertz	C	42.851794	-73.936376
Eagle_Point_Elementary_School	A	42.673639	-73.816217
Deangelo's_Ristorante	B	42.791134	-73.939308
Yuan_Sushi	B	42.771945	-73.700559
Johnson_Garner_P	A	42.688071	-73.773152
Suzanne_Prezio	C	42.708392	-73.779163
Morning_Star_Missonary_Baptist_Church	A	42.66328	-73.776258
LensCrafters	A	42.689656	-73.851525
Village_Auto_Body_Shop	D	42.723153	-73.838597
Marshalls	C	42.776139	-73.891706
Things_Remembered	C	42.689535	-73.849756
Blessings_Jermain_Daycare_Center_Inc	A	42.713773	-73.709389
Scott_&_Son's_Moving_and_Handyman_Services	C	42.724881	-73.706235
S_&_G_Truck_Repair	D	42.738553	-73.791609
DiBella's_Subs	B	42.677335	-73.823188
The_Old_Brick_Furniture	C	42.703999	-73.827487
Futon_Galleria_Mattress_mart	C	42.738393	-73.762764
Miller_Robert_A	A	42.823086	-73.881457
Patrick's_of_Union_Street	B	42.803261	-73.901341
Delmar_Bootery	C	42.684023	-73.838906
Albany_Wheel_Services	D	42.680387	-73.879271
B_Brows	A	42.737206	-73.763574
Great_Wall	B	42.784103	-73.918558
Radiance_Hot_Yoga	B	42.727567	-73.759808
Hair_by_Cortney	B	42.714084	-73.828315
Bella_Hair_Salon	B	42.706801	-73.777757
Edge_City_Barber_Shop	B	42.800021	-73.925654
Lab_Corp	A	42.689355	-73.774668
Dollar_N_Things	C	42.708811	-73.817191
Spencer_Gifts	C	42.710956	-73.81543
Lena_Nail_Spa	B	42.714641	-73.828964
Roman_Jewels	C	42.688638	-73.860518
Fallon_Wellness_Pharmacy	A	42.765453	-73.808575
California_Closets	E	42.762359	-73.797469
Matador_Insurance_Agency	C	42.730702	-73.703165
Latham_Animal_Hospital	A	42.74293	-73.746804
Flowers_By_Randolph	C	42.793601	-73.936943
OshKosh_B'gosh	C	42.709299	-73.817279
American_Wrecker_&_Car_Carrir_Sls_&_Srvce_Incrprtd	C	42.7217	-73.863086
Vella_Hair_Design	B	42.792574	-73.933361
Vitality_Physicians_Group_Practice	A	42.709032	-73.863081
Marotta's_Towne_Pizza	B	42.762453	-73.939817
Capital_Vacuums	D	42.717122	-73.831758
7Th_Street_Park	B	42.714711	-73.705315
CVS	A	42.742735	-73.762586
Fuccillo_KIA	C	42.767193	-73.889907
Just_Threading	A	42.688168	-73.860461
Danielle's_Restaurant	B	42.724953	-73.799957
East_Coast_Discount_Tire	C	42.729512	-73.701863
Gallivan_Michael_T_Dr_DDS	A	42.775879	-73.701746
J_smitty_automotive	D	42.789357	-73.912461
Advance_Auto_Parts	C	42.738698	-73.762679
Mizu_Sushi	B	42.769718	-73.892657
I_Love_New_York_Pizza_of_Cohoes	B	42.778249	-73.709802
Kevin_Naylor_MetLife_Auto_&_Home	C	42.775379	-73.833685
Valente's_Restaurant	B	42.715956	-73.706158
TheBodyWorks_Wellness_Center	B	42.715458	-73.805749
Disney_Store	C	42.690001	-73.851315
CapitalCare	A	42.726869	-73.93813
Hertz	C	42.786552	-73.911351
Taco_Bell	B	42.785064	-73.945644
Stanford_Heights_Fire_Department_Station_2	A	42.744505	-73.902143
Congregation_Agudat_Achim	A	42.795213	-73.884033
Golden_Grain_Gourmet_Pizza	B	42.717395	-73.813001
Mobil	C	42.815848	-73.892236
Auto_Doctor	D	42.788297	-73.94508
Cafe_Calabria	B	42.688502	-73.861653
Dunkin'	B	42.756476	-73.758538
J_P's_Trains_&_Hobbies	C	42.742933	-73.74187
Famous_Footwear	C	42.69028	-73.851786
Aspen_Dental	A	42.684423	-73.794058
Caroline_E_Caputo_Integrative_Health_&_Venus_Legacy	B	42.751031	-73.758551
Cardiology_Associates_of_Schenectady	A	42.830745	-73.891035
Kennedy_Debbie_A_MD	A	42.685401	-73.838963
Family_Dollar_Stores	C	42.791831	-73.915985
Skyloft	B	42.68923	-73.849781
Sunoco	C	42.757823	-73.758194
S&amp_G_Roofing	D	42.766451	-73.887722
American_Red_Cross	A	42.68928	-73.777657
Albany_Advanced_Imaging	A	42.688472	-73.775559
Albany_Regional_Eye_Surgery_Center	A	42.761846	-73.749141
OrthoNY	A	42.693911	-73.771915
Kingsway_Village	B	42.774968	-73.916905
Price_Chopper_New_England	C	42.765215	-73.700507
Niskayuna_Fire_District_1	A	42.828913	-73.887833
Calvary_Tabernacle_Assembly_of_God	A	42.787452	-73.916399
GameStop	C	42.782547	-73.942727
Bumble_B_Boutique	C	42.727786	-73.761191
Spauldings_Tattoo_World	B	42.717179	-73.831828
T-Mobile	C	42.746554	-73.763213
GNC_(General_Nutrition_Centers)	A	42.774784	-73.892988
United_Methodist_Church	A	42.724784	-73.701739
Lubbe_&_Hosey_Cpa's_PC	A	42.74238	-73.838499
Blush_Salon	B	42.747894	-73.758467
Royal_Fried_Chicken	B	42.800071	-73.928316
Mr_Subb	B	42.696875	-73.883808
Wendy's	B	42.783008	-73.948385
Capital_Region_Otolaryngology_Head_&_Neck_Group	A	42.686625	-73.841376
Price_Chopper_New_England	C	42.776171	-73.892591
AÃ©ropostale	C	42.711082	-73.816137
Daves_moving_&_Junk_Removal	E	42.7944	-73.917519
Barnes_and_Noble	C	42.710998	-73.816009
Spektor_Boris_MD	A	42.772736	-73.750542
Town_of_Guilderland	B	42.717543	-73.935795
Shalimar	B	42.761914	-73.796345
The_Revolution	B	42.677477	-73.827208
JT_Maxies_Bar_&_Grill	B	42.726133	-73.797325
GE_Renewables_Training_Center	A	42.837011	-73.891616
Ambiance_Salon_&_Spa	B	42.753139	-73.764708
Subway	B	42.689711	-73.865855
Sasa_Mirkovic_Ameriprise_Financial_Services	A	42.715239	-73.812974
Quality_Inn	B	42.754677	-73.769505
Capital_Financial_Planning	C	42.685603	-73.842818
Fancy_Threading	A	42.735066	-73.76266
Music_To_My_Hair_Salon_&_Advanced_Academy	B	42.771203	-73.824175
D_&_M_Jerk_Center	B	42.663031	-73.775803
Sunoco	C	42.815867	-73.892867
Sunoco	C	42.729139	-73.760073
On_Tap	B	42.761153	-73.754608
Rocky_Mountain_Chocolate_Factory	C	42.683771	-73.839631
Boys_And_Girls_Clubs_Of_Schenectady_Keane_Elem_Aasp	A	42.796564	-73.924743
Subway	B	42.755414	-73.773497
Collins_Michael_K_Chiropractor	A	42.783757	-73.916773
Shedden_Andrew_MD	A	42.758337	-73.777396
Zeba_Furniture	C	42.785525	-73.910462
Canine_Clippers_&_Boutique	B	42.731957	-73.701484
New_Country_Lexus_of_Latham	C	42.77177	-73.752195
Community_Care_Physicians_Administrative_Offices	A	42.758162	-73.777362
Orangetheory_Fitness	B	42.782934	-73.890562
Dance_Me_Boutique	C	42.804979	-73.904427
Hansen_Farm_&_Nursery	D	42.747457	-73.866149
New_York_Oncology_Hematology_PC	A	42.77215	-73.753017
Stewart's_Shops	C	42.795595	-73.943416
Smokers_Choice	C	42.714233	-73.810285
Airport_Parking_by_AAA_Albany_Park_&_Fly	B	42.730452	-73.794283
Barcelona	B	42.676952	-73.82553
Pottery_Barn	C	42.688	-73.848161
TCBY	B	42.682233	-73.842252
Regal_Nails_Salon_&_Spa	B	42.746457	-73.764401
The_Doll_Factory	B	42.702092	-73.817904
CrossFit	B	42.694535	-73.818186
Zaber_Pamela_Dvm	A	42.760983	-73.791721
Jabbur_Munir_T_MD	A	42.693901	-73.771904
Zoom_Tan	B	42.735618	-73.763779
Littleminds_Daycare	A	42.743549	-73.759114
K_Plastic_Surgery	A	42.757814	-73.776786
Glenn's_Auto_Body	D	42.787996	-73.941146
Maplewood_Pathology	A	42.761055	-73.818488
Subway	B	42.715799	-73.812334
Salon_Harmony_West	B	42.780359	-73.704841
Sports_&_Spinal_Wellness_Center	A	42.697364	-73.885551
Tina's_Corner_Cafe	B	42.689277	-73.774647
Joli	B	42.70987	-73.818315
Office_Furniture_Express	C	42.702696	-73.824981
Atomic_Wings	B	42.687237	-73.858444
Residence_Inn_by_Marriott	B	42.725564	-73.795356
Empire_Wine	C	42.707038	-73.825718
Brookdale	B	42.80127	-73.897923
Stewart's_Shops	C	42.772364	-73.824539
Apicella_Edward_Dr	A	42.6855	-73.765634
Sleep_Number	C	42.688968	-73.848584
China_Max	B	42.689225	-73.84993
LePage's_Market	C	42.786909	-73.711813
Rjn_Physical_Therapy	A	42.750788	-73.757955
City_Squire_Ale_House	B	42.805067	-73.903936
Community_Reformed_Church_Of_Colonie_At_Colonie_Comm_Dcc	A	42.738169	-73.826379
Mystery_Rooter_Plumbing_&_Heating	C	42.790233	-73.940135
Community_Resource_Federal_Credit_Union	C	42.752044	-73.779246
Annur_Islamic_School	A	42.762073	-73.880949
Albany_Med_Community_Division_Pediatrics	A	42.683263	-73.846759
GP_North_East_Clippers	B	42.772471	-73.701351
Wendy's	B	42.702458	-73.814876
Lavender_Nail_Spa	B	42.804285	-73.904108
New_York_State_Liquor_Association	C	42.680648	-73.83798
Your_CBD_Store_Loudonville	A	42.708223	-73.776312
Advance_Auto_Parts	C	42.784415	-73.90793
Spindles_Wine_Bar	B	42.770295	-73.700122
Ploughman's_Saddlery_&_Belts	E	42.660067	-73.779452
Alexandria's_Beauty_Salon	B	42.746907	-73.759822
The_Home_Depot	C	42.698188	-73.847953
Leitner_Jeffrey_M_DMD	A	42.794557	-73.919587
Blaze_Pizza	B	42.771437	-73.892556
Hoffman_Development_Corp	D	42.727418	-73.842781
Pickles_Deli	B	42.757967	-73.8191
Celadon_Thai_Bistro	B	42.824828	-73.911293
Central_Market_Florist	C	42.687207	-73.860364
Adirondack_Electronics	C	42.744901	-73.862938
Target	C	42.70527	-73.824151
Waterworks_Touchfree_Car_Wash	D	42.715712	-73.841035
Starbucks	B	42.783612	-73.913655
SALON_Noir	B	42.763646	-73.754426
Cusato's_Pizzeria_&_Deli	B	42.782658	-73.949149
Andex_Auto_Service_Station	D	42.792492	-73.940687
Occupational_Medical_Services_PC	A	42.712719	-73.87297
Stewart's_Shops	C	42.697174	-73.76886
John_Milham_DC	A	42.771007	-73.755823
Lucky_House	B	42.77421	-73.701423
Simpson's	B	42.728328	-73.798723
Krause's_Homemade_Candy	C	42.718123	-73.832818
Gerardi_Joseph_MD	A	42.806779	-73.910535
Baby's_Debut_3D_4D_Imaging_Albany	A	42.720047	-73.807779
LIA_INFINITI	C	42.768244	-73.753065
Goodcoff_David_J_DDS	A	42.770401	-73.756927
Family_Pet_Center	C	42.689305	-73.848406
Panther_Dragon	C	42.727367	-73.706297
Sun_Nails	B	42.784564	-73.742833
iGrill	B	42.689457	-73.850723
House_of_Dogs	C	42.739312	-73.736074
Buchakjian_Leonard_M_PC	A	42.806524	-73.909918
Power_Cleaning	D	42.734793	-73.781603
Beacon_Roofing_Supply	C	42.691838	-73.812742
Colonie_Youth_Center_Inc_Southgate_School	A	42.722617	-73.775916
Sephora	A	42.687875	-73.847267
Capitaland_Dental_Associates	A	42.742988	-73.742509
St_Peter's_Hospital	B	42.721323	-73.80144
Where_Smiles_Grow_Latham	A	42.772045	-73.75667
J_Mclaughlin	C	42.727633	-73.761136
AT&T	C	42.727388	-73.844849
Campus_Convenient	C	42.661233	-73.774148
Red_Roof_Inn	B	42.723775	-73.801818
Capital_Area_Council_of_Churches	A	42.662008	-73.775379
Craig_Elementary_School	A	42.831686	-73.890629
Starbucks	B	42.689574	-73.850341
Blu_Stone_Bistro	B	42.729295	-73.796752
Taco_Bell	B	42.774827	-73.891998
Retreat_&_Renew	B	42.686794	-73.856083
Studio_2020_Fitness	B	42.716338	-73.805418
Hobby_Lobby_Stores	C	42.754111	-73.756555
Sanctuary_Yoga_&_Wellness	B	42.744676	-73.838065
Mobil	C	42.766197	-73.814588
LATHAM_MOTORS_INC	C	42.763023	-73.752868
Capital_Luxury_Cars	C	42.729457	-73.853452
Primerica	A	42.708572	-73.862565
Teacher_Placement_Services	A	42.717052	-73.807688
Todd_Vaccaro_DDS	A	42.802136	-73.897875
Mobil	C	42.747399	-73.759282
AAA	C	42.727825	-73.759802
Exit5_Auto_Group	C	42.738106	-73.767838
Vaughn_Vision	A	42.723014	-73.936205
Exclusive_Nail_Salon	B	42.717076	-73.810987
Martini's_Deli	B	42.744646	-73.838139
Retro_Fitness	B	42.733325	-73.853921
O'brien_James_MD	A	42.683727	-73.771215
CrossFit	B	42.775558	-73.750595
Sunoco	C	42.764181	-73.80131
Albany_Med_Allergy_&_Asthma_Center	A	42.70117	-73.84947
Papandrea_Louis_M_MD	A	42.683755	-73.77124
Ids_Life_Insurance_Co_of_New_York	C	42.714916	-73.876996
Paper_Shop	C	42.694547	-73.820021
Early_Childhood_Education_Center	A	42.704191	-73.855228
Watervliet_Pharmacy	A	42.731449	-73.705653
Aspen_Dental	A	42.781874	-73.950566
LIA_NISSAN	C	42.764693	-73.885186
Medozas_Auto	D	42.78112	-73.705986
Allstate_Insurance	C	42.69041	-73.865562
Crisp	B	42.72751	-73.761133
Latham_Bowl	B	42.745271	-73.750841
Harley_Davidson	C	42.740153	-73.859676
Moe's_Southwest_Grill	B	42.784868	-73.943694
Swarovski	C	42.689049	-73.848979
Capital_District_Family_Medicine_Assocs	A	42.772735	-73.752249
White_House_Black_Market	C	42.684957	-73.840016
Armory_Nissan	C	42.681001	-73.794128
Shaker_Road_Loudonville_Fire_Department_Station_2	A	42.724343	-73.772951
Edward_Jones	A	42.743489	-73.749082
Albany_Smiles	A	42.690349	-73.867574
H&R_Block	A	42.727965	-73.846249
Concord_Pools	C	42.758971	-73.759647
Seagroatt_Riccardi_LTD	C	42.751104	-73.778258
Vintage_Pizza	B	42.738089	-73.762983
Maggie_McFly's	B	42.689	-73.851429
Bryant_&_Stratton_College_Albany	A	42.698004	-73.809795
Engelmyer_Eric_I_MD	A	42.827201	-73.906701
Active_Family_Chiropractic_Pc	A	42.709154	-73.863245
Kavanaugh_John_H_MD	A	42.69387	-73.771785
EmUrgentCare	A	42.802142	-73.897866
New_Course_At_Albany_The_Pro_Shop	C	42.735913	-73.851246
SAS_San_Antonio_Shoemakers	C	42.725952	-73.760413
Dollar_General	C	42.738533	-73.856248
Price_Chopper_New_England	C	42.708826	-73.775556
Right_at_Home	B	42.734021	-73.762804
Adirondack_Wood_Shed	C	42.765768	-73.888447
Health_Street	A	42.689282	-73.774712
Cocca's_Appliances	C	42.706186	-73.826392
Treviso_By_Mallozzi's	B	42.706514	-73.858991
De_Vito_Michael_A_MD	A	42.686423	-73.840999
MetLife	C	42.775361	-73.83371
Albany_Curling_Club	B	42.675817	-73.845868
One_Stop_Car_Shop	D	42.795807	-73.922104
Valvoline	D	42.785716	-73.944375
Chu_Alan_MD	A	42.758104	-73.777253
Mobil	C	42.771667	-73.893694
Glennpeter_jewelers	C	42.709914	-73.818331
Camp_Bow_Wow	B	42.70448	-73.828528
Capital_Care_Family_Practice_Ravena	A	42.796783	-73.892811
Elaine_Ramundo_&_Assoc_Nationwide_Insurance	C	42.707781	-73.861641
Niskayuna_Farmers_Market	C	42.819047	-73.885499
Garden_Bistro_24	B	42.772502	-73.82307
Mondragon_McGrinder_Medical_Associates	A	42.803771	-73.914468
Cury_Mark_D_DMD	A	42.760086	-73.78648
Cohoes_Savings_Foundation	C	42.775263	-73.701672
Siebeneck_Aaron_DPM	A	42.75873	-73.776933
Veterans_Memorial_Park	B	42.727164	-73.701601
Bell_Samuel_D_Dr_Podiatrist	A	42.807842	-73.868552
Vinh_Phuong_MD	A	42.758098	-73.777227
New_Ming's_Wok	B	42.729937	-73.849984
Teal_Wealth_Management_Ameriprise_Financial_Services	A	42.716913	-73.80766
Dunkin'	B	42.65266	-73.757465
Brown_Bag_Sub_Shoppe_3	B	42.804929	-73.904402
St_Kateri_Parish_School	A	42.80152	-73.896591
Rafani_Leather	E	42.689302	-73.8484
Carrier_Enterprise	C	42.695136	-73.815659
Albany_RV	C	42.750631	-73.773904
Watervliet_Civic_Center_Before_&_After_School_Program	A	42.73727	-73.710893
Samurai_Japanese_Restaurant	B	42.721692	-73.803266
Spicy_Mint_Albany	B	42.717629	-73.804434
1st_Advantage_Dental_Albany	A	42.721424	-73.837704
Castle_Barbershop	B	42.737222	-73.763579
Amazingly_Ageless_MedSpa	B	42.770695	-73.82345
Stride_Rite	C	42.683669	-73.840598
The_Exchange	C	42.709819	-73.707223
Johnny_C's_Pizzeria_and_Family_Restaurant	B	42.781668	-73.952869
Nori_Japan	B	42.710755	-73.816207
Sadudee_Thai_Food	B	42.724536	-73.700517
Cumberland_Farms	C	42.692384	-73.803239
Hardy_Anton_G_PHD	A	42.665431	-73.789113
Stewart's_Shops	C	42.674113	-73.8166
Mr_Subb	B	42.707591	-73.778429
Zaitoon_Kitchen	B	42.747006	-73.758655
CAP_COM_Federal_Credit_Union	C	42.783527	-73.892459
Perfect_Score_Tutoring_and_Test_Preparation	A	42.680768	-73.763777
Domino's_Pizza	B	42.746419	-73.761007
Ceramic_Decor_&_More	C	42.745877	-73.864125
Vans	C	42.689226	-73.849929
Capurso_Rose_J_PHD	A	42.709461	-73.864064
Attentive_Care	B	42.719555	-73.808959
Cumberland_Farms	C	42.740233	-73.735449
Endoscopy_and_Surgical_Care_Suite	A	42.758727	-73.776899
Reds_Field	B	42.716253	-73.705385
CarmA'lis_Salon	B	42.732199	-73.848643
Islamic_Center_School_Bldg	A	42.761899	-73.881102
Carman_Wine_&_Liquor	C	42.732968	-73.938641
Golden_House	B	42.804253	-73.90251
Millview_Assisted_Living	B	42.765817	-73.754104
Al_Aqsa_Meat_and_Grocery	C	42.73936	-73.736187
Uncle_Rico's_Pizza	B	42.816551	-73.890779
Best_Fitness	B	42.783981	-73.920446
Pho_Yum	B	42.715043	-73.830671
Super_Auto_Care	C	42.750406	-73.86975
KeyBank	C	42.707853	-73.776058
Mobil	C	42.705754	-73.777024
Diner_Time	B	42.748555	-73.760202
Citi_Trends	C	42.782663	-73.941647
Chipotle_Mexican_Grill	B	42.716019	-73.810026
FASTSIGNS	E	42.71726	-73.8319
Relish_Experience	B	42.718481	-73.807644
King_Cork_Wine_&_Liquor	C	42.784241	-73.917989
Loudonville_Wine_&_Spirits	C	42.708454	-73.775384
Top_Shelf_Wine_&_Spirits	C	42.684851	-73.84107
Up_State_Painters	D	42.737821	-73.742744
Super_8	B	42.755786	-73.774129
Visiting_Angels	B	42.712709	-73.828008
The_Barber_Parlor	B	42.690273	-73.80117
Mont_Pleasant_Middle_School	A	42.797318	-73.939617
The_College_of_Saint_Rose	B	42.664087	-73.785649
Viola_Theresa_MD	A	42.829151	-73.88867
Katz_Richard_L_MD	A	42.693885	-73.771762
Carter's	C	42.775982	-73.889674
Diana_Kathleen_Beauty_&_Lash_Artistry	A	42.771214	-73.755126
Blessed_Virgin_Mary_of_Czestochowa_Parish	A	42.727081	-73.790212
Cumberland_Farms	C	42.769548	-73.81835
Charlotte_Russe	C	42.689304	-73.848406
V_Mathis_Insurance_Agency	C	42.721136	-73.808735
Mohawk_River_State_Park	B	42.797739	-73.853321
Colonie_Babe_Ruth_League	B	42.708484	-73.832582
McDonald's	B	42.683486	-73.794685
The_Hot_Yoga_Spot	B	42.683733	-73.83962
Lowe's	C	42.70592	-73.828678
Good_Choice_Dog_Training	B	42.690991	-73.810656
J.Jill	C	42.688784	-73.84921
Don_Warren_Music	C	42.778127	-73.900885
New_York_Power_Authority_Crescent_Plant	E	42.783994	-73.70758
Orange_Julius	B	42.689504	-73.850747
Cortnee_Whipple_DC	A	42.698001	-73.768635
St_Josephs_Church	A	42.770846	-73.702674
Dunkin'	B	42.759962	-73.941823
Advanced_Hearing_Aid_Centers	A	42.714096	-73.829324
Jammin'_Ink_Tattoos_&_Piercing	B	42.697677	-73.824775
Lilac_Blossom_Gourmet_Asian_Cuisine	B	42.691136	-73.868222
Action_Of_Grace_Tabernacle	A	42.787177	-73.929431
Hershey's_Ice_Cream	B	42.798398	-73.926514
Albany_Pine_Bush_Preserve	B	42.718676	-73.864833
Western_Union	C	42.685714	-73.782747
U-Haul	C	42.777965	-73.933907
Purgatory_Tattoo_Co	B	42.744074	-73.86354
Pregna_Fit	B	42.743543	-73.749201
January_Environmental_Services	E	42.715567	-73.80564
American_Red_Cross_Rensselaer_County_Chapter	A	42.689324	-73.777664
Draper_Middle_School	A	42.770525	-73.955912
Gel_Nail_Salon	B	42.80329	-73.899937
Stewart's_Shops	C	42.781258	-73.904262
Ghi_Family_Dental_Practice	A	42.693034	-73.873314
Mobil	C	42.743501	-73.91757
Cohoes_Fire_Department_Station_1	A	42.768815	-73.704154
Cohoes_Music_Hall	A	42.775679	-73.701671
Decker's_Pondscapes	C	42.789158	-73.737591
City_Nail	B	42.717605	-73.813242
Caprice_Beauty_Bar	B	42.772493	-73.700484
Qualters_Mary_Csw	A	42.738917	-73.841295
Keystone_Automotive	C	42.725461	-73.85349
Cap_Com_FCU	C	42.715546	-73.804398
Gentlemen's_Corner_Barbershop_&_Shave	B	42.730746	-73.70313
Price_Chopper_New_England	C	42.782562	-73.955091
Family_Care_Massage	B	42.771223	-73.755139
Kurtis_Parde_Ameriprise_Financial_Services	A	42.687987	-73.773001
Five_Star_Nails	B	42.732053	-73.848244
Mr_Subb	B	42.78099	-73.955385
The_Poke_Bar	B	42.708406	-73.775288
Comis_Michael_J_DDS	A	42.807492	-73.91233
St_Gregory's_Summer_Camp	B	42.720574	-73.768667
Star_Liquors_&_Wines	C	42.799318	-73.926016
Camila's_to_go	B	42.696852	-73.768007
TC_Nails	B	42.781211	-73.905898
United_Rentals	C	42.713408	-73.839154
Consumer_Directed_Choices	B	42.711384	-73.8657
T_Time_Adventures_Inc	A	42.802578	-73.901509
Sweet_Willy's_Pizzeria	B	42.690534	-73.783291
Bunker_Nancy_MD	A	42.752109	-73.76199
Mathnasium	A	42.816508	-73.89054
Best_Buy	C	42.689991	-73.850411
Center_For_Sports_Medicine	A	42.725791	-73.936058
Schuyler_Auto_Body	D	42.708551	-73.710093
Colonie_Mechanics	D	42.752175	-73.871666
Mobil	C	42.783506	-73.743477
Foot_Locker	C	42.710468	-73.815471
Andy_Vosburgh_Auto_Repair	C	42.743299	-73.745208
Dean_Street_Park	B	42.825386	-73.897914
T-Mobile	C	42.690232	-73.852478
Save-A-Lot	C	42.783303	-73.946312
Ground_Equipment	C	42.730398	-73.71064
CosmoProf	C	42.7177	-73.80451
AutoZone	C	42.729203	-73.845047
Koto_Japanese_Steak_House	B	42.729903	-73.795328
Richard_T_Bauer_III_DPM_AACFAS_Summit_Foot_&_Ankle	A	42.764646	-73.811245
Pioneer_Bank	C	42.781083	-73.952657
Lucky_Strike_Social_Albany	B	42.689487	-73.850746
ABunchABrunch	B	42.689479	-73.850733
Kerstin_Medwin_DC	A	42.697963	-73.768608
Pomato_Anthony_D_Dr	A	42.805374	-73.907023
Passport_Health	B	42.717217	-73.807705
M&T_Bank	C	42.727386	-73.759818
GNC_(General_Nutrition_Centers)	A	42.710552	-73.816384
Cohoes_High_School	A	42.774974	-73.718852
Nail_7	B	42.76358	-73.798686
Stepping_Stone_Massage	B	42.781986	-73.953134
Sahr's_Food_Service	C	42.775257	-73.953597
Christ_the_King_Church	A	42.682533	-73.779967
Colonie_LFGTE_Facility	E	42.807663	-73.731726
Midas	D	42.763467	-73.801795
STS_Tire_&_Auto_Centers	D	42.682723	-73.79235
Verilife_Albany	C	42.687207	-73.84226
Kids_Foot_Locker	C	42.688554	-73.848194
Parkway_Liquor	C	42.783015	-73.890796
Mac's_Drive_In	B	42.714198	-73.706153
Work_Fit_Medical	A	42.69521	-73.878863
Sunmark_Federal_Credit_Union	C	42.732528	-73.849277
ABF_Freight_System	E	42.802169	-73.727011
Kohl's	C	42.728959	-73.850729
Grassland_Equipment_Irrigation	B	42.760988	-73.793735
Central_Park_International_Magnet_School	A	42.801574	-73.917006
Imagecare_Latham	A	42.758324	-73.777448
Lit_Hookah_Lounge_&_Cafe	B	42.713428	-73.828631
VCA_Animal_Hospitals	A	42.728421	-73.786778
Pretty_Nail_&_Spa	B	42.761875	-73.796186
Philly_Bar_and_Grill	B	42.736966	-73.767918
Home_Evolution_Windows	B	42.81104	-73.734776
Central_Market_Florist	C	42.806861	-73.914726
ULTA_Beauty	A	42.75726	-73.769105
Simply_Smooth_Skin	B	42.689238	-73.864225
Fly_To_Fit_Bungee_Fitness_Studio	B	42.729818	-73.85029
NY_Tag_&_Title_To_Go	A	42.695139	-73.807996
Mr_Fuji_Sushi	B	42.683549	-73.840465
Mosall's_Grove	B	42.672958	-73.847681
Pearl_Grant_Richman's	C	42.684304	-73.839143
Painting_with_a_Twist	A	42.756927	-73.757439
Berkshire_Bank	C	42.697683	-73.76807
Giordano_Chiropractic	A	42.807833	-73.911731
Advanced_Bodyworks_Wellness_Center	B	42.721404	-73.863689
Mayfair_Jewelers	C	42.750905	-73.764311
Goldstock_Leonard_E_MD	A	42.693897	-73.771803
Discount_Wine_Liquor_Giant	C	42.816557	-73.889153
Olde_Saratoga_Coin	C	42.716983	-73.831624
United_States_Postal_Service_(USPS)	C	42.81485	-73.890503
Watervliet_Fire_Department	A	42.722956	-73.703167
Parikh_Nita_MD	A	42.758041	-73.777382
Central_Market_Florist	C	42.776171	-73.892593
Robert_Kennedy_MD_Kennedy_Optical	A	42.830032	-73.903437
Intuitive_Medium_Christine	C	42.691166	-73.868022
Healthcare_Professionals_Insurance_Company	C	42.681802	-73.848506
Burger_King	B	42.783696	-73.948403
Hana_Japanese_Sushi_&_Steakhouse	B	42.684727	-73.850387
Kim's_Asian_Market	C	42.720648	-73.835731
Cleopatra's	B	42.72458	-73.841623
As_Seen_On_TV	C	42.689335	-73.848393
Bellezza_Hair_Salon	B	42.700902	-73.820547
Rent-A-Center	C	42.773355	-73.697302
Acess_Auto_Sales_&_Service	D	42.698982	-73.822295
Guilderland_Travel_Plaza	C	42.743817	-73.918192
CAPITALCARE_Mcdical_Group	A	42.804491	-73.915977
Little_Anthony's	B	42.68842	-73.799091
Pioneer_Bank	C	42.72767	-73.845812
Pretzelmaker	C	42.688657	-73.849043
Lindenberg_Barry_S_MD	A	42.830738	-73.891045
Catherines_Plus_Sizes	C	42.683913	-73.839788
Stuyvesant_Plaza	C	42.683851	-73.839693
Combined_Life_Insurance_Company_of_New_York	C	42.761293	-73.81713
Five_Guys	B	42.710904	-73.816326
Danea_the_L_E	A	42.702417	-73.81324
St_Margaret_Mary's_Church	A	42.675964	-73.822408
Albany_Honda	C	42.733438	-73.8493
Subway	B	42.727834	-73.8438
Glen_Eddy	B	42.77687	-73.878988
Tangles	B	42.769553	-73.892287
Douglas_Larsen_DO	A	42.683312	-73.846751
Guilderland_Family_Dentistry	A	42.726378	-73.937901
Victory_Child_Care_Inc_Pine_Bush_Elementary	A	42.745866	-73.940667
Boys_&_Girls_Clubs_of_America	B	42.801673	-73.916866
Dunkin'	B	42.764138	-73.801702
Trader_Joe's	C	42.714277	-73.812002
Albany_Braces	A	42.772632	-73.757994
Thayer_Richard_D_DDS	A	42.738913	-73.841115
Advance_Auto_Parts	C	42.737186	-73.701227
Warren_Tire	C	42.732167	-73.852915
Jiffy_Lube	D	42.756989	-73.777622
Thinkgeek	C	42.689432	-73.84968
MobilityWorks	B	42.73313	-73.853588
Ballston_Spa_National_Bank_(BSNB)	C	42.695108	-73.879437
Uno_Chicago_Grill	B	42.68957	-73.849732
Rizzuto_Bart_M_DDS	A	42.827761	-73.892448
Michael_Kowal_DDS	A	42.773277	-73.700746
Quest_Diagnostics	A	42.792064	-73.917734
Dream_Autos	D	42.789757	-73.938258
Lozman_Orthodontics	A	42.762799	-73.746007
Penseys	C	42.683783	-73.840793
Different_Drummer's_Kitchen	C	42.685162	-73.840492
Cummings_Robert_DMD	A	42.685427	-73.838934
The_Art_of_Shaving	C	42.688858	-73.848736
Sampson's_Prosthetic_&_Orthotic_Lab	A	42.782928	-73.906276
Hana_Express	B	42.68934	-73.84841
Target	C	42.775208	-73.889419
Fly_Boutique	C	42.727926	-73.761149
Ramiros_Deli	B	42.719104	-73.80347
Bloom_Well_Center	A	42.683052	-73.846996
Flaim_Thomas_N_MD	A	42.683216	-73.770192
The_Smile_Zone	A	42.725026	-73.823015
Amelia's_Italian_Eatery	B	42.784974	-73.909791
Forever_Beautiful	A	42.732273	-73.761717
Super_8	B	42.763678	-73.938109
Polson_Place	C	42.816333	-73.890074
Carman_Body_Works	D	42.788722	-73.92944
Gold_N_Diamonds	C	42.689576	-73.851071
American_Red_Cross_of_Northeastern	A	42.689321	-73.777669
Tech_Valley_Office_Interiors	C	42.691002	-73.807645
Julia_Cerny_DMD_PLLC	A	42.76966	-73.822369
Grace_Fellowship	A	42.736151	-73.730809
O'Reilly_Auto_Parts	C	42.737978	-73.855422
St_Andrew's_Episcopal_Church	A	42.664578	-73.788312
Caliber_Collision	D	42.718983	-73.832987
Bath_&_Body_Works	A	42.70969	-73.816748
KeyBank	C	42.677151	-73.826053
Buy_Buy_Baby	C	42.70624	-73.824988
Malo's_Barber_Shop	B	42.769662	-73.702762
Graham's_Coffee_Parlor	B	42.773228	-73.896313
DSW_(Designer_Shoe_Warehouse)	C	42.688041	-73.848186
Kids_Express_And_Achievements_At_Maplewood_School	A	42.743096	-73.701558
Firefly_Firearms	C	42.826202	-73.911512
Letteriello_Denise_DO	A	42.695183	-73.878744
Northwestern_Mutual	C	42.688427	-73.775586
M&T_Bank	C	42.717249	-73.807714
Brittany_Jewelers	C	42.719146	-73.834142
Bilinski_Sausage_Mfg	C	42.758354	-73.704475
Gillette_Creamery	B	42.6951	-73.811753
Advance_Auto_Parts	C	42.72825	-73.846603
Early_Childhood_Education_Center	A	42.74589	-73.940685
Delightful_Foot_Spa	B	42.71706	-73.831688
Baron_Home_Inspection	B	42.744359	-73.862425
Mobil	C	42.677069	-73.824318
O'Toole's_Restaurant_Pub	B	42.730094	-73.849397
Omilin_Auto_Svce	C	42.768652	-73.910749
Dollar_General	C	42.762095	-73.753304
New_York_State_Council_of_Churches	A	42.715972	-73.83218
Pier_1_Imports	C	42.720468	-73.804706
Master_Yang's_Martial_Arts_Center	B	42.752457	-73.758388
Valoze_Greenhouses	D	42.789043	-73.736832
Mercury_Insurance	C	42.761003	-73.81582
Stockyard_Bar_B_Q	B	42.700756	-73.830191
YMCA	B	42.791535	-73.940009
Funny_Bone_Comedy_Club_&_Restaurant	C	42.689249	-73.851072
Spa_Mirbeau	C	42.689229	-73.849808
The_Albany_Center_For_Pain_Management	A	42.694929	-73.772576
Goldman_Mark_DDS	A	42.772449	-73.822943
Midas	D	42.724839	-73.841694
Albany_FIT_Strength_&_Conditioning	B	42.710939	-73.843606
Western_Union	C	42.661185	-73.777696
Moore_Insurance_Agency	C	42.688422	-73.778517
Wei_Wei_Acupuncture_P_C	A	42.701597	-73.819782
Brookdale	B	42.77971	-73.842712
A_C_Moore_Arts_and_Crafts	C	42.75496	-73.756438
The_Car_Buyers_Helpline	C	42.715581	-73.804383
Di_Napoli_Opticians	A	42.727404	-73.759825
Subrata_Mukherjee_DDS	A	42.685419	-73.838967
Rotterdam_Martial_Arts	B	42.775515	-73.935267
Occupational_Medical_Services_PC	A	42.700942	-73.815916
AGL_Auto_Experts	C	42.811269	-73.732653
Kay_Jewelers	C	42.711047	-73.816108
Travelodge	B	42.713379	-73.818267
Joseph_Wayne_MD	A	42.737566	-73.786849
Capital_Care_Pediatrics_Albany	A	42.686415	-73.840993
Sport_Clips	B	42.728785	-73.847096
St_Peter's_Health_Care_Services	A	42.721348	-73.801414
Aerie	C	42.689332	-73.848427
First_New_York_Federal_Credit_Union	C	42.801435	-73.898671
AutoZone	C	42.781168	-73.954594
Rotterdam_Wine_&_Liquor	C	42.782508	-73.94267
Shaker_Road_Elementary_School	A	42.709757	-73.782626
North_Country_Financial_Group	A	42.734249	-73.793188
Eastern_Parkway_United_Methodist_Church	A	42.802568	-73.90147
Northwoods_Rehabilitation	B	42.829833	-73.896206
Sunoco	C	42.707461	-73.712231
Cohoes_Judo_Club	B	42.772741	-73.700782
Five_Guys	B	42.682219	-73.842188
Pine_Bush_Elementary_School	A	42.746011	-73.940625
George's_Market_and_Nursery	D	42.760118	-73.768497
D_P_Dough	B	42.66148	-73.776825
Guilderland_Mobil_Mart	C	42.714786	-73.931865
Caskade_Kitchen_&_Bar	C	42.771697	-73.700979
First_United_Methodist_Church	A	42.7735	-73.700765
Lumber_Liquidators	C	42.706425	-73.826418
Imperial_Home_Theatre_Systems	C	42.733236	-73.706162
Shear_Image	B	42.710628	-73.805274
Becker_Grocery	C	42.799967	-73.921494
Northeastern_Tire_Retreaders	C	42.682884	-73.77551
Econo_Lodge	B	42.718693	-73.836292
Starbucks	B	42.815741	-73.890916
Tint_World	C	42.68552	-73.79491
Daniel_Arenos_MD	A	42.684744	-73.837754
Peter_Bazanos_Ameriprise_Financial_Services	A	42.687949	-73.772987
Jewish_Community_Center_Birchwood_Elementary	A	42.767867	-73.841123
Justice_John_Agency	C	42.76971	-73.754357
Dairy_Queen	B	42.720549	-73.836883
Speedway	C	42.721081	-73.803624
Merry_Maids	D	42.765013	-73.755729
FUCCILLO_LINCOLN_INC	C	42.765769	-73.886562
Venetian_Nails_Spa	B	42.735945	-73.764313
Boscov's	C	42.709849	-73.815304
Quest_Diagnostics	A	42.684715	-73.837724
Pearl_of_the_Orient	B	42.707483	-73.777143
Beauty_&_Bliss	B	42.751298	-73.871872
Miracle-Ear	A	42.723107	-73.799296
Jay_St_Video_Games	C	42.689299	-73.850684
V_Salon	B	42.676001	-73.822424
Cool_Insuring_Agency	C	42.758043	-73.783663
Hillside_School	A	42.806747	-73.89407
Dr_Detail_Auto_Spa	D	42.695586	-73.794105
Acupuncture_Health_Care_Center	A	42.714341	-73.804482
CVS	A	42.726383	-73.761125
Friedman_Mark_DPM_PLLC	A	42.686404	-73.840992
State_Street_Convenience	C	42.795911	-73.921097
Core_Physical_Therapy	A	42.695232	-73.878844
Chowfun_Express	B	42.68691	-73.85885
Colonie_Plaza	C	42.732736	-73.854847
Scoups_Homemade_Ice_Cream	B	42.716912	-73.786519
Five_Guys	B	42.775009	-73.892997
Insight_Physical_Therapy	A	42.668077	-73.797903
Atria_Crossgate	B	42.694939	-73.851658
Soft_N_Cushy_Auto_Upholstery_&_Accessories	C	42.783187	-73.906624
Reed_Ference_DDS_M_DENT_Capital_Region_Periodontics_&_Dental_I	A	42.671166	-73.807373
Teri_Rudolph's_Dog_Training_Services	B	42.749235	-73.715661
Advance_Auto_Parts	C	42.783898	-73.945858
JD_Tire	D	42.748364	-73.868382
State_Farm	C	42.731217	-73.761434
Roto_Rooter_Plumbing_&_Drain_Services	C	42.751563	-73.794133
Watervliet_Junior_Senior_High_School	A	42.730947	-73.715955
ITT_Technical_Institute	A	42.735401	-73.819375
Jay_Dee_Systems	C	42.718111	-73.719554
T-Mobile	C	42.71081	-73.820237
Van_Schaick_Park	B	42.766891	-73.689019
Victra	C	42.710694	-73.816164
Courtyard_by_Marriott	B	42.725829	-73.79551
Field_Realty	C	42.742917	-73.742204
Hallmark_Cards	C	42.689687	-73.851657
CVS	A	42.790275	-73.938484
Boomer_McLoud_At_Car_Essentials	C	42.788855	-73.936525
Capital_Region_Orthopaedics	A	42.758936	-73.776967
State_Street_Car_Wash	D	42.798613	-73.925182
Platinum_Skin_Clinic	A	42.754787	-73.774728
Arch_Threading_Experts	A	42.710782	-73.81652
DHM_Properties	C	42.67996	-73.764839
Honey_Gardens	B	42.735167	-73.762671
Hoover_Eric_MD	A	42.758117	-73.777248
Sisters_of_St_Joseph	A	42.710631	-73.712194
WinWholesale	C	42.69944	-73.825175
Mohonasen_Senior_High_School	A	42.76856	-73.957218
110_Grill	B	42.689357	-73.851689
Visionworks	A	42.685261	-73.795369
H&M_(Hennes_&_Mauritz)	C	42.689144	-73.849841
Tesoros_Cafe	B	42.803751	-73.902589
Kidz_Korner	A	42.723172	-73.936195
Physicians_Office	A	42.804379	-73.914975
Crawford_Insurance_Agency	C	42.744859	-73.753199
Pixie_Salon	B	42.698724	-73.812196
Staged_Nest_Real_Estate	C	42.727799	-73.761759
Nina_and_Kristen_At_Haven_Hair_Studio	B	42.701929	-73.81416
Brazilian_Steakhouse	B	42.720477	-73.83565
Nite_Moves_Gentleman's_Club	A	42.737465	-73.761732
O'brien's_Gift_Baskets	C	42.713444	-73.712295
Empire_Health_&_Wellness_Center	B	42.771082	-73.755869
Capital_District_Secure_Juvenile_Detention_Center	A	42.753256	-73.818659
Exxon_Mobil	C	42.689724	-73.800743
Orkin	D	42.736919	-73.793874
Farrell_Peter_A_Investment_Management_Svces	A	42.683474	-73.764746
Kiernan's_Craft_Tavern	B	42.757237	-73.761474
A_Magic_Kingdom	A	42.78705	-73.901691
The_Holistic_Network	A	42.666101	-73.789474
Sunoco	C	42.735164	-73.701112
Golden_Wok_Restaurant	B	42.757187	-73.761211
Glennpeter_Jewelers	C	42.710119	-73.816864
Dejavu	C	42.717234	-73.832004
Vachon_Francois_DO	A	42.725673	-73.936264
Colonie_Youth_Center_Inc_Loudonville_School	A	42.706019	-73.756538
Lee's_He_&_She_Hairstyles	B	42.777431	-73.933153
Tom_Burdick_CFP_Empire_Financial_Advisors	A	42.753255	-73.78132
Kirvin_William_Insurance	C	42.802345	-73.900741
The_Purple_Pub	B	42.7399	-73.700789
XPO_Logistics	C	42.704534	-73.825984
The_Battery_Store	D	42.767524	-73.889133
Watervliet_Elementary_School	A	42.737543	-73.710545
Target	C	42.756289	-73.770348
Super_Shoes	C	42.707405	-73.825709
Best_Cleaners	E	42.747564	-73.760568
Delmonico's_Italian_Steakhouse	B	42.714957	-73.829133
Stewart's_Shops	C	42.782929	-73.892619
Michael_J_Maloney_DDS	A	42.739984	-73.737284
Make_Your_Mark_Tattoo_Studio	B	42.700881	-73.814276
Sanjiv_Kayastha_MD_K_Plastic_Surgery	A	42.75783	-73.776787
Cummins_Sales_and_Service	D	42.700823	-73.82884
John_R_Zongrone_Agency_Inc	C	42.788382	-73.913483
Bonanno_Michael_Cfp	A	42.705667	-73.777486
State_Farm	C	42.816374	-73.892849
Tip_To_Toe_Nails	B	42.686147	-73.854268
Raymour_and_Flanigan_Furniture	C	42.755602	-73.756084
Extreme_Molding	C	42.719163	-73.705783
Stewart's_Shops	C	42.773949	-73.936504
Bible_Church_of_Christ	A	42.794391	-73.951273
Adirondack_Tire_&_Service	C	42.748874	-73.890208
Burlington	C	42.747906	-73.763986
New_Panda	B	42.799301	-73.947722
Our_Lady_of_the_Assumption_Church	A	42.733927	-73.754973
Gap	C	42.688213	-73.848463
Keith_Cunningham_Ameriprise_Financial_Services	A	42.715325	-73.813012
BodySense_Massage_Therapy	B	42.806028	-73.90727
Joseph_Krongold_Sunrise_Realty_Advisors	C	42.705121	-73.857411
Phillips_Restoration	D	42.771004	-73.91447
Sbarro	B	42.689325	-73.849877
Hu's_House	B	42.718864	-73.833795
China_Star	B	42.783382	-73.94421
New_Loudon_Chiropractic	B	42.726867	-73.761864
BlueLine_Rental	C	42.7134	-73.839136
Paige_School	A	42.785938	-73.903245
The_College_Advisor_Of_NY	A	42.680792	-73.763702
Whalen_John_T_MD	A	42.693883	-73.771762
McDonald's	B	42.727616	-73.700797
Harmony_Hill_School	A	42.775032	-73.718936
J_P_Gas_&_Mart	C	42.795104	-73.929779
Anthony's_Chocolate_Dipped_Fruit	C	42.723342	-73.838898
Macaroni_Grill	B	42.720085	-73.802713
GottaVape	C	42.780805	-73.953796
Choice_Connections_of_NY	B	42.723874	-73.914512
Strategic_Pension_Services	A	42.693516	-73.76433
Zoar_Financial	A	42.720146	-73.808808
Pup_E_Cise	C	42.804925	-73.905795
Mark_Lawson_Antiques_Inc	C	42.721472	-73.798116
Everett_Auto_Repair	D	42.689621	-73.778394
Belanger_School_Of_Nursing	A	42.802989	-73.915807
Kiddie_Academy	A	42.702649	-73.861035
Kingsway_Manor_Assisted_Living	B	42.775941	-73.914015
Justice	C	42.690212	-73.851648
Ollie's_Bargain_Outlet	C	42.697392	-73.84719
Wheelers	B	42.691684	-73.802689
Ministry_of_Christ_Church	A	42.801856	-73.949113
United_States_Postal_Service_(USPS)	C	42.683756	-73.840776
Marriott_Hotels	B	42.720732	-73.799727
Inferno_Pizzeria	B	42.772698	-73.687627
Niskayuna_Barber_Shop	B	42.815948	-73.894143
Wired_Coffee_and_Bagel	B	42.725813	-73.793726
Circles	C	42.684869	-73.840906
Solartech_Window_Tinting	C	42.792088	-73.917898
Mobil	C	42.786778	-73.941564
Schuyler_Bakery_Inc	B	42.714045	-73.706919
PetSmart	C	42.771841	-73.892201
The_Tailored_Tea	B	42.763316	-73.802501
Dunkin'	B	42.720167	-73.836505
Joe's_Grill	B	42.685736	-73.797069
Residence_Inn_by_Marriott	B	42.692664	-73.850302
Glass_America	D	42.767913	-73.890513
GNH_Design_Showroom	C	42.757466	-73.758649
Church_of_the_Nazarene	A	42.787634	-73.904066
Raya_Wellness	B	42.731962	-73.782801
St_Peter's_Hospital	A	42.709566	-73.864012
Hoffman_Development_Corp	D	42.756994	-73.777619
Newton_Medical_PC	A	42.726789	-73.761046
Capital_Region_Vein_Centre	B	42.807169	-73.910096
DCI_Albany_NY	A	42.699188	-73.851829
B_and_J_Guns	C	42.723468	-73.840294
Tanpopo_Ramen_and_Sake_Bar	B	42.804795	-73.904142
Nothing_Bundt_Cakes	E	42.717397	-73.809374
Raymond_James_Financial	A	42.682993	-73.846953
No_1_Chinese_Restaurant	B	42.800112	-73.926733
Days_Inn	B	42.717855	-73.834213
Palazzo_Nail_Spa	B	42.758882	-73.766887
Hot_Dog_Charlie's	B	42.751938	-73.700609
JN_Phillips_Auto_Glass	C	42.732305	-73.849094
Hooked_Seafood	B	42.770794	-73.824464
Sbarro	B	42.710529	-73.816115
Newton_Wine_&_Spirits	C	42.726972	-73.761033
Salon_39	B	42.771529	-73.946697
CrossFit	B	42.713928	-73.810205
Best_Fire_Hearth_&_Patio	C	42.726845	-73.844003
Rent-A-Center	C	42.782468	-73.941938
IRwise_Imaging	A	42.693238	-73.873243
ABC_Supply	C	42.725683	-73.850473
Ideal_Image	B	42.712875	-73.814419
Capital_Radiology_Associates_PC	A	42.734954	-73.792956
D'Carlito_Pizza_&_Pasta	B	42.661969	-73.776796
Boght_Montessori	A	42.788481	-73.740795
Timothy_R_Esmay_DDS	A	42.672295	-73.808584
Moe's_Southwest_Grill	B	42.71074	-73.816506
Havoc_Archery	C	42.72349	-73.84031
Route_20_Butcher_&_Deli	C	42.689838	-73.866204
Lisha_Kill_Middle_School	A	42.74884	-73.857805
Nan_Nail	B	42.695013	-73.807565
Anker's_Fish_House	B	42.792974	-73.93194
Euro_Deli_and_Market	B	42.758713	-73.767188
Goldstein_Chrysler_Jeep_Dodge_Ram	C	42.729891	-73.760079
LAND_ROVER_ALBANY	C	42.729478	-73.853502
Eddy_Memory_Care	B	42.775378	-73.725383
Sherry's_Kitchen	C	42.695935	-73.808598
Abram_Lansing_School	A	42.768697	-73.708664
KeyBank	C	42.715545	-73.810544
Johnny_Rockets	B	42.689329	-73.848403
Trustco_Bank	C	42.728389	-73.760975
Sergo_Auto	D	42.664104	-73.777061
Micho's_Hair_Salon	B	42.706821	-73.777785
Nott_Street_Office	C	42.81585	-73.893958
Dale_Carnegie_Training	A	42.762803	-73.749521
A_Natural_Look_Permanent_Makeup_By_Marti	A	42.684735	-73.837728
TD_Bank	C	42.697532	-73.810721
H&V_Collision_Center	D	42.718882	-73.832901
Beltzer_DiMura_Agency	C	42.747	-73.758346
Cumberland_Farms	C	42.719552	-73.835926
Earl_B_Feiden_Appliance	C	42.746004	-73.761155
Hickory_Farms	C	42.689209	-73.84978
Vera_Bradley	C	42.689139	-73.84906
Stewart's_Shops	C	42.815856	-73.891998
Woodlawn_School	A	42.770363	-73.90473
Dursos_Liquor_Store	C	42.769622	-73.701919
Douglas_Schenk_RE_MAX_CAPITAL	C	42.687071	-73.858654
New_York_Physical_Therapy_Association	A	42.688019	-73.773088
AutoZone	C	42.729315	-73.701335
Pioneer_Bank	C	42.750188	-73.763463
Lajeunesse_Auto_Svce	D	42.772388	-73.689924
Champs_Sports	C	42.709885	-73.818291
Pooh's_Corner_Inc	A	42.779777	-73.88984
Latham_Beverage_Center	C	42.728673	-73.759812
Absolute_Fitness	C	42.76201	-73.749863
Kopp_John_D_MD	A	42.686442	-73.841011
Jocelyn_Celestin_MD	A	42.699294	-73.851918
Karavalli	B	42.762339	-73.748292
Mr_Subb	B	42.714911	-73.830538
51vape	C	42.734887	-73.762754
Motel_6	B	42.717433	-73.834036
CVS	A	42.705483	-73.823731
Destination_XL	C	42.711502	-73.820476
Hanna_Commercial_Albany	C	42.714967	-73.803829
DENOOYER_CHEVROLET_INC	C	42.717539	-73.806517
Danjen_Computers	C	42.787266	-73.936221
Parsons_Child_And_Family_Center_Inc	A	42.795429	-73.92529
GameStop	C	42.710199	-73.816149
Turning_Pointe_Dance_Center	B	42.736091	-73.796244
Albany_Dance_&_Fitness	B	42.694488	-73.805784
Inferno_Pizzeria	B	42.761911	-73.855229
United_States_Postal_Service_(USPS)	C	42.708409	-73.777368
Jarvis_Virginia_R_DVM	A	42.681696	-73.841959
Trustco_Bank	C	42.739384	-73.733967
Lee_Arthur_MD	A	42.804913	-73.916083
Schuyler_Barber_Shop	B	42.714453	-73.705955
Dom's_Pizza_Subs_&_Wings	B	42.783866	-73.743557
Hair_Razors_Salon_Spa_&_Boutique_G	B	42.802549	-73.900125
Stier_Peter	A	42.803613	-73.914809
ImageCare_Niskayuna	A	42.829136	-73.888678
Macy's	C	42.711307	-73.814379
Holy_Name_of_Jesus_National_Catholic_Church_PNCC	A	42.79356	-73.943636
Neal's_Auto_Enhancing	D	42.755416	-73.875167
Hilton_Music_Center	C	42.70915	-73.817508
Mohawk_Valley_Railroad	C	42.786651	-73.92966
Schenectady_JCC_Snack_Bar	B	42.832105	-73.894039
Squirts_Car_Wash	D	42.789109	-73.936008
Firestone_Complete_Auto_Care	C	42.714896	-73.811533
A_Place_Called_Om	B	42.696565	-73.885432
Pinnacle_Behavioral_Health	A	42.678309	-73.836483
Cornwell_Appliance	C	42.70399	-73.816791
iLoveKickboxing	B	42.719524	-73.801926
CITGO	C	42.712667	-73.705402
Mobil	C	42.712756	-73.755698
Clean2o_Touchfree_Car_Wash	D	42.76626	-73.814612
TruGreen	D	42.714087	-73.840821
The_Moore_Insurance_Agency_Inc	C	42.735582	-73.699903
Geovanny_Marble_&_Granite	D	42.732963	-73.710283
Albany_County_Hockey_Training_Facility	A	42.746862	-73.814508
American_Heart_Association	A	42.740047	-73.843267
Union_Street_Dentistry	A	42.803159	-73.901156
McDonald's	B	42.729883	-73.847659
Hitch's_Detailing	D	42.713303	-73.829961
Lauren_Elizabeth_Salon	B	42.690899	-73.869317
Kidz_Korner	A	42.744571	-73.838169
Whole_Foods_Market	C	42.709186	-73.818127
Honey_Baked_Ham_Company	C	42.714001	-73.812611
Choice_One_Chiropractic	A	42.753078	-73.777475
Armenia_David_C_MD	A	42.830746	-73.891052
Cappy's_Auto	D	42.791193	-73.915802
Blood_Banks_Association_Of_New_York_State	A	42.727911	-73.93376
Spaulding_Computers	C	42.691404	-73.802471
CVS	A	42.756509	-73.770601
American_Diabetes_Association	A	42.707771	-73.861659
A_Gabrielle_Studio	B	42.740362	-73.792004
Capital_City_Taxi	E	42.697644	-73.792879
Albany_Plastic_Surgeons	A	42.68542	-73.838932
CrossFit	B	42.743264	-73.902424
Barking_Boutique_&_Doggie_Daycare	C	42.69357	-73.774506
Schenectady_Surgical_Care_Associates_PC	A	42.803709	-73.914626
Farer_&_Schwartz_PC	C	42.770423	-73.756898
Cheryl_Frye_PHD	A	42.665409	-73.789128
Ace_Hardware	C	42.737729	-73.764677
Shiny_Nail_&_Spa	B	42.738408	-73.76261
Ardene	C	42.689339	-73.848398
Yonder_Farms_Cider_Mill_&_Bake_Shoppe	B	42.728063	-73.857808
Burger_King	B	42.696349	-73.882406
St_Peter's_Bender_Laboratory	A	42.702877	-73.825703
Pinebush_Kennels	B	42.723383	-73.86409
Albany_Pizza	B	42.709025	-73.818943
Hamilton_Elementary_School	A	42.796364	-73.949389
New_York_Life_Insurance	A	42.770977	-73.759035
Jay's_Certified_Auto_Repair	D	42.785944	-73.93221
Mohawk_Ambulance_Service	A	42.775811	-73.91489
WellNest_Studios_Fitness_and_Wellness	B	42.762219	-73.797632
LEGO	C	42.689493	-73.849736
Lighthouse_Baptist_Church	A	42.754638	-73.951606
J_D_Byrider	C	42.748588	-73.866964
BJ's_Optical	A	42.706487	-73.823422
Wildwood_School	A	42.735129	-73.895255
110_Grill	B	42.736706	-73.764418
LongHorn_Steakhouse	B	42.719395	-73.80624
SureGlow	C	42.797607	-73.925517
Mariner_Finance	A	42.71804	-73.804903
Verizon_Wireless	C	42.754278	-73.772908
Niskayuna_Community_Day_Care_Center_Sacc	A	42.797303	-73.891667
Subway	B	42.74652	-73.764451
St_Lukes_Catholic_Church_Outreach	A	42.798979	-73.924172
Boys_&_Girls_Clubs_of_America	B	42.794943	-73.922021
Sprint	C	42.689331	-73.848399
Madison_&_Saratoga_Hearing_Center	A	42.703634	-73.86006
Center_For_Family_Practice	A	42.77109	-73.755868
Art_Taylor's_Garage	D	42.690682	-73.778357
Texas_Roadhouse	B	42.715338	-73.809026
Chauvin_James_O_Dr_Orthdntst	A	42.827749	-73.892405
A_Taste_of_Guyana_Roti_Shop_&_Bakery	B	42.794869	-73.920819
Affordable_Dentures	A	42.714968	-73.830578
Giuseppe's_Pizzeria	B	42.711565	-73.708361
The_White_Apron	B	42.770965	-73.824281
Burlington	C	42.688348	-73.849266
Shoe_Dept_Encore	C	42.709787	-73.817415
Rizzo's_House_of_Flowers	C	42.770575	-73.700166
Gialanella_Gaetano	A	42.666726	-73.791483
Biggs_Bradley_PHD	A	42.665398	-73.789103
Ferris_Coin_&_Jewelry_Co	C	42.723402	-73.799578
Fastenal	C	42.692416	-73.811994
Cone_Zone	B	42.696967	-73.886736
United_Refrigeration	C	42.696101	-73.811765
Albany_Physical_Therapy	A	42.685406	-73.838953
Seal_Master	A	42.69246	-73.814679
Sunoco	C	42.685773	-73.78275
Primerica	A	42.75483	-73.774824
Genstil_Tom	A	42.718708	-73.808169
Apple_Retail_Store	C	42.688792	-73.849222
Daughters_of_Sarah_Senior_Community	B	42.698918	-73.853493
Hickory_Farms	C	42.713564	-73.813523
Panera_Bread	B	42.754616	-73.766571
Hair_Expressions	B	42.781364	-73.953454
Hilton_Piano_Center	C	42.708971	-73.817289
Across_The_Street_Pub	B	42.678156	-73.829468
Cohoes_Fire_Department_Station_2	A	42.779843	-73.721975
Wellness_Foot_Spa	B	42.713776	-73.828032
Best_Friends_Good_Buddy	C	42.760991	-73.781874
Ferrari's_Ristorante	B	42.793368	-73.950539
Combo_Fish_Fry	C	42.799793	-73.948111
Yee_Bong_K_MD	A	42.791346	-73.938649
Crunch	B	42.783982	-73.941422
Roman_Candle_Beauty_Lounge	C	42.773727	-73.891093
Catholic_Families_of_Schenectady	A	42.802302	-73.895794
Demarco_Stephen_J_DMD	A	42.771808	-73.757442
Goldstein_Chrysler_Jeep_Dodge_Ram	C	42.768259	-73.755096
Cole's_Collision	D	42.713604	-73.827171
East_Wok_Chinese_Restaurant	B	42.717554	-73.813145
Kay_Jewelers	C	42.773889	-73.894101
Inferno_Pizzeria	B	42.725956	-73.84168
Renaissance_Floral_Design	C	42.684117	-73.846082
Sicilian_Pizzeria	B	42.799519	-73.92603
TSS_Printing	E	42.691354	-73.802223
Rahman_Shaheen_B_MD	A	42.827207	-73.906693
Pai's_Tae_Kwon_DO	B	42.805117	-73.904687
NBT_Bank	C	42.715143	-73.812893
Modern_Welding_School	A	42.779057	-73.903132
Santoro_Ian_H_MD	A	42.68375	-73.771294
Ted's_Fish_Fry	B	42.711706	-73.709099
Planet_Fitness	B	42.696782	-73.847157
Adirondack_Tire_&_Service	C	42.747937	-73.866599
Soccer_Unlimited	C	42.698513	-73.812051
Edward_Jones	A	42.725042	-73.840734
The_Image_Studio	B	42.745835	-73.754592
Speedway	C	42.765309	-73.754412
Grayscale_Barber_Lounge	B	42.712769	-73.827848
Hobby_Lobby_Stores	C	42.712504	-73.819085
Lapels_Dry_Cleaning	E	42.738408	-73.762792
Washington_Park	B	42.65727	-73.771375
L.L.Bean	C	42.709606	-73.81772
Herman_L_Bradt_Elementary_School	A	42.771986	-73.933175
Oldendorf_Medical_Services	A	42.698083	-73.768231
Tsl_Adventures_Niskayuna_Reformed_Church	A	42.776123	-73.831464
Pizza_Buono	B	42.803163	-73.900129
The_Shaker_Heritage_Society	B	42.740889	-73.811961
Truewind_Solutions	C	42.692045	-73.831759
St_Gregorys_School_For_Boys	A	42.719761	-73.76868
Chili's_Grill_&_Bar	B	42.714587	-73.814326
Demarco_Stephen_J_DMD	A	42.683628	-73.770981
Hi_Tech_Nails	B	42.730157	-73.702388
Albany_International_Airport_Fire_Department	A	42.745929	-73.809777
Pep_Boys	C	42.683453	-73.795704
Off_Broadway_Shoe_Warehouse	C	42.689895	-73.852254
Texture_Hair_Studio	B	42.714037	-73.82834
State_Farm	C	42.75433	-73.777565
Western_Dental_Care_Pc	A	42.697388	-73.885541
CVS	A	42.772328	-73.728147
Pet_Spas_of_America	B	42.732442	-73.761743
The_Body_Spot	B	42.683746	-73.839631
Cumberland_Farms	C	42.692167	-73.873719
Bellini's_Counter	B	42.730977	-73.762098
Vapor_Geekz	C	42.744465	-73.863057
Emeritus_At_Colonie_Manor	B	42.735304	-73.769276
Watervliet_Plaza	C	42.72909	-73.700898
Healthy_Pet_Center	C	42.745461	-73.760582
DePoalo_Remodeling	C	42.78173	-73.949497
Sunoco	C	42.676524	-73.822469
Dialysis_Clinic	A	42.699176	-73.851836
Beverage_Baron	C	42.70728	-73.774754
Hair_By_BobbyJo	B	42.760253	-73.943309
Ted's_Fish_Fry	B	42.723767	-73.79902
Laura_Brodsky	A	42.758069	-73.777353
Lansing_Farm_Market_&_Greenhouses	C	42.763288	-73.85458
BARE_Juice_Bar	B	42.685297	-73.840352
Uncle_Sam's_Candy	C	42.782745	-73.910437
East_Coast_Tire_&_Service_Centers	C	42.729524	-73.701843
Fifi's_Frocks_&_Frills	C	42.690917	-73.867758
Town_of_Niskayuna	A	42.819104	-73.885391
Saati_Deli_&_Catering	C	42.726508	-73.760895
DaVi_Nails	B	42.785618	-73.941726
Gwu_Childcare_Development_Center	A	42.657714	-73.766646
AAMCO_Transmissions	D	42.686084	-73.796084
Custom_Auto_Radio_Dstrbtrs_of_Connecticut_Albny_Br	C	42.7569	-73.807794
Harmon_AutoGlass	C	42.814161	-73.939395
Vic_DeVito_Agency_Nationwide_Insurance	C	42.746908	-73.759661
Eagle_Point_Y's_Time	A	42.673629	-73.816244
Subway	B	42.701065	-73.819304
SB_Computers	C	42.768115	-73.697396
LabCorp	A	42.727628	-73.759807
Home_Flipping_Workshop	C	42.782221	-73.951489
Community_Care_Podiatry_Latham	A	42.758703	-73.776905
Schuyler_Heights_Fire_Department	A	42.708974	-73.715858
Center_For_Natural_Wellness_School_Of_Massage_Therapy	A	42.720931	-73.805621
Lisha_Kill_Nature_Preserve	B	42.796488	-73.859387
Smile_Direct_Club	A	42.721393	-73.863716
City_Of_Albany_Department_Of_Fire_Emergency_Medical_Services_And_Code_Enforcement_Engine_One	A	42.659328	-73.767895
Zoom_Tan	B	42.731674	-73.847608
Lowe's	C	42.744807	-73.76388
The_Boat_House	B	42.848583	-73.889927
Menchie's	B	42.710813	-73.816681
Christina	B	42.712781	-73.827838
AT_Nails_&_Spa	B	42.728223	-73.846474
Maria_Natarelli_Ameriprise_Financial_Services	A	42.715309	-73.8129
PlanWell_Wealth_and_Risk_Management_MassMutual_Agency	C	42.770271	-73.759394
Supercuts	B	42.773131	-73.892756
Town_of_Colonie_Golf_Course	B	42.760682	-73.870527
Burger_King	B	42.775362	-73.698029
Trustco_Bank	C	42.730621	-73.848331
Short_and_Stout_Tea	B	42.688166	-73.86186
Farmers_Insurance_Group	C	42.712975	-73.828389
First_New_York_Credit_Union	C	42.742316	-73.84119
Edelweiss_Veal_Co	C	42.691414	-73.782612
Newtonville_United_Methodist_Church	A	42.724454	-73.75942
Hoffman_Car_Wash	D	42.707949	-73.778814
Scott_Soule_DDS_Scott_Soule_Dentistry	A	42.778348	-73.932909
Morrison_James_K_Ph_D_P_C	A	42.75487	-73.774917
Lincare	B	42.75765	-73.817728
W_Daniel_Billington_DMD_MS	A	42.684716	-73.83775
Life_Kids	A	42.733025	-73.844965
Martel's	B	42.764306	-73.869276
Sunoco	C	42.695863	-73.881401
BiggLash_Eyelash_Extensions	B	42.771521	-73.946701
Patterson_Norman_MD	A	42.758076	-73.777225
Gershon's_Deli_&_Caterers	C	42.804984	-73.906028
Lasalle_School	A	42.664878	-73.783627
Francesca's	C	42.689349	-73.850425
Gary's_Garage	D	42.723429	-73.866613
H&R_Block	A	42.783452	-73.944311
ProSource_Wholesale_Flooring	C	42.696332	-73.824462
Rumors_Salon_and_Spa	B	42.731534	-73.762528
Tina_King's_Hair_Studio	B	42.766165	-73.938025
Aesthetic_Science_Institute	A	42.761903	-73.794893
Hallmark_Cards	C	42.709856	-73.817306
Srilaxme_Tumulri_MD	A	42.758089	-73.777219
Schanz_Beverage	C	42.710329	-73.710015
Mobil	C	42.824546	-73.910889
Five_Below	C	42.71105	-73.816112
Hockey_Store_N_More	C	42.747141	-73.814524
Tu_Nails	B	42.783966	-73.919449
Mr_Wasabi	B	42.804773	-73.903822
Coco_Spa_Nails_Salon	B	42.783385	-73.890982
Dunkin'	B	42.783597	-73.742879
Rent-A-Center	C	42.728613	-73.70046
Colonie_Youth_Center_Inc_Forts_Ferry_School	A	42.764552	-73.777884
J.Crew	C	42.709898	-73.816118
Supercuts	B	42.706087	-73.821385
Dworkin_Paul_MD	A	42.83072	-73.891035
Albany_Braces	A	42.673403	-73.814416
Guilderland_Orthodontics	A	42.695198	-73.878728
Thomas_F_Wayne_Ameriprise_Financial_Services	A	42.687999	-73.773072
Little_Bites_and_More	B	42.746901	-73.758191
Rainbow_Corner	C	42.776254	-73.903107
Wonder_Nail_&_Spa	B	42.729996	-73.849835
The_Locker_Room_78	C	42.762988	-73.701104
India_Bazaar	C	42.701952	-73.814222
3_Brothers_Pizzeria	B	42.729155	-73.700369
George's_Collision_Auto_Body_&_Express_Bumper_Repair_Shop	D	42.773447	-73.698503
Northeastern_Fine_Jewelry	C	42.8054	-73.905598
Colonie_Animal_Hospital	A	42.737991	-73.856793
Maloney's_Pub	B	42.796409	-73.921658
Sandlake_Auto_Glass	C	42.67983	-73.858304
Vitoria_Adamo_Day_Spa	B	42.78161	-73.954001
Haven_Hair_Studio	B	42.701917	-73.814129
Microtel_Inn_and_Suites	B	42.752952	-73.771389
Ambiance_Florals_&_Events	C	42.695058	-73.772353
Capital_Region_Sleep_Wake_Disorders_Ctr	A	42.709595	-73.864001
Smokers_Choice	C	42.804185	-73.902353
Barbosium_Fitness	B	42.75955	-73.878768
Limited_Too	C	42.69024	-73.851756
Bank_of_America	C	42.708112	-73.777998
Decamp_Christopher_D_MD	A	42.693865	-73.771802
Kaplan_David_E_MD	A	42.710377	-73.864144
Milano_Restaurant	B	42.727953	-73.760988
Marra's_Pharmacy_Inc	A	42.77113	-73.700303
City_Of_Albany_Department_Of_Fire_Emergency_Medical_Services_And_Code_Enforcement_Brevator_Station	A	42.677105	-73.801308
Bentley's_Cafe_II	B	42.685414	-73.765646
Jaeda_Beauty_Supply	A	42.800085	-73.927128
Dmv	A	42.775511	-73.89762
Saint_Pius_X_Church	A	42.696366	-73.76166
Silhouettes_Hair_Design	B	42.690925	-73.869337
Kimberly_Day_Valvo	B	42.76364	-73.754409
Mobil	C	42.732629	-73.850572
Coccadotts_Cake_Shop	E	42.693591	-73.805008
Michael_Lanuto_Ameriprise_Financial_Services	A	42.687952	-73.772997
Herc_Rentals	C	42.75219	-73.778203
Banfield_Pet_Hospital	A	42.755205	-73.765902
Exscape_Smoke_Shop_&_Vapor_Lounge	C	42.677328	-73.826782
Jeff_Miller_Ameriprise_Financial_Services	A	42.688099	-73.77314
China_Wok	B	42.691131	-73.868195
Casa_Real	B	42.723112	-73.936198
Dollar_Tree	C	42.773409	-73.824064
Hebrew_Academy_of_the_Capital_Dist	A	42.689022	-73.782665
High_Bridge_Pizza	B	42.769893	-73.915152
518_Insurance	C	42.691808	-73.802848
Beer_Bones_Taproom	B	42.728059	-73.761149
Jewish_Community_Center_Of_Schenectady_Inc_Rosendale_Elem	A	42.799078	-73.86645
Sisters_of_St_Joseph	A	42.70361	-73.820033
Kiddie_Academy	A	42.761625	-73.750777
Just_Threading	A	42.689323	-73.848418
Nysut	A	42.758419	-73.784939
Jessica_Stone's	B	42.74224	-73.762301
Fouad_A_Sattar_MD_PC	A	42.804347	-73.914963
The_Scooter_Store	B	42.715468	-73.840125
Paul's_Garage	D	42.662932	-73.779353
Colonie_Center	C	42.709767	-73.817115
Associates_In_Occupational_Medicine_PC	A	42.701164	-73.849477
51_Vape	C	42.701946	-73.814124
Autopart_International	C	42.786361	-73.912266
GOLDSTEIN_BUICK_GMC	C	42.722611	-73.836813
Genesis_Hair_Studio	B	42.721025	-73.837282
Repeat_Business_Systems	C	42.714903	-73.839573
Albany_Group_Dental_Practice	A	42.716242	-73.83067
Campito_Plumbing_&_Heating	C	42.737848	-73.79437
Woodforest_National_Bank	C	42.695373	-73.846686
Sisters_of_St_Joseph	A	42.804998	-73.907591
Lollipops_Children's_Shop	C	42.728104	-73.761151
AT&T	C	42.757175	-73.758555
The_Artistry_of_Face	B	42.708483	-73.776193
JZ_s_Rock_Paper_Scissors_Salon	B	42.787624	-73.934188
Lincare	B	42.726912	-73.854217
RAD_Soap_Co	A	42.683735	-73.838679
Unique_Eyebrows	A	42.719136	-73.83412
Gabby's_Quilts	C	42.8001	-73.923019
Living_Word_Parable_Christian_Store	C	42.762237	-73.79765
Restaurant_Depot	C	42.701682	-73.826874
Capital_Area_Speech_Center	B	42.693193	-73.873258
The_Pet_Zone	C	42.689236	-73.849818
St_Madeleine_Sophie_School	A	42.741283	-73.943564
Pilgrim_Holiness_Church	A	42.774695	-73.95193
Beck_Gerald_J_DDS	A	42.771859	-73.757462
AutoZone	C	42.689876	-73.863964
IHOP	B	42.71026	-73.820734
Frank_Gallo_&_Son_Florist	C	42.786363	-73.909969
US_Discount	C	42.798019	-73.92307
Sheer_Pleasure_Lingerie	C	42.758918	-73.879355
Albany_Fashions	C	42.714518	-73.77102
H&R_Block	A	42.718208	-73.805085
LasikPlus_Vision_Center	A	42.685513	-73.765651
Eric_Panichi	B	42.724713	-73.700486
Enterprise_Rent-A-Car	C	42.718785	-73.832793
Dunkin'	B	42.730157	-73.76167
Our_Original_Pizzeria	B	42.795483	-73.946076
North_Colonie_Youth_Baseball	B	42.787924	-73.73644
Super_Mario_Salon	B	42.688258	-73.84761
A_Frame_Imperial_Pools	C	42.730574	-73.760722
Staybridge_Suites	B	42.713044	-73.81142
Athleta	C	42.688384	-73.84792
Keilens_Body_Shop	D	42.738222	-73.763978
La_Roca_Inconmovible_Church	A	42.684443	-73.797884
State_Farm	C	42.7125	-73.78202
WellNow_Urgent_Care	A	42.774005	-73.8941
Asian_Supermarket	C	42.697721	-73.809284
Bedroom_Expressions	C	42.704631	-73.819168
New_School_Of_Radio_And_Television	A	42.720492	-73.80961
Charley's	B	42.689373	-73.850211
Pellegrino_M_Importing	C	42.694434	-73.805655
CapitalCare_Family_Practice_Great_Oaks	A	42.683415	-73.846878
Hertz	C	42.743934	-73.749744
Subway	B	42.707232	-73.775973
Hair_2000	B	42.746554	-73.763183
Jojo's_Auto_Boutique	C	42.792995	-73.917607
On_the_Hill_Cafe	B	42.737885	-73.724209
CITGO	C	42.784076	-73.911919
Starbucks	B	42.756071	-73.770701
Evergreen_Bank	C	42.697511	-73.81073
Jcc_Hillside_Elementary_School	A	42.806758	-73.894036
Kid's_Care_Thomas_Nicolla_P_T_Assocs	A	42.771794	-73.757385
Dunkin'	B	42.736216	-73.761735
Galleria_7_Market	B	42.770902	-73.824286
Schenectady_County_Public_Library	B	42.817977	-73.88524
Capital_Region_Complete_Dental_Care_&_Implants	A	42.769627	-73.700704
The_Local_ALB	B	42.745161	-73.808845
Roessleville_Presbyterian_Church	A	42.695123	-73.805951
Wilsons	C	42.689572	-73.8498
Cinderella_Nail	B	42.746355	-73.758453
Northeast_Eye_Center	A	42.758729	-73.776918
Scott_Miller_Ameriprise_Financial_Services	A	42.688082	-73.773163
Red_Robin_Gourmet_Burgers	B	42.754224	-73.759745
Ascend_Resort_Collection	B	42.771055	-73.753054
Grainger	C	42.703357	-73.878663
Recovrey_For_Addiction	B	42.69518	-73.878757
Rite_Aid	A	42.677198	-73.822748
Cricket_Wireless	C	42.791702	-73.916176
Calvary_Methodist_Preschool	A	42.75181	-73.752999
Prancin'pretty	C	42.794458	-73.930581
Patrick's_Pub	B	42.713195	-73.70699
Spencer's	C	42.689349	-73.851075
Monograms_Plus	C	42.779947	-73.903112
Chris_Viagrande_MS_APRN_NPP_BC	B	42.774094	-73.700905
Airdrenaline_Adventure_Park	A	42.723916	-73.852309
Surya_Immediate_Medical_Care	A	42.76962	-73.822392
Siena_College	A	42.719468	-73.751065
LR_Nail	B	42.689807	-73.865959
Sun_Nails	B	42.761832	-73.750204
Label_Shopper	C	42.762179	-73.797494
CBRE_Albany	C	42.683286	-73.846751
Ritual_518	B	42.6896	-73.866211
Outback_Steakhouse	B	42.718357	-73.805122
School_of_Rock_Albany	C	42.727383	-73.761839
Na	B	42.83285	-73.906853
Northeast_Information_Systems	C	42.738577	-73.82081
Orsini_Landscaping	C	42.78192	-73.92984
Moroccan_Tajine	C	42.770837	-73.824299
C_M_N_Funding	C	42.712712	-73.82788
GNG_Auto	D	42.774352	-73.70665
Capital_Region_Integrative_Health	A	42.771012	-73.755824
Avalon_Kitchen	C	42.712769	-73.828038
Smith_Frederick_J_PHD	A	42.709592	-73.863121
Hannaford_Supermarkets	C	42.75572	-73.760597
Kidz_Korner	A	42.743301	-73.790332
Amore_Clothing	C	42.727556	-73.75983
Bob_Daubney's_Bowling_and_Billiards	B	42.745321	-73.752318
Cummins_Northeast	D	42.700815	-73.828802
St_Matthews_Episcopal_Church	A	42.742823	-73.75904
HockeyTown_Pro_Shop_&_Skate_Sharpening	C	42.748058	-73.759603
Capitaland_Auto_Service	D	42.691175	-73.806333
Mr_Subb	B	42.710336	-73.816712
Albany_Massage	B	42.696382	-73.770087
Subs_Ta_Toot	B	42.774594	-73.700904
Girl_Scouts_of_Northeastern_New_York	B	42.702358	-73.813567
Talbots	C	42.683904	-73.839783
Hindu_Temple_Society	C	42.701557	-73.775165
Riverfront_Insurance_Agency	C	42.711304	-73.708551
Stir_Fry_88	B	42.710747	-73.816206
Conway_Entertainment	C	42.724525	-73.84181
Colonie_Youth_Center_Inc_Sand_Creek_School	A	42.706682	-73.799427
Albany_Family_Foot_and_Ankle_Services	A	42.722914	-73.839499
Dollar_Tree	C	42.733088	-73.854416
You're_Perfect_Threading_&_Hair_Design_Salon	B	42.701728	-73.818422
Troy's_Landscape_Supply	D	42.802912	-73.734821
Kohler_William_PA	A	42.758338	-73.777404
Top_Indoor_Golf	B	42.738091	-73.842403
Britton_Lewis_MD	A	42.683668	-73.771134
Black_and_Blue_Steak_and_Crab	B	42.680821	-73.83858
Golden_Cue_Billiard_Lounge	B	42.685898	-73.797247
Mj_Pelkey_Sealcoating	C	42.764913	-73.699287
Polynice_Allan_MD	A	42.765291	-73.81105
Chemung_Canal_Trust_Company	C	42.713577	-73.813552
Bruegger's	B	42.717279	-73.812868
Service_Tire_Truck_Center	C	42.697692	-73.826828
Community_Care_Dermatology	A	42.758709	-73.776908
Fancy_Schmancy	C	42.689614	-73.866228
La_Famiglia	B	42.728445	-73.846824
Frank's_Ice_Cream	B	42.707611	-73.778452
Alina_Dellanzo_DDS	A	42.68548	-73.839057
Cynthia_Spellman_MD	A	42.72007	-73.807876
Mobil	C	42.735733	-73.939455
Dunkin'	B	42.799001	-73.925637
Fairfield_Inn_&_Suites_by_Marriott	B	42.722211	-73.804027
Starbucks	B	42.67839	-73.83032
Midway_Fire_Department_Station_2	A	42.748763	-73.852118
Kreative_Ink	B	42.663391	-73.77532
Smith_Vivienne_E_MD	A	42.683774	-73.771248
Hertz	C	42.829516	-73.87611
GlaMaris_Beauty_by_Marissa	B	42.781594	-73.954028
American_Laser_Skincare	B	42.772966	-73.751662
Pet_Express_Inn	B	42.753632	-73.794928
At_Home	C	42.697119	-73.8476
Spencer's	C	42.709157	-73.817496
Religious_Sisters_Of_Mercy	A	42.667551	-73.812002
Golden_Krust_Bagels	B	42.762111	-73.752486
Nordstrom_Rack	C	42.710022	-73.817711
Kidz_Korner	A	42.743245	-73.79029
Denny's	B	42.756078	-73.77488
Body_&_Skin_Spa	D	42.781362	-73.905998
Dunkin'	B	42.685529	-73.79692
Alternative_Health_Services	B	42.745	-73.75381
Tullio_Hair_Studio	B	42.689343	-73.848397
Holiday_Liquors	C	42.805552	-73.905946
Carpet_One_Floor_&_Home	C	42.75123	-73.766551
Parsons_Child_&_Family_Guidance_Clinic	A	42.733779	-73.847519
NAPA_Auto_Parts	C	42.694207	-73.805327
Speedway	C	42.754046	-73.700201
Dunkin'	B	42.75423	-73.772785
Applebee's	B	42.751445	-73.764974
Williams_Center_Plastic_Surgery_Specialists	B	42.764729	-73.811165
Speedway	C	42.763251	-73.885446
ABC_Supply	C	42.693268	-73.814071
Suny_At_Albany_Downtown_Campus	A	42.660716	-73.771729
The_Standard_Restaurant_&_Lounge	B	42.688974	-73.85011
Deacon_Blues	B	42.735722	-73.70794
New_Horizon_Stables	C	42.766784	-73.866047
Mobil	C	42.686791	-73.854469
Jackson_Hewitt_Tax_Service	A	42.771961	-73.700989
4_Corners_Pizza	B	42.787173	-73.940793
Monro	D	42.738033	-73.761505
Xtramart_Watervliet	C	42.707493	-73.712387
1st_Advantage_Dental_Latham	A	42.772427	-73.822911
Healing_Arts_&_Chiropractic_Center	A	42.718689	-73.808149
State_Farm	C	42.769706	-73.89267
Seventh_Day_Adventist_Church_Greater_Albany	A	42.766987	-73.732424
Jersey_Mike's	B	42.677415	-73.826979
Carrabba's_Italian_Grill	B	42.755136	-73.772109
B.GOOD	B	42.683732	-73.839607
Heroes_Hideout	C	42.711052	-73.81612
Dominic's_Barbershop	B	42.706838	-73.777755
Tri_City_Foods	C	42.713455	-73.706814
Simply_Irresistible_Hair_&_Tanning_Salon	B	42.742203	-73.74251
CSL_Plasma	B	42.786281	-73.912754
Ocean_State_Job_Lot	C	42.784156	-73.918351
Schenectady_Karate_&_Kobudo	B	42.763897	-73.916344
AT&T	C	42.771878	-73.89235
Namu	B	42.72802	-73.846344
Cohoes_Community_Center_Harmony_Hill	A	42.775275	-73.72088
Pursue_the_Clue	C	42.712637	-73.827697
Field_&_Stream	C	42.753138	-73.763974
Sunoco	C	42.784117	-73.911965
Colonie_Youth_Center_Inc_Forest_Park_School	A	42.720243	-73.823525
Carmen_United_Methodist_Church	A	42.7817	-73.93205
Blossoming_Bakery	C	42.773468	-73.684707
Diane_Bourke_MD	A	42.761976	-73.748967
Shoss_Donna_LCSW	A	42.671166	-73.807366
Elevation_Ten_Thousand	C	42.77204	-73.755436
Provence_Restaurant_&_Wine_Bar	B	42.684732	-73.839653
Cohoes_Community_Center_Abram_Lansing	A	42.768684	-73.708668
NY_Shooter_Supply	C	42.717195	-73.831816
Conroy's_Bait_Supply	C	42.731807	-73.706938
Praxair	C	42.702343	-73.830673
Albany_High_School	A	42.666788	-73.783167
Sally_Beauty_Supply	A	42.757202	-73.761303
Boutros_Florist	C	42.706805	-73.777781
Chase	C	42.720794	-73.802191
Wendy's	B	42.773905	-73.895809
Ed_Conroy_MetLife_Auto_&_Home	C	42.74897	-73.765253
Colonial_Car_Wash	D	42.689766	-73.863606
Rainbow_Nail_Spa	B	42.692571	-73.804935
YMCA	B	42.694652	-73.814026
Eu4ia_CBD	B	42.711072	-73.816108
Pet_Lodge	B	42.73289	-73.79544
Stack_Kenneth_L_Dr_Optmtrst	A	42.672275	-73.804775
Christian_Brothers_Academy	A	42.732571	-73.820865
Adult_Medicine_PC	A	42.678311	-73.836512
Marys_Beauty_and_Lash	B	42.771224	-73.755103
Evoke_Style	C	42.684703	-73.839873
Heerdt_William_A_PHD	A	42.668512	-73.785145
St_Peters_Hospital_Spine_&_Neurosurgery	A	42.769618	-73.8224
Northeastern_Insurance_Agency	C	42.771501	-73.823373
Safelite	D	42.743363	-73.792174
Lia_Chrysler_Jeep_Dodge_Ram	C	42.754881	-73.876757
Heritage_Home_For_Women	B	42.807744	-73.911247
Firefighter_Memorial	B	42.715063	-73.785155
EmUrgentCare	A	42.716918	-73.810806
Colonial_Car_Wash	D	42.787513	-73.911363
Animal_Hospital_of_Niskayuna	A	42.779639	-73.848176
The_Grandstand	B	42.769828	-73.914856
Capitaland_Tire	C	42.732411	-73.795488
Fort_Hunter_Park	B	42.765311	-73.941731
State_Farm	C	42.766773	-73.887927
Kassoff_Aaron_MD	A	42.665148	-73.799525
Uv_Image_Experts	C	42.807243	-73.913082
Price_Chopper_New_England	C	42.805788	-73.913583
Griffin_Motorsports	C	42.767489	-73.888944
Accutax_Income_Tax_Services	A	42.777598	-73.934029
Schenectady_County_Public_Library	B	42.798215	-73.947588
Town_of_Colonie	B	42.7194	-73.757687
Stewart's_Shops	C	42.769518	-73.704183
Jackson_Hewitt_Tax_Service	A	42.746573	-73.763183
Family_Foot_Care	A	42.701372	-73.813339
Bagels_&_Bakes	B	42.779011	-73.955048
Allstate_Insurance	C	42.803513	-73.900234
J_&_J_Service	C	42.79214	-73.729105
Ania_Hair_Studio_&_Spa	B	42.687069	-73.858653
Aerotek	B	42.772513	-73.823043
Aspen_Dental	A	42.773301	-73.892771
Victoria's_Secret	C	42.68982	-73.851115
Albany_County_Opportunity_Inc_Ogden_Mill_Head_Start	A	42.774964	-73.702316
Sherwin-Williams	C	42.714492	-73.845137
Hairbeautique_Hair_Studio	B	42.73208	-73.709937
Smoke_More	C	42.803143	-73.901121
Albany_Beverage_Center	C	42.716302	-73.9316
Fresenius_Kidney_Care	A	42.772245	-73.759347
GARAGE	C	42.689351	-73.850993
Interstate_Batteries	D	42.696418	-73.810839
Capital_Foot_Care	A	42.725605	-73.936258
Williams_Auto_Service	D	42.797793	-73.952989
Beauty_Plus_Salon	A	42.687937	-73.847361
C_Callahan_Agency	C	42.781776	-73.954024
Cumberland_Farms	C	42.768931	-73.914797
NexGen_Indoor_Golf_Center	B	42.770849	-73.82427
Play_It_Again_Sports	C	42.76229	-73.797742
Jean_Paul_Salon	B	42.727786	-73.761141
51Vape_Schenectady	C	42.760729	-73.882379
Stephen_J_Conway_DDS	A	42.751387	-73.759384
Northeast_Psychological_Associates	A	42.7389	-73.841064
Quality_Inn	B	42.719336	-73.837226
Albany_Hypnosis_Center	B	42.744112	-73.837686
STS_Tire_&_Auto_Centers	D	42.734142	-73.852538
Elevation_Burger	B	42.73582	-73.76445
Body_Time_Massage_Therapy	B	42.685666	-73.854545
Bumble_Beads	C	42.73008	-73.761878
Sushi_Tei	B	42.689593	-73.86623
Triumph_Auto_Glass	C	42.695929	-73.881697
Capital_Region_Orthopaedics	A	42.758717	-73.776914
Total_Ryder_In_Motion	B	42.698479	-73.828763
Price_Chopper_New_England	C	42.686969	-73.859944
Aesthetic_Science_Institute	A	42.761835	-73.794729
Rios_Rivera_Zandra_MD	A	42.758171	-73.777323
Al's_House_of_Sportscards	C	42.804289	-73.904027
German_American_Club_of_Albany	C	42.698736	-73.817766
New_York_State_Restaurant_Assoc	B	42.741325	-73.840073
Peregrim_Kimberly_A	A	42.725984	-73.761071
Trane_Supply_Albany	C	42.69547	-73.820294
Hometown_Healthcare_Pharmacy	A	42.731426	-73.705662
Sears_Home_Services	C	42.757648	-73.81773
Felthousen's_Florist_&_Greenhouse	C	42.815192	-73.886204
Loudonville_Christian_School	A	42.695719	-73.754955
True_Images	B	42.657958	-73.765772
Smith's_Automotive	D	42.848882	-73.889224
Starbucks	B	42.771407	-73.823282
Dick's_Sporting_Goods	C	42.752668	-73.764147
OTTO_CADILLAC_INC	C	42.728358	-73.843846
Super_Clean_Coin_Wash	E	42.691604	-73.86872
Platinum_Kutz_3	B	42.792024	-73.917857
Anna's_Wood_Fired_Pizza	B	42.770971	-73.824261
St_Michael_Church_Hall	A	42.774542	-73.692122
Cdt_Automotive	D	42.756099	-73.700647
Stewart's_Shops	C	42.771725	-73.727568
Bank_of_America	C	42.718611	-73.805497
Bayberry_Veterinary_Care	A	42.732631	-73.761759
Red_Lobster	B	42.722527	-73.802607
New_Horizons_at_Logical_Operations_Albany	A	42.718416	-73.809185
Visionworks	A	42.784056	-73.918963
Association_Of_Public_Historians_Of_New_York	B	42.680666	-73.837953
Valerie_Hair_Studio_For_Men_&_Women	B	42.757931	-73.780114
Our_World_Montessori	A	42.810247	-73.893071
Purshe_Kaplan_Sterling_Investments	C	42.680754	-73.763691
O'connor_Wb_Church_Goods	C	42.756684	-73.757571
Superior_Business_Products	C	42.763754	-73.940188
Bradley_Agency	C	42.696584	-73.885407
Boston_Market	B	42.743671	-73.761251
Stepping_Stone_Preschool_&_Day_Care_Center	A	42.772828	-73.751886
Albany_Park_Ride_&_Fly	B	42.730487	-73.794468
Howard_Health_Coaching	A	42.668257	-73.785408
Lighthouse_Insurance_Agency	C	42.753304	-73.777342
Dunkin'	B	42.684758	-73.847771
Trustco_Bank	C	42.772032	-73.893937
195_Troy_Schenectady_Rd	C	42.73993	-73.732404
Union_Cafe	B	42.803786	-73.901437
Primeau_Auto_Body_Inc	D	42.773031	-73.705159
Subway	B	42.770531	-73.822218
Arby's	B	42.718412	-73.805806
St_Stephen's_Episcopal_Church	A	42.810574	-73.90406
Kimberly_Square	C	42.708067	-73.776225
First_Niagara	C	42.802915	-73.900524
Hair_Creations_By_Dana	B	42.757803	-73.779885
CVS	A	42.775273	-73.889624
Bath_Fitter	E	42.732029	-73.848228
Central_Park_Dental_Group	A	42.805876	-73.908262
STS_Tire_&_Auto_Centers	D	42.786265	-73.911197
Fogarty_Joanne_M_MD	A	42.72375	-73.758447
Hannaford_Supermarkets	C	42.717757	-73.812525
University_at_Albany_State_University_of_New_York	A	42.683089	-73.842546
Pets_At_Ease	B	42.724812	-73.822079
Hanger_Prosthetics_&_Orthotics	C	42.701367	-73.813319
Fox_Patricia_A_PC	B	42.804478	-73.915976
Trans_World_Entertainment	C	42.706027	-73.876263
Merzig_Edward_G_MD	A	42.693894	-73.771794
Jo-Ann_Fabric_and_Craft_Stores	C	42.705842	-73.824731
First_Niagara_Bank	C	42.734663	-73.852808
Pizza_Central	B	42.690513	-73.801539
The_UPS_Store	C	42.732208	-73.8487
Our_Savior's_Lutheran_School	A	42.704445	-73.809002
Monro	D	42.689368	-73.862513
Fidelity	A	42.712988	-73.814311
Plaza_Deli_of_Albany	B	42.704814	-73.86074
Stacy_James_Salon	B	42.699185	-73.812661
Petco	C	42.736471	-73.764436
Miami_Sun_Tanning	B	42.678405	-73.828255
Cusato's_Pizzeria	B	42.73565	-73.702104
Finish_Line	C	42.690775	-73.852643
Wholesale_Tire	C	42.748366	-73.868389
Clas_Carol_DC	A	42.686292	-73.842058
Karl_Meehan_Goosehead_Insurance_Agent	C	42.692372	-73.872365
Geoffrey_B_Edmunds_DDS	A	42.696331	-73.884515
Sportime_Schenectady	B	42.762098	-73.931907
All_Saints_Catholic_Academy	A	42.671772	-73.805844
Crosstown_Plaza	C	42.783962	-73.919109
Zaitoon_Kitchen	B	42.697045	-73.849361
FUCCILLO_VOLKSWAGEN_OF_SCHENECTADY	C	42.764129	-73.887132
Crackerbarrel_Restraunt	B	42.760806	-73.805499
Creative_Edge_Salon	B	42.739343	-73.856668
Bazar_Gary_Auto_Body	D	42.777642	-73.713674
Trustco_Bank	C	42.785072	-73.943908
Kumon_Institute_of_Education	A	42.749097	-73.761609
Supercuts	B	42.75891	-73.766863
American_Eagle_Outfitters	C	42.689345	-73.848399
Dunkin'	B	42.754047	-73.7
Stephen_A_Harris_DMD	A	42.72595	-73.841715
Subway	B	42.677283	-73.824231
Metabolic_Meltdown	B	42.714626	-73.841737
Brotherhood_Park	B	42.734799	-73.704419
The_Children's_Place	C	42.710436	-73.816552
Hannaford_Supermarkets	C	42.717774	-73.812546
Eddie_Bauer	C	42.707306	-73.825656
Seoul_Korean	B	42.761868	-73.795985
Sprint	C	42.684902	-73.794792
Catherines	C	42.684145	-73.838915
Lange_Pharmacy	A	42.816089	-73.894186
Allstate_Insurance	C	42.7317	-73.761479
Hershey_John_M_Psyd	A	42.73892	-73.841073
GameStop	C	42.68966	-73.850034
Mala_Construction_Painting	D	42.796798	-73.942007
Schenectady_Curling_Club	B	42.805303	-73.89231
Lisuzzo_Insurance_Agency_Inc	C	42.713973	-73.828257
PharmaCannis_Albany	A	42.687214	-73.842256
The_Olde_Mercantile	C	42.773275	-73.701362
Capital_Customs	C	42.731388	-73.863534
Island_Spirits	C	42.773096	-73.68737
Fred_Meyer_Jewelers	C	42.689337	-73.84841
Starbucks	B	42.710631	-73.820534
Tallmadge_Park	B	42.901837	-73.69429
Fox_Vision_Development_Center	A	42.770572	-73.823581
Planet_Fitness	B	42.753146	-73.764702
Symetry_Hair_Design_Studio	B	42.766629	-73.937958
Little_Tokyo	B	42.689235	-73.849815
Fiternity	B	42.775561	-73.75059
Walter's_Autobody	D	42.793716	-73.944919
Abercrombie	C	42.68924	-73.849769
Clarks	C	42.68889	-73.849445
Burger_21	B	42.730443	-73.761969
New_York_Style_Pizza	B	42.762117	-73.752702
Grosso_Jeanne_J_DMD	A	42.827771	-73.892435
AT&T	C	42.68959	-73.850412
T-Mobile	C	42.774166	-73.896212
AutoZone	C	42.756072	-73.758733
Wynnykiw_A_R_DDS	A	42.705633	-73.755015
Bob's_Diner	B	42.732689	-73.709891
CVS	A	42.690379	-73.851918
Mansion_Square	C	42.774983	-73.893948
Lennon's_Flowers	C	42.761213	-73.79232
Apria_Healthcare	B	42.712239	-73.844658
H&R_Block	A	42.757351	-73.761788
St_Paul's_Evangelical_Lutheran_Church	A	42.658833	-73.76885
Next_Level_Auto	D	42.794205	-73.930015
Le_Page's_Garage	D	42.767613	-73.690302
Cohoes_Community_Center_Van_Schaick_School	A	42.768265	-73.687354
Christine_Serafini_Miranda_Real_Estate_Group	C	42.78208	-73.95192
lululemon_athletica	C	42.688711	-73.849098
Bumpy's_Polar_Freeze	B	42.775708	-73.898345
The_Pilates_Principle	B	42.725695	-73.760301
The_Good_Feet_Store	A	42.718376	-73.807786
Boomer_McLoud	C	42.686013	-73.796168
Acute_Care_Gases	B	42.713427	-73.84541
SiteOne_Landscape_Supply	C	42.748411	-73.735041
GameStop	C	42.748485	-73.763529
Excelsior_College	A	42.705338	-73.862809
U_S_Budokai_Karate_Association	B	42.693702	-73.774516
STS_Tire_&_Auto_Centers	D	42.789965	-73.936648
DL_Nail_Bar	B	42.706819	-73.777786
The_Washington_Tavern	B	42.662098	-73.778704
Abrunchabrunch	B	42.68946	-73.850746
Hackel's_Foreign_Car_Svce	D	42.704091	-73.817934
Jeffrey_Ryan_Family_Medicine	A	42.736089	-73.845714
Audio_Obsessions	C	42.716087	-73.840441
Albany_Insurance_Claims	C	42.804659	-73.90385
Piercing_Pagoda	C	42.70992	-73.816807
The_Finest_Image	D	42.773854	-73.68792
ALDI	C	42.735312	-73.851939
Adirondack_Tire_&_Service	C	42.684518	-73.849422
The_Bonadio_Group	A	42.740078	-73.84485
The_Church_Of_Pentecost	A	42.765462	-73.888864
T_Swirl_Crepe	C	42.730408	-73.761887
West_Albany_Pocket_Park	B	42.688581	-73.791935
Warehouse_Grill_&_BBQ	B	42.725196	-73.796605
Colonie_Youth_Center_Inc_Boght_Hills_School	A	42.775262	-73.756798
Goldberg_Steven_M_MD	A	42.82914	-73.888691
Batteries_Plus_Bulbs	C	42.771482	-73.892669
Paul_Mitchell_Focus_Salon_schenectady	B	42.790217	-73.915458
Decamp_Christopher_MD	A	42.758069	-73.777364
Subway	B	42.720718	-73.801962
Capital_City_Diner	B	42.68852	-73.859655
Freedom_First_Psychological_Services	A	42.753289	-73.777386
VENT_Fitness_Niskayuna	B	42.777301	-73.89107
Nora's_Grocery	C	42.737834	-73.724044
CapitalCare_Internal_Medicine_Balltown_Road	A	42.796757	-73.892816
Columbia_Plaza	C	42.763691	-73.754533
Time_&_Time_Again	C	42.710192	-73.816508
Original_Soundz	C	42.750442	-73.869789
Lanthier's_Grove	B	42.772535	-73.754344
Orlop_Farm_&_Greenhouse	D	42.771471	-73.816139
PCA_Allstars_Home_of_Premier_Cheer_Athletics	B	42.728378	-73.78842
Trustco_Bank	C	42.798809	-73.947319
PepsiCo	C	42.756384	-73.795612
The_Church_of_Jesus_Christ_of_Latter_day_Saints	A	42.702215	-73.752082
Mathnasium	A	42.690764	-73.866688
Verizon_Wireless	C	42.689335	-73.850334
KEELER_MOTOR_CAR_COMPANY	C	42.767489	-73.814736
Laurel's_Floral	C	42.715335	-73.705294
Horan_Tony's_Barber_Shop	B	42.7728	-73.700738
Willen_Michael_A_MD	A	42.773013	-73.751686
Leggings_USA	C	42.689565	-73.851259
Bridal_Gallery_By_Yvonne	C	42.756414	-73.757684
Dollar_Tree	C	42.771067	-73.894019
Automedics	D	42.688207	-73.800795
Westmere_Barber_Shop	B	42.691199	-73.868609
Jean_Paul_Spa	B	42.685034	-73.840729
Cosimo'S_Plaza	C	42.689654	-73.866107
Fantastic_Sams	B	42.717517	-73.813119
Schott's_Boxing	B	42.688272	-73.794963
Boost_Mobile	C	42.785637	-73.910555
Capital_District_Hemotology_Oncology_Associates_PC	A	42.77285	-73.75186
Hear_For_You	A	42.686593	-73.782114
Redwood_Diner	B	42.776654	-73.934382
Weekend_MBA_Executive_Education_Center	A	42.718912	-73.811708
Aspire_Nail_Studio	B	42.701846	-73.81415
Premium_Mortgage	C	42.72084	-73.809216
Allstate_Insurance	C	42.693576	-73.7745
Homedical_Associates	A	42.803405	-73.900199
Union_Street_Office	C	42.803511	-73.900114
Grossman's_Bargain_Outlet	C	42.699202	-73.824292
AÃ©ropostale	C	42.689308	-73.850032
William_F_Deluca_Jr_MD	A	42.724497	-73.796958
ULTA_Beauty	A	42.771727	-73.892516
Keeler_Motor_Car_Company	C	42.766887	-73.812646
Dunkin'	B	42.733647	-73.848991
Capital_Timing	A	42.705959	-73.862238
Watervliet_Arsenal_Fire_And_Emergency_Services_Dod	A	42.718965	-73.707402
Spruce_Computer_Systems	C	42.758289	-73.824416
Roman_Catholic_Diocese_of_Albany	A	42.666993	-73.786755
Journeys	C	42.689647	-73.849856
Homewood_Suites_by_Hilton	B	42.725725	-73.798501
Hodge_Katherine_Pt	A	42.758309	-73.777373
Cold_Stone_Creamery	B	42.683591	-73.840631
East_Coast_Tire	C	42.72951	-73.701841
Hertz	C	42.74572	-73.810024
Sweet_Treasures	C	42.752284	-73.759967
Pandora	C	42.689187	-73.848986
Unique_Construction	D	42.683085	-73.782046
Gillenwalters_David_W_DDS	A	42.805885	-73.908307
Apex_Sports_Performance_NY	B	42.696039	-73.824105
Aronowitz_Eric_R	A	42.725807	-73.936039
New_York_&_Company	C	42.710555	-73.815471
Central_Market_Florist	C	42.782466	-73.955129
Ed's_Glass_Windshield_Repair_&_Replacement	C	42.787807	-73.941531
Goldilocks_Promos	C	42.751664	-73.77676
JCPenney_Optical	A	42.687717	-73.847258
Beer_Universe	C	42.705556	-73.819764
Kuma_Ani_Express	B	42.689343	-73.848391
I_Love_NY_Pizza_of_Schenectady	B	42.804295	-73.902684
Sunbelt_Rentals	C	42.731135	-73.795437
Wheelers_Accessible_Vans	E	42.701695	-73.824608
Cheon_Lee_Elaine_MD	A	42.828742	-73.889605
Regal_Entertainment_Group	A	42.710979	-73.816671
Pustolkas_Tavern	B	42.789125	-73.92937
Frank_Adams_Jewelers	C	42.684353	-73.839335
Dave_&_Buster's	B	42.689913	-73.852328
Apex_Insurance_Agency	C	42.762055	-73.795459
Gulf_Oil	C	42.798211	-73.947072
Yogibo	C	42.690016	-73.851301
Ronald_A_Scharf_DVM	A	42.77961	-73.848163
Hallmark_Cards	C	42.70982	-73.817273
Edward_Jones	A	42.690397	-73.865435
KeyBank	C	42.775038	-73.700384
Changes_Salon	B	42.787526	-73.740375
Smokers_Choice	C	42.700979	-73.819523
SICAP_Industries	A	42.713927	-73.844597
CoreLife_Eatery	B	42.716599	-73.808883
Shaker_Ridge_Country_Club	B	42.751635	-73.826083
Primal	C	42.6839	-73.838717
Rotterdam_Family_Chiropratic	A	42.782526	-73.953171
3_Stone_Dentistry_&_Implants	A	42.754422	-73.773149
Allstate_Insurance	C	42.721763	-73.837152
True_Value_Hardware	C	42.693026	-73.817427
The_Nurse_Connection_Staffing_Inc	B	42.720071	-73.808785
Ed's_Barber_Shop	B	42.804269	-73.904025
Makarachi_Ahad_MD	A	42.758068	-73.777338
Fresenius_Kidney_Care	A	42.802973	-73.915875
Sensational_Hair_Designs	B	42.704779	-73.816947
Bella_Hair_Salon	B	42.718104	-73.804979
Levine_David_DDS	A	42.671856	-73.809526
Upper_Union_Street	B	42.805177	-73.906441
1Pro_NY	C	42.666253	-73.831549
Aqueduct_Animal_Hospital	A	42.840307	-73.892808
Anytime_Fitness	B	42.756404	-73.760603
Weinstein_David_DDS	A	42.689293	-73.774634
Metro_Mattress	C	42.772435	-73.891804
New_York_State_Public_Employees_Federation_Afl_CIO	B	42.769581	-73.820774
Warren_Tire_Service_Center	D	42.757257	-73.778304
Fancy_Schmancy	C	42.732947	-73.761806
Bridges_Afterschool_Program_Llc	A	42.672242	-73.810308
Celadon_Thai_Restaurant	B	42.74683	-73.75789
Transtutors	A	42.722181	-73.800679
Berkshire_Bank	C	42.770877	-73.823224
Goodyear_Auto_Service_Centers	D	42.769004	-73.890538
Carleen's_A_Hair_Retreat	A	42.743762	-73.759973
St_Paul_The_Apostle_Church	A	42.780709	-73.90807
Equal_Vision_Records	C	42.695004	-73.826201
Clark_Clements_Klein_and_Syeda	A	42.726893	-73.759777
Belmonte_Dominic_J_MD	A	42.701184	-73.849498
Shanghai_Grill	B	42.727925	-73.761319
J&D_Automotive	D	42.766349	-73.700533
Albany_Family_Dentistry	A	42.72744	-73.761851
Miller_P_Gregory_MD	A	42.686448	-73.842128
Subway	B	42.77251	-73.89406
Skechers	C	42.68934	-73.848412
St_Gabriel's_Roman_Catholic_Church	A	42.76661	-73.938887
Check_Debra_J	A	42.746119	-73.755627
Taco_Bell	B	42.684186	-73.795452
Albany_Medical_Center	A	42.697357	-73.822844
CVS	A	42.77457	-73.896682
Copart_Albany	C	42.735651	-73.854414
Uncle_Sam's_Health_Food	A	42.735114	-73.762587
Inferno_Pizzeria	B	42.689924	-73.866537
Noble_Nails_&_Spa	B	42.7228	-73.936233
George's_Auto_Glass_&_Uphlstrng	C	42.737154	-73.723041
St_Croix_Tan	B	42.728302	-73.759667
Andreski_Stephen_MD	A	42.668125	-73.788056
The_Grill	B	42.723566	-73.79747
Vineyard_Wines_&_Spirits	C	42.777347	-73.934064
La_Z_Boy_Home_Furnishings_&_Decor	C	42.751776	-73.760623
J_J_Rafferty's	B	42.752185	-73.759083
West_Marine	C	42.754399	-73.766667
CosmoProf	C	42.781899	-73.950487
Madelaine's_Hair_Salon	B	42.687547	-73.861075
Knowledge_Network	A	42.715448	-73.805717
Cool_Slim_Spa	B	42.7705	-73.756395
Azalea_Boutique	C	42.72267	-73.936209
Stewart's_Shops	C	42.697847	-73.791439
rue21	C	42.688222	-73.847601
Enterprise_Rent-A-Car	C	42.745901	-73.809797
Brass_Eye_Center	A	42.758736	-73.776916
Edleez_Tobacco	C	42.683693	-73.838669
M&T_Bank	C	42.747305	-73.923049
TD_Ameritrade	A	42.736165	-73.763542
The_Works_Auto_Center	D	42.690615	-73.778868
Morra_Gregory_R_DDS	A	42.746158	-73.755655
IWC_Schaffhausen	C	42.684896	-73.848015
Color_Bar_Hair_Studio	B	42.773595	-73.935222
Lee's_Dragon_Buffet	B	42.734682	-73.851052
Junior_Shoe_Port	C	42.683773	-73.839621
The_Cuckoo's_Nest	B	42.661872	-73.778108
Xtramart	C	42.707506	-73.71229
MK_Beauty_&_Barber_Lounge	B	42.742405	-73.838484
Express_Employment_Professionals	B	42.742381	-73.83851
Latham_Community_Baptist_Church	A	42.765914	-73.780042
Dawson's_Body_Shop	D	42.706863	-73.711413
Marshalls	C	42.70656	-73.825307
Hotel_Indigo	B	42.729603	-73.796274
Liberty_Travel	B	42.710638	-73.816473
Pai's_Tae_Kwon_Do	B	42.689052	-73.863455
Tipsy_Moose_Tap_&_Tavern	B	42.746254	-73.759109
A.C._Moore	C	42.754941	-73.7564
Buff's_Auto_Service	D	42.690072	-73.782808
PurpleSale_com	A	42.747427	-73.749413
Taft_Furniture	C	42.737853	-73.861727
Twilight_Park	B	42.773266	-73.711076
Dunkin'	B	42.689687	-73.85004
Merrill_Lynch	A	42.770965	-73.759032
Blatnick_Park	B	42.812241	-73.859523
Schuyler_Meadows_Club	B	42.721453	-73.742094
Hiit_By_Hilts	B	42.71613	-73.839042
Priority_Sewer_And_Drain_Service	C	42.7868	-73.944369
Airgas	C	42.724427	-73.854717
Pathology_Assoc_of_Albany_PC	A	42.734938	-73.792952
Carrier_Enterprise	C	42.735958	-73.794119
Brass_Robert_E_MD	A	42.758711	-73.77694
Amazing_Grace_Transportation	E	42.788189	-73.91216
William_J_Freyer_Nationwide_Insurance	C	42.784774	-73.909371
Lions_Park	B	42.776948	-73.8243
Perazzelli_Michael_E	A	42.71601	-73.810025
Sally_Beauty_Supply	A	42.782583	-73.942787
Gardner_Michael_J_MD	A	42.679929	-73.836274
Brown_Bag_Sub_Shoppe_2	B	42.781401	-73.952279
Saint_Francis_Chapel	A	42.717903	-73.804745
Safelite	D	42.695963	-73.881727
Bargain_Furniture	C	42.713782	-73.827645
Quality_Vehicle_Sales	C	42.775948	-73.914015
The_Walking_Company	C	42.689034	-73.849547
Farmers_Insurance_Group	C	42.783657	-73.911331
Faces_By_Eve	A	42.686506	-73.869214
Certified_Allergy_&_Asthma_Consultants	A	42.683052	-73.769875
Walgreens	A	42.731535	-73.84999
The_Merzig_Arthritis_&_Osteoporosis_Clinic	A	42.688478	-73.775436
Nemeth's_Auto_Repair	D	42.795953	-73.944552
Vireo_Health_Albany	C	42.700979	-73.819378
DeLollo's_Hardware	C	42.732175	-73.706835
Hoffman_Car_Wash	D	42.74396	-73.761021
Burger_King	B	42.680993	-73.839019
Banana_Republic	C	42.688179	-73.848556
Dnipro	C	42.757176	-73.758451
Uptown_Wine_and_Spirits	C	42.730988	-73.705403
Five_Below	C	42.752802	-73.762476
Page_Lincoln_E_Podiatrist	A	42.727983	-73.772921
Tia_Tucciarone	C	42.76356	-73.754392
Inferno_Pizzeria	B	42.738214	-73.7279
Expertsland	A	42.722193	-73.80065
New_York_State_Retired_Teachers_Assn	B	42.755524	-73.819027
Mayron_Charles	A	42.762275	-73.748277
Juliet_House_of_Brides	C	42.728387	-73.761004
Cumberland_Farms	C	42.772081	-73.685306
Burger_Studio	B	42.662806	-73.785145
WinWholesale	C	42.783927	-73.907189
Vitoria_Adamo	B	42.7816	-73.954026
GameStop	C	42.706118	-73.821336
Ruth's_Automotive	D	42.721692	-73.863093
Midas	D	42.683886	-73.793733
DiBella's_Subs	B	42.755317	-73.776643
Bergman_Richard_J_DDS	A	42.666151	-73.789646
Yang's_Asian_Bistro	B	42.726555	-73.761115
Capital_Costumes_and_Vintage	C	42.708828	-73.8172
Salon_Onaj	B	42.717761	-73.808969
Dollar_Tree	C	42.782648	-73.943092
Boost_Mobile	C	42.798811	-73.92547
Kemp's_Hockey_Shop	C	42.746016	-73.761136
Budget_Rent_A_Car	C	42.708864	-73.817638
Schoolhouse_Auto	D	42.668454	-73.847577
Full_Circle_Fitness_NY	B	42.721468	-73.863605
Ruggiero's_Pizza_&_Deli	B	42.71548	-73.931706
Westland_Hills_Park	B	42.681645	-73.797325
Berkshire_Bank	C	42.779953	-73.955411
Parivar_Spices_and_Food	C	42.699202	-73.810966
Aumiller's_Pharmacy	A	42.795588	-73.921618
Jason_Solghan_Mortgage_Loan_Officer	C	42.770828	-73.821014
Shear_Beauty	B	42.746381	-73.700843
Dunn_Elizabeth_Csw	A	42.79947	-73.904297
The_Home_Depot	C	42.78199	-73.918321
River_Road_Internal_Medicine	A	42.828989	-73.890172
Birchwood_Elementary_School	A	42.773287	-73.841418
Kim_Kay_MD	A	42.758071	-73.777373
Homestyle_Pizza	B	42.80335	-73.901879
Domino's_Pizza	B	42.713955	-73.828063
Mohawk_Army_Navy	C	42.757335	-73.756982
Republic_Services	E	42.75179	-73.800976
Zack's_Duo_Barbershop	B	42.744017	-73.837703
Capital_District_Hematology_Oncology_Associates	A	42.77285	-73.751846
Willow_Creek_Equestrian	C	42.766796	-73.866041
Companion_Animal_Medical_Center	A	42.775508	-73.935261
Southgate_School	A	42.72263	-73.77594
2001_Central_Insurance_Agency	C	42.755563	-73.87534
Apropos_Prom_and_Bridal	C	42.690382	-73.865571
Noor_Mart	C	42.732933	-73.711914
Dunkin'	B	42.710412	-73.816443
Custom_Built	C	42.742408	-73.838517
Sunoco	C	42.702883	-73.816421
Albany_Schoharie_Schenectady_Saratoga_Boces	A	42.737244	-73.823306
Villarama_Juan_N_Jr_PC	A	42.774272	-73.705798
Fritze_Jeweler	C	42.721559	-73.836698
Forever_21	C	42.688321	-73.849199
Holiday_Inn_Express	B	42.710344	-73.821393
Allstate_Insurance	C	42.790501	-73.936803
Albany_Boces_Adult_Practical_Nursing_Program	A	42.737096	-73.823287
Ck_Cycles	C	42.703887	-73.81777
Dunkin'	B	42.770322	-73.821507
SKS_Bottle_&_Packaging_Inc	C	42.738359	-73.704101
AMERICAN_Diabetes_ASSOC	A	42.711472	-73.865804
Albany_Laser_Spa	B	42.718481	-73.807492
Goldstein_Collision_Center	D	42.722759	-73.835604
OrthoNY	A	42.758091	-73.777239
Donnie_Magoos	B	42.772115	-73.700564
O'koniewski_Robert_MD	A	42.758049	-73.777354
Giorgio's_the_Salon	B	42.761872	-73.750453
Swifty's_Restaurant_&_Pub_Albany	B	42.692344	-73.775297
Empire_Financial_Advisors	C	42.753286	-73.78133
Picture_People	A	42.706214	-73.825032
Professional_Cleaning_Group	D	42.695178	-73.878773
Leslie's_Swimming_Pool_Supplies	C	42.757329	-73.761643
Boys_&_Girls_Clubs_of_America	B	42.796514	-73.925011
The_Rejuva_Center_at_Williams	A	42.76466	-73.811228
Burger_Debra_Msw	B	42.736983	-73.84311
Latham_Vehicle_Safety	A	42.75789	-73.758734
Pinewood_Elementary_School	A	42.763782	-73.918409
Lia_Honda	C	42.697406	-73.812258
McDonald's	B	42.798035	-73.924484
Shah_Parag_MD	A	42.68373	-73.77121
New_Mt_Pleasant_Bakery	B	42.79912	-73.947377
Olive_Garden	B	42.722873	-73.802245
New_Panda_Chinese_Take_Out	B	42.757265	-73.758596
Xpedx_Paper_&_Graphics_Store	C	42.694529	-73.820032
Halal_Grub	B	42.71851	-73.805608
Hospice_&_Palliative_Care_Association_of_New_York_State	B	42.716301	-73.803865
Pisa_Biopharm	A	42.683293	-73.846806
New_York_&_Company	C	42.689313	-73.848393
The_Body_Spot	B	42.761986	-73.748982
The_Body_Shop	A	42.710516	-73.815757
Dover_Saddlery	E	42.75884	-73.766958
Skyview_Plaza	C	42.762185	-73.752747
Unicell_Body	D	42.753084	-73.906143
Capitaland_Animal_Hospital	A	42.761016	-73.791757
Peelz_On_Wheelz_Studio	A	42.689884	-73.864517
Neil_Hellman_Library	B	42.663784	-73.784857
Liquidsun	D	42.782947	-73.947541
Pan_Dermatology_PC	A	42.693045	-73.774224
Pioneer_Bank	C	42.693229	-73.874839
Jeanette_Perkins	A	42.693232	-73.873233
Boys_&_Girls_Club_Pine_Hills	A	42.66733	-73.790649
Tala_An_American_Bistro	B	42.731715	-73.762511
Stadium_Golf_Club	B	42.778992	-73.918136
Busino_Lawrence_J_DDS	A	42.684701	-73.837745
First_Niagara_Bank	C	42.728255	-73.700661
Stewart's_Shops	C	42.736859	-73.761069
Turnpike_Barber_Shop	B	42.688825	-73.86099
Chef's_Grill	B	42.753525	-73.75694
Sunoco	C	42.779609	-73.932496
US_Trichology_Institute	A	42.77054	-73.756152
The_Tavern	B	42.728185	-73.798715
CAP_COM_Federal_Credit_Union	C	42.719983	-73.795974
Miracle_Eyebrows	A	42.688693	-73.84911
TWB_Moving	E	42.738019	-73.854171
Lynnwood_Elementary_School	A	42.72469	-73.946453
Kronick_Gary_MD	A	42.758013	-73.777442
Netrition	A	42.704666	-73.877108
Wilhelm_&_Norman_PLLC	A	42.773509	-73.701407
Berkshire_Bank	C	42.732136	-73.762613
518_Guitar	C	42.682271	-73.800358
Sal_Singh_DDS	A	42.805366	-73.907019
Gage_Hl_Sales	C	42.693161	-73.84592
Sherwin-Williams	C	42.718913	-73.80736
Baymont_Inn_&_Suites	B	42.754229	-73.816283
Center_for_Rheumatology_LLP	A	42.686059	-73.842574
Northern_Nurseries	D	42.760415	-73.901203
5_Wits_Albany	C	42.689319	-73.848402
Boomer_McLoud	C	42.788866	-73.936548
Chipotle_Mexican_Grill	B	42.755725	-73.775969
RetinaCare_Consultants	A	42.751637	-73.761441
John's_Auto_Repr	D	42.765156	-73.940005
The_Boil_Shack	B	42.712876	-73.814451
Goodyear_Auto_Service_Centers	D	42.712735	-73.816592
American_Eagle_Outfitters	C	42.710701	-73.815067
Dealzzz_Discount_Outlet_Clothing_&_Thrift	C	42.783368	-73.946248
Executive_Woods_Childcare_Inc	A	42.689145	-73.776987
Excelsior_Credit_Union	C	42.728497	-73.85493
Capital_Care_Medical_Group	A	42.82912	-73.88867
LKQ	C	42.725431	-73.853487
Linda's_Nails_&_Spa	B	42.769714	-73.892685
CAPITALCARE_Mcdical_Group	A	42.726856	-73.938148
Physical_Therapy_&_Wellness_Solutions	A	42.702699	-73.797259
Carter's	C	42.711064	-73.816115
Kidz_Korner_After_School	A	42.723163	-73.936195
Capital_Region_Obgyn	A	42.75831	-73.777453
Heather_Clark_LMT	B	42.701611	-73.81977
Anchor_Agency	C	42.725824	-73.793752
Regency_jewelers	C	42.783494	-73.947352
Fiqh_Institute_&_Dawah_Center_of_America	A	42.733431	-73.708269
Guitar_Center	C	42.717651	-73.803632
Katz_Richard_L_MD	A	42.758033	-73.777349
Paesans_Pizza	B	42.690182	-73.86532
Blue_Ribbon_Bakery	E	42.780704	-73.903853
Piercing_Pagoda	C	42.689306	-73.848384
Quality_Transmissions	D	42.710388	-73.710062
ShopRite	C	42.724138	-73.843986
Van_Schaick_Island_Country_Club	B	42.765434	-73.689264
Metro_Mattress	C	42.755413	-73.776743
Thomas_Nicolla_Physical_Therapy_of_Latham	A	42.758331	-73.7774
Tru_Fit_Custom_Clubs	C	42.763373	-73.798765
Kabinoff_Jay_DDS_Stuyvesant_Dental_Care	A	42.681539	-73.838099
Cohoes_Bowling_Arena	B	42.774219	-73.704308
Pinto_Thai_Kitchen	B	42.714076	-73.829319
Lee_Nails	B	42.709915	-73.81829
Mohawk_Army_Navy	C	42.77068	-73.893591
Fatima_Hussain_Brow_Studio	A	42.701921	-73.814052
National_Car_Rental	C	42.746146	-73.810319
Staples	C	42.753878	-73.766962
Zenek's_Auto_Sales	C	42.731012	-73.705772
James_D_Alfandre_MD	A	42.693889	-73.771801
Mutual_of_Omaha_Insurance	C	42.711625	-73.868103
Superior_Exteriors_And_Remodeling	C	42.768053	-73.947852
Schenectady_Pediatric_Dentistry	A	42.805346	-73.90438
CVS	A	42.715462	-73.932779
The_Albany_Lift	B	42.759566	-73.787252
M_Cafe	E	42.781402	-73.90588
Gracie's	C	42.726932	-73.760901
Invisible_Ink_Tattoo_Removers	A	42.728665	-73.759811
Brian_Beaury_Jiu_Jitsu	B	42.714848	-73.70614
Moe's_Southwest_Grill	B	42.729114	-73.847161
Monro	D	42.789305	-73.937584
Hallmark_Cards	C	42.735604	-73.763433
Cumberland_Farms	C	42.783526	-73.912186
Twist'N_Flip_Gymnastics	B	42.789751	-73.945076
AAA_Commercial_Janitorial_Services	D	42.718695	-73.808051
Lucky_Garden	B	42.684594	-73.795666
OT_for_Developing_Kids	A	42.737269	-73.793858
Allegra_Network	E	42.751386	-73.870814
Jade's_Hair_Envy	A	42.732052	-73.848226
Utica_General_Peterbilt_Albany	C	42.696328	-73.824474
Farmer_Boy_Diner_&_Restaurant	B	42.742529	-73.86045
Cheon_Hee_Joo_MD	A	42.828702	-73.889597
Simon's_Men's_Wear	C	42.804619	-73.903773
Mark_Thomas_Men's_Apparel	C	42.719524	-73.801962
Amtech_Insurance_Brokers_Inc	C	42.752534	-73.776678
Harbor_Freight_Tools	C	42.728654	-73.847052
Simons_Elinor_MD	A	42.701164	-73.849467
Mobil	C	42.791378	-73.871487
Banfield_Pet_Hospital	A	42.772008	-73.892172
Cricket_Wireless	C	42.710054	-73.816574
The_Century_House_an_Ascend_Hotel_Collection_Member	B	42.77108	-73.753036
Family_Dollar_Stores	C	42.77358	-73.697233
Molar_Lab	A	42.719524	-73.809155
Buerker_Chiropractic_Office	A	42.781796	-73.954028
Albany_Chiropractic_and_Physical_Therapy	A	42.723105	-73.839711
Bohler_Engineering	C	42.720984	-73.806963
Roberts_Auto_Service	C	42.760634	-73.790986
Westmere_Elementary_School	A	42.685911	-73.86114
Abbott_Energy_Inc	C	42.710173	-73.816389
Cafe_Monocle	B	42.774231	-73.700946
Lavender_nail_spa	B	42.804309	-73.904124
De_Masi_James_M_MD	A	42.685412	-73.838934
Peregine_Senior_Living_at_Colonie	B	42.732709	-73.824165
Staples	C	42.707695	-73.822603
Casa_Flora	C	42.727454	-73.761132
A_A_Mazzone's_Auction_Svce	C	42.755689	-73.943336
M&T_Bank	C	42.775152	-73.916968
Famiglia_Salon	B	42.805093	-73.904979
Recycled_Salon	B	42.688668	-73.7818
Cricket_Wireless	C	42.734096	-73.762813
Grossman's_Bargain_Outlet	C	42.7384	-73.727022
Paychex	C	42.712073	-73.873229
Northern_Lights_Smoke_Shop	C	42.701574	-73.818691
Sonnekalb_Michael_P_MD	A	42.726855	-73.93816
Usa_Gas	C	42.684044	-73.847891
Pad_Thai_Noodle	B	42.693691	-73.773327
Capital_Kitchen_&_Granite	C	42.716648	-73.831121
Crispy_Basil_Artisan_Pizza_Latham	B	42.736907	-73.761583
Orangetheory_Fitness	B	42.748646	-73.763495
Kennedy_Optical	A	42.830053	-73.903409
Smith's_Colonie_Wine_&_Liquor_Store	C	42.723591	-73.839231
Clare_Bridge	B	42.779723	-73.842676
McDonald's	B	42.696545	-73.84925
Ellis_Hospital	B	42.761949	-73.815234
Tugboat_Tavern	B	42.767996	-73.693649
DeJoseph_Hair	B	42.736813	-73.844614
Grossman's_Bargain_Outlet	C	42.783565	-73.92178
Liberty_Tax_Service	A	42.732933	-73.7108
Old_Navy	C	42.772243	-73.891999
Universidad_Autonoma_De_Guadalajara	A	42.679933	-73.76487
Planet_Fitness	B	42.78741	-73.940363
Chipotle_Mexican_Grill	B	42.682909	-73.838418
Pediatric_Dental_Group_of_NY	A	42.726001	-73.7937
Sossner_Hal_DDS	A	42.828684	-73.892361
Quest_Diagnostics	A	42.753822	-73.761546
Ruby_Tuesday	B	42.689143	-73.850443
Top_Notch_Auto_Repair	D	42.688293	-73.801118
Diva_Nails	B	42.742252	-73.742327
D_&_D_Auto_Repairs	D	42.729964	-73.701933
The_Murray_Group_Insurance_Services_Inc	C	42.690856	-73.86732
Islamic_Shia_Ithna_Asheri_Jamaat_of_Albany	A	42.734283	-73.825688
JT's_Tavern	B	42.772753	-73.701483
Northeast_Institute_of_Gymnastics	B	42.69712	-73.80861
Holiday_Inn_Express	B	42.761787	-73.754584
Colonie_Youth_Center_Inc_Saddlewood_School	A	42.732184	-73.838143
Pro_Image_Sports	C	42.690499	-73.852455
Nussbaum_Chiropractic	A	42.696391	-73.770105
Designs_In_Silk	C	42.719128	-73.80346
Grace_Baptist_Church_Of_Guilde	A	42.780179	-73.893898
Albany_Multi_Medicine_Group	A	42.723092	-73.839745
Sake_Bon	B	42.789095	-73.9371
Physical_Therapy_Assocs_Of_Schenectady	A	42.769618	-73.822374
Cash_King	A	42.734248	-73.851406
Nail_Art_2	B	42.771061	-73.824238
Community_Care_Physical_Therapy	A	42.75811	-73.777241
Family_Rosary	A	42.694804	-73.887321
Accent_On_Skin	A	42.804436	-73.915745
United_Auto_Clinic	D	42.768123	-73.910128
Accent_On_Skin	B	42.728446	-73.759647
Littman_Jewelers	C	42.689326	-73.848412
Verizon_Wireless	C	42.715708	-73.829776
The_Horses_Lounge	B	42.807468	-73.913571
Home_Style_Caterers	A	42.803454	-73.901818
Her_UnderThings	C	42.686966	-73.858708
Severino_Auto_Sales_Inc	C	42.788305	-73.912457
Gia_Bella_Hair_Salon	B	42.79307	-73.931833
SRA_Handyman_Service	C	42.801936	-73.949931
The_Vitamin_Shoppe	A	42.77251	-73.893855
Bovenzi_Kari_W_MD	A	42.668196	-73.798256
The_Original_Soupman	B	42.708801	-73.817225
Stephen_Hepp's_Auto_Service	C	42.773002	-73.689698
Northway_Motor_Car_Corp	D	42.753937	-73.783075
Dental_Society_Third_District	A	42.765118	-73.755635
518_Collision	D	42.783272	-73.947728
Old_Navy	C	42.688401	-73.847833
J_C_Beauty_Bar_and_Salon	B	42.766522	-73.754194
Pumpkin_Patch_Early_Learning_Center	A	42.702565	-73.881027
Alfa_Romeo_of_Albany	D	42.688989	-73.799883
Chick-fil-A	B	42.745582	-73.80938
Grooming_by_Lori	B	42.750667	-73.887036
Cinnabon	B	42.69021	-73.852372
Sand_Creek_Animal_Hospital	A	42.718913	-73.80716
Price_Chopper_New_England	C	42.753171	-73.757078
State_Farm	C	42.68544	-73.838965
Massaroni_Properties	C	42.782578	-73.852009
Weight_Watchers	B	42.686945	-73.858728
CNY_Fertility_Center	A	42.75984	-73.759728
Sprint	C	42.683767	-73.839633
Pizza_Hut	B	42.756425	-73.769952
Community_Hospice_Albany	B	42.739994	-73.840785
Brasch_Robert_C	A	42.758164	-73.777349
City_Of_Albany_Department_Of_Fire_Emergency_Medical_Services_And_Code_Enforcement_Pine_Bush	A	42.701429	-73.851322
NY_Nail_&_Spa	B	42.789078	-73.936881
Quiltbug_com	C	42.733608	-73.938653
Hallmark_Cards	C	42.735605	-73.763482
Wealth_Advisory_&_Management_Corporation_of_America	A	42.805769	-73.907917
ALDI	C	42.786008	-73.912582
Charley's	B	42.710713	-73.81612
Alternative_Approach_Massage_Therapy	B	42.69297	-73.804054
Latham_Medical_Group	A	42.75895	-73.776966
Field_Notes	B	42.764272	-73.857361
Yoshi_Sushi	B	42.733931	-73.762821
Trustco_Bank	C	42.682811	-73.838452
Burke_Edmund_J_PHD	A	42.738958	-73.84127
Splash_Nail_Spa	B	42.81639	-73.890863
Pil_Sung_Kumdo	B	42.688434	-73.799085
Reena_Boutique	C	42.793135	-73.917933
Orangetheory_Fitness	B	42.687145	-73.858617
European_Wax_Center_(EWC)	B	42.735622	-73.763883
The_UPS_Store	C	42.727508	-73.759816
Hooters	B	42.714561	-73.813699
Calvary_United_Methodist_Church	A	42.75179	-73.752996
Northway_Chiropractic_Ofc	A	42.74354	-73.759105
Hot_Cuts	B	42.710257	-73.817021
Luciano_Wine_&_Liquor	C	42.692714	-73.872962
Capital_Gate_Insurance_Group	C	42.732419	-73.848549
Charlize_Hair_Studio	B	42.773373	-73.689491
Stewart's_Shops	C	42.742909	-73.837527
Hampton	B	42.724697	-73.795492
Innovations_Hair_Salon	B	42.689736	-73.865678
Agar_Auto_Parts	C	42.692843	-73.813227
Zara	C	42.688742	-73.848466
Hair_by_Cassie	B	42.766391	-73.94666
Kailberg_Park	B	42.831234	-73.913862
Capitalcare	A	42.830795	-73.891226
New_Covenant_Presbyterian_Church	A	42.672285	-73.810248
Trustco_Bank	C	42.716032	-73.932428
Deluxe_Nail_Spa	B	42.707346	-73.777046
METRO_FORD_SALES_INC	C	42.771092	-73.891549
Best_Brains_learning_center	A	42.735959	-73.764406
Elite_Hair_and_Image_Salon	B	42.707375	-73.775605
Bryant_&_Stratton_College	A	42.698224	-73.809739
Davco_Masonry	D	42.731637	-73.704018
Tsl_Adventures_Llc_Clc	A	42.681617	-73.841119
Edward_Jones	A	42.816567	-73.889042
Yarong_Wang	A	42.709625	-73.86342
Cousins_Restoration	B	42.805548	-73.906185
Gerstenbluth_Robert	A	42.827198	-73.906682
Kaiser_Body_Shop	D	42.75707	-73.809754
Price_Chopper_New_England	C	42.733416	-73.855973
Cevera_John	A	42.686398	-73.840996
Platinum_Kutz_2	B	42.806996	-73.912334
Stanton_Joyce_Piano_Studio	A	42.676927	-73.833999
FixTeam	C	42.689902	-73.851325
Vent_Fitness	B	42.740264	-73.732267
Starbucks	B	42.775436	-73.88948
Cohoes_House_of_Pizza	B	42.773378	-73.700757
ADA_Nail_Spa	B	42.71465	-73.82894
Yardboro_Auto_Care	D	42.688278	-73.801089
CapitalCare	A	42.796753	-73.892803
Thelma_Costello_MS_LMHC	A	42.71693	-73.807698
TCBY	B	42.727942	-73.761001
Stewart's_Shops	C	42.729178	-73.759899
WIlliam_Busino_MD_CapitalCare_Lab	A	42.830598	-73.891122
CJ_Sabatini_Opticians	A	42.69691	-73.883706
Tramontana_Charles_H	A	42.72503	-73.823001
State_Farm	C	42.698486	-73.812055
Liberteks	C	42.6858	-73.853583
Big_and_Small_Dog_Care	C	42.745907	-73.863784
Safelite_AutoGlass	C	42.75734	-73.813847
Latham_Internal_Medicine	A	42.758103	-73.77726
Kay_Jewelers	C	42.689436	-73.850119
Mike's_Diner	B	42.724894	-73.936179
Core_Pilates_of_Albany	B	42.689377	-73.774685
CareNet_Medical_Group	A	42.829008	-73.890273
Prima_Pizzeria	B	42.769707	-73.892683
West_Albany_Fire_Department_Station_1_Sand_Creek_Road	A	42.692061	-73.784862
Cusato's_Pizzeria	B	42.782533	-73.949541
River_Road_Animal_Hospital	A	42.828972	-73.89018
Bank_of_America	C	42.802724	-73.899225
Barry_Smokes_&_Things	C	42.696316	-73.809038
Christine_Cappello_Hair	B	42.766622	-73.937977
Twist'N_Flip_Gymnastics	B	42.714561	-73.841615
Dalle_Accounting	A	42.725218	-73.702388
Mamone's_Auto_Body_Repair	D	42.722258	-73.701369
Bake_For_You	B	42.658828	-73.768846
WeHair_Beauty_Bar	B	42.800023	-73.948104
All_4_Fun	A	42.763998	-73.808455
LUSH	A	42.689319	-73.848393
KeyBank	C	42.744822	-73.761241
Colonie_Town_Park	B	42.798895	-73.741503
Ziebart	D	42.68944	-73.801274
PMR_Newkirk	C	42.691245	-73.811308
Air_Force_Reserve_Recruiting	A	42.709895	-73.818302
Aquatic_Development_Group	A	42.800297	-73.723337
Siebeneck_Hillary_MD	A	42.758621	-73.777152
Alfa_Romeo_of_Albany	C	42.716563	-73.832823
Pine_Hills_Market	C	42.661857	-73.78061
Tyrone_Bentley_MD	A	42.762034	-73.748878
Hillhurst_Park	B	42.801214	-73.970321
Magical_Vacation_Planner_with_Jenn_Lashway	B	42.779402	-73.856704
Berkshire_Bank	C	42.744004	-73.838405
Adult_World	A	42.788304	-73.938947
Skechers	C	42.74824	-73.763792
Academy_Of_Rural_Veterinarians	A	42.680674	-73.837943
Kid_Central_Childcare	A	42.741395	-73.860494
Fresenius_Kidney_Care	A	42.700097	-73.852594
Ellis_Hospital_McClelland_Cafeteria	B	42.804658	-73.916152
Rejuvenation_Massage	B	42.721123	-73.808914
Zoom_Tan	B	42.727677	-73.761144
EmUrgentCare	A	42.774287	-73.750987
Robert_J_Califano_DPM	A	42.758334	-73.777394
BJ's_Wholesale_Club	C	42.70423	-73.830704
David_Delaney	A	42.705112	-73.776824
T-Mobile	C	42.711065	-73.816104
Ed's_Glass	C	42.787794	-73.941485
Kinkaid_Family_Chiropractic	A	42.693041	-73.873339
Zales	C	42.710492	-73.816302
Applebee's	B	42.783275	-73.91534
Stewart's_Shops	C	42.737866	-73.732134
Coulson's_News_&_Variety	C	42.727377	-73.76111
State_Farm	C	42.715515	-73.804143
Guilderland_Foot_Care	A	42.695204	-73.878772
PriceRite	C	42.784152	-73.918344
25_Silver_Boutique	C	42.710289	-73.816123
Van_Antwerp_Middle_School	A	42.808741	-73.895182
David_Walraed_Howard_Hanna_Real_Estate_Services	C	42.714963	-73.803821
Runway_Express	C	42.786305	-73.943708
Sweetly	C	42.689458	-73.850723
Dan's_Place_Two	B	42.66294	-73.774454
Italian_Benevolent_Society_of_West_Albany	C	42.683978	-73.782145
Batteries_Plus_Bulbs	C	42.716704	-73.809
Limited_Too	C	42.71026	-73.816537
Lyles_Hoagies	B	42.784412	-73.907943
Inferno_Pizzeria	B	42.746575	-73.758846
PCI_Tire_&_Service	C	42.773664	-73.929999
Boston_Market	B	42.677357	-73.823174
CoreLife_Eatery	B	42.678302	-73.827889
Empire_State_Stone	C	42.750768	-73.868744
Pruyn_House	B	42.731992	-73.778143
Bourbon_Street_Bar_&_Grill	B	42.762414	-73.883425
The_Vascular_Group	A	42.683756	-73.771296
Hearing_Health_LLC	A	42.694874	-73.847147
Melissa_Johnson_LMT	B	42.715871	-73.831379
Chams_Consulting_&_Translation	A	42.783666	-73.911343
Beer_Universe	C	42.804616	-73.902804
J&K_Hair_Salon	B	42.690606	-73.801687
Albany_Medical_Center_Division_of_Allergy_Asthma_and_Immunology	A	42.699299	-73.851899
Gus's_Hotdogs	B	42.73531	-73.701482
Radiant_Vitality_With_Monica_Smith	B	42.676858	-73.82534
Paintworx_Collision_Center	D	42.693587	-73.804448
Boys_&_Girls_Clubs_of_America	B	42.798131	-73.941177
Yuan_Nail_&_Spa	B	42.77272	-73.701193
McLaughlin_Judd_Physical_Therapy	A	42.746269	-73.943081
Advantage_Sport_&_Fitness	C	42.757299	-73.758587
Super_Mart	C	42.71553	-73.830985
Miles_and_Styles_Barbershop	B	42.791737	-73.934768
Stewart's_Shops	C	42.757517	-73.776083
Taj_Mahal_Beauty_Salon	B	42.725732	-73.760293
Roma_Importing_Co	C	42.756677	-73.756295
Niskayuna_High_School	A	42.818422	-73.888974
Mr_Ding_A_Ling_Ice_Cream	B	42.742024	-73.793101
Quick_Lane	C	42.770117	-73.891118
Dollar_Tree	C	42.706463	-73.777643
Bosley	B	42.716931	-73.80769
Empire_Vision_Centers	A	42.783461	-73.919445
Dunkin'	B	42.74548	-73.809243
Surroundings_Floral_Studio	C	42.743912	-73.837744
Capital_Business_Advisors_Inc	A	42.7127	-73.828003
MAC_Cosmetics	A	42.68924	-73.849805
Sunoco	C	42.773473	-73.82505
D'Raymonds	B	42.707602	-73.774828
Albany_Light_Truck_&_Car_Repair	D	42.682182	-73.777379
T_&_T_Towing	C	42.770629	-73.701108
Best_Fitness	B	42.698509	-73.825908
Lancaster's_Automotive	D	42.796017	-73.923203
Sefcu_A_Federal_Credit_Union	C	42.764063	-73.75471
Maple_Leaf_Day_Care_Center	A	42.741323	-73.942218
Roman_Pizza	B	42.739427	-73.736289
Prime_Care_Physicians_PC	A	42.679952	-73.836251
Nini's_Gourmet_Panini's	B	42.770953	-73.824273
Khushru_&_Farzana_Irani_Dr	A	42.792557	-73.878903
DePaula_Used_Cars	C	42.688983	-73.799909
Shaker_Shed	C	42.739234	-73.824745
Amazing_Nail_Art	B	42.773618	-73.935006
Ala_Shanghai_Chinese_Cuisine	B	42.746345	-73.758733
William_C_Keane_Elementary_School	A	42.796566	-73.92471
Scrubbles_Laundromat	E	42.713836	-73.706469
Berkshire_Bank	C	42.686081	-73.842546
Sudy_Thai_Restaurant	B	42.782673	-73.949187
Victoria_Secret	C	42.689896	-73.851122
Mallozzi's	B	42.779617	-73.95672
Capital_Care_Medical_Group	A	42.74241	-73.83849
Shatter_And_Case	C	42.689476	-73.849895
Advanced_Therapy	A	42.698347	-73.851154
Brian_Boyagian	C	42.70102	-73.822511
Edward_Jones	A	42.716936	-73.807665
Beltone	A	42.68776	-73.860701
Full_Circle_Beauty	B	42.708982	-73.710441
Angela_Croteau_Licensed_Massage_Therapist	B	42.748576	-73.941659
Hair_Razors_Salon_Spa_&_Boutique	B	42.802538	-73.900132
United_States_Postal_Service_(USPS)	C	42.793939	-73.932276
Capital_Tint_and_Graphics_Line_X	C	42.744805	-73.863066
Capital_Church	A	42.733014	-73.844997
Drue_Sanders_Custom_Jewelers	C	42.687341	-73.856185
ExamOne	A	42.765015	-73.75569
Famous_Footwear	C	42.710532	-73.817032
Albany_Medical_Center_Internal_Medicine_Group	A	42.699791	-73.852343
Albany_Medical_Center	A	42.737186	-73.786728
Head_To_Tail	C	42.804891	-73.905795
Last_Vestige_Music_Shop	C	42.662724	-73.77661
Berkshire_Bank	C	42.774363	-73.895317
Wynwood_of_Niskayuna	B	42.801264	-73.897929
El_Charro_Mexican_Grille	B	42.685885	-73.853849
Lone_Pine_Town_Park	B	42.735592	-73.927004
Thai_Thai_Bistro	B	42.816519	-73.891008
Golden_House	B	42.737764	-73.723858
Christ_the_King_Church_Faith_Formation	A	42.694817	-73.887353
Professional_Service_Association	A	42.770134	-73.703685
Bank_of_America	C	42.747171	-73.761857
Fleurtacious_Designs	C	42.746917	-73.75983
Natural_Progressions_Wellness_Center	B	42.715796	-73.83141
Mobil	C	42.753753	-73.771474
Casa_Di_Vino_Spirits	C	42.781132	-73.95548
Fidens_Brewing_Company	D	42.716771	-73.837673
Sam's_Club	C	42.757839	-73.762941
Central_Park	B	42.797474	-73.908783
Schenectady_Jewish_Community_Center_Day_Care	A	42.832121	-73.894012
Mr_Pio_Pio	B	42.663011	-73.77581
Chico's	C	42.684252	-73.839064
Niskayuna_Wines_&_Liquors	C	42.815946	-73.894146
McNally_Paving	C	42.718437	-73.819013
Mercato's_III	B	42.762597	-73.798394
McDonald's	B	42.766876	-73.816088
Len_John_J_MD	A	42.771253	-73.699929
New_York_Optical	A	42.720661	-73.801921
Meineke_Car_Care_Centers	D	42.685484	-73.795694
St_Peter's_Hospital	B	42.721322	-73.801443
Northeast_Orthopaedics	A	42.693886	-73.771925
Gap	C	42.771608	-73.89277
Comfort_Family_Dentistry	A	42.77616	-73.699928
Top_Notch_Barber_Shop	B	42.804527	-73.919014
Jewish_Community_Center_Of_Schenectady_Craig_Elementary	A	42.832121	-73.894036
Mechelle's_Way_Tae_Kwondo_&_Cardio_Kickboxing	B	42.784156	-73.918355
Scarboroughs_Restaurant_&_Tavern	B	42.76182	-73.799216
Kugler's_Red_Barn	C	42.766669	-73.869697
Justice	C	42.709916	-73.816318
SmartStyle_Family_Hair_Salons	B	42.746601	-73.764037
Walgreens	A	42.763011	-73.754709
Prudential_Financial	C	42.7602	-73.81922
Mastroianni_Anthony_P_MD	A	42.739133	-73.94129
Jackson_Hewitt_Tax_Service	A	42.732085	-73.848731
The_Woodward_Co	C	42.683388	-73.77435
Creative_Pension_Consultants	A	42.738967	-73.842577
Super_Taco	B	42.710744	-73.816502
Domino's_Pizza	B	42.786613	-73.911421
Xeno_Athletics	B	42.73785	-73.724154
Montessori_School	A	42.795199	-73.88399
Arlene's_Artist_Materials	C	42.700274	-73.821522
CrossFit	B	42.688093	-73.793698
St_Catherine's_Ctr_For_Children_R_&_E_May_School	A	42.666228	-73.785772
Valiant_Insurance_Company	C	42.722336	-73.798915
Our_Lady_of_Mount_Carmel_Church_of_Schenectady	A	42.793808	-73.947181
Vince's_Garage	D	42.789855	-73.939556
St_Helen's_Church	A	42.801286	-73.89629
Howard_Johnson_(HoJo)	B	42.718492	-73.83449
Express	C	42.710644	-73.815158
Lexington_Vacuum	C	42.684905	-73.794778
Burger_King	B	42.735546	-73.76186
NY_Nails_&_Spa	B	42.78907	-73.936915
Valentis_John_PH_D	A	42.678369	-73.836462
Edible_Arrangements	C	42.720769	-73.802023
Claire's	C	42.689472	-73.849611
Finish_Line	C	42.711435	-73.814195
Fantastic_Sams	B	42.757338	-73.761695
Amethyst_Springs	B	42.762218	-73.797677
All_You_Are	B	42.787532	-73.740373
Central_Market_Florist	C	42.753461	-73.756982
New_York_Epilepsy_Medicine_PC	A	42.753166	-73.781373
Court_Club	B	42.713922	-73.810056
Hunan_Wok	B	42.805055	-73.904513
Mitchell_Robert_A_MD	A	42.799488	-73.904279
Deluxe_Nails_&_Spa	B	42.814778	-73.893066
The_Corner_Deli	B	42.717646	-73.813286
Peter_Purcell_MD	A	42.802162	-73.898329
Custom_Built	D	42.717976	-73.838171
Schenectady_Municipal_Golf_Course	B	42.793205	-73.899448
Mr_Subb	C	42.753129	-73.76471
Colonie_Alliance_Church	A	42.720414	-73.842009
Inspire_Confidence_Group_Ameriprise_Financial_Services	A	42.715322	-73.812965
GNC_(General_Nutrition_Centers)	A	42.753142	-73.764713
Shamoun_Jack_MD	A	42.758039	-73.777382
Mattress_Firm	C	42.697907	-73.887114
Teas_n'_Tapas	B	42.770946	-73.824288
7_Cleaners	E	42.761844	-73.796151
LT's_Grill	B	42.816745	-73.891487
Cricket_Wireless	C	42.689298	-73.848407
Jos._A._Bank_Clothiers	C	42.684006	-73.838788
The_Purple_Rose_Everlasting	C	42.775362	-73.93541
Faccia_Bella_Salon	B	42.782014	-73.746056
Grout_Park	B	42.792742	-73.928159
Albany_Medical_Center	A	42.758712	-73.776923
New_Loudon_Center	C	42.754558	-73.757115
H&R_Block	A	42.774125	-73.896188
CapitalCare	A	42.804452	-73.915739
Trustco_Bank	C	42.711503	-73.818489
Five_Below	C	42.689228	-73.849798
Mattress_Firm	C	42.773461	-73.894078
PacSun	C	42.689353	-73.849317
rue21	C	42.71002	-73.816175
Northeast_Wealth_Management	A	42.685427	-73.838955
Michaels_Stores	C	42.757257	-73.769078
Tara_L_Benincasa_LMHC	A	42.725144	-73.936667
Creating_Space_Massage_&_Skincare	B	42.66671	-73.791475
Kinowski_Agency_Inc	C	42.78133	-73.95363
Fidelis_Care_Albany_Regional_Office	C	42.763094	-73.823041
Pathare_P_S_Dr_Dntst	A	42.727312	-73.779685
Nikki_P's_Pizza_Deli_Bakery	B	42.768135	-73.915953
Trinity_Lutheran_Church	A	42.799887	-73.924575
Moe's_Southwest_Grill	B	42.726757	-73.795156
Brescia_Jerry	A	42.802416	-73.899896
Maestro_Dental_Wellness	A	42.681738	-73.848655
Pioneer_Bank	C	42.730861	-73.700769
Military_Cafe	B	42.742891	-73.796645
Center_Stage_Deli	B	42.777082	-73.934189
Blue_Creek_School	A	42.741355	-73.753088
Regal_Entertainment_Group	A	42.69122	-73.852377
The_Capital_Living_Nursing_&_Rehabilitation_Centre	B	42.791751	-73.932712
Greenberg_Lyon_M_MD	A	42.6864	-73.840982
Mr._Tire	C	42.705139	-73.819065
Nikos	B	42.703793	-73.775967
Empire_Chiropractic_Centre	A	42.72441	-73.840002
Newbury_Plaza	C	42.713577	-73.813485
GameStop	C	42.774044	-73.892842
DiNapoli_Opticians	A	42.684378	-73.841074
Lindt_Chocolate	C	42.689627	-73.850858
Interim_HealthCare	B	42.725929	-73.841718
The_Cat's_Meow	B	42.700114	-73.886182
Clinton_Park	B	42.730995	-73.708045
The_Desmond_Hotel_Albany	B	42.728208	-73.798835
Latham_Center	C	42.757493	-73.769177
Comfort_Inn	B	42.769307	-73.753054
Wallwork_Group_Albany	C	42.694228	-73.81321
KeyBank	C	42.734679	-73.852779
Carman_Park	B	42.779406	-73.930234
Acuity_Therapeutic_Massage	B	42.727259	-73.761847
Cohoes_Middle_School	A	42.770518	-73.710546
Starbucks	B	42.708834	-73.775564
E_P_Nevins_Insurance_Agency	C	42.725252	-73.839879
Window_World	C	42.696473	-73.810133
Build_A_Bear_Workshop	C	42.689425	-73.849447
Dee_Dee's_Tavern	B	42.73778	-73.771991
OfficeMax	C	42.730391	-73.849127
Bed_Bath_&_Beyond	C	42.711813	-73.819731
Capital_District_Internal_Medicine	A	42.679827	-73.83494
Deitz_Family_Dental	A	42.694271	-73.773501
Siena_College_Book_Store	C	42.706815	-73.753647
The_Crossings_of_Colonie	B	42.717861	-73.792181
DeSanti_Family_Dentistry	A	42.723738	-73.821905
Paesan's_Pizza	B	42.73352	-73.762896
St_Adalbert_Catholic_Church	A	42.803793	-73.948461
Smooth_Reflections	B	42.770595	-73.823588
Piece_d'Occasion	C	42.707061	-73.777942
Victoria's_Secret	C	42.710727	-73.816166
Andrews_&_Holbrook_Training	A	42.758685	-73.818595
Habitat_for_Humanity	B	42.698335	-73.82284
Boys_&_Girls_Clubs_of_America	B	42.791922	-73.922312
Cullen_Francis_J_MD	A	42.687962	-73.77298
350_East_Salon_&_Spa	B	42.727962	-73.734922
Loyal_Nutrition	A	42.777596	-73.934039
Healing_Meals	C	42.693679	-73.77329
Dunkin'	B	42.76988	-73.892824
New_Dragon_Garden_Restaurant	B	42.744654	-73.838138
Steven_M_Showers_CPA	A	42.777153	-73.843762
Mottolese_&_Mottolese_DDS_PC	A	42.688416	-73.775588
St_Michaels_Episcopal_Church	A	42.726572	-73.834254
H&M_(Hennes_&_Mauritz)	C	42.709666	-73.816736
New_York_State_Chiropractic_Assn	A	42.775783	-73.850333
Choppa_&_Son_Formal_Wear	C	42.684837	-73.795903
True_Value_Hardware	C	42.803721	-73.901057
First_Niagara_Bank	C	42.744904	-73.761254
Relationship_Healing_and_Wellness_Lorrie_Golden_LCSW	A	42.678291	-73.836466
Blaze_Pizza	B	42.6834	-73.840449
Tendercare_Child_Center_Inc	A	42.686975	-73.861269
St_Peters_Health_Partners_Medical_Associates	A	42.758109	-73.777248
United_States_Postal_Service_(USPS)	C	42.709665	-73.816292
1506_Altamont_Avenue	C	42.783786	-73.945856
Envy_Nails_&_Spa	B	42.742528	-73.838393
On_the_Farm	B	42.742571	-73.741243
Roessleville_School	A	42.705309	-73.813019
The_Clock_Works	C	42.78322	-73.907646
State_Farm	C	42.697298	-73.885616
D_and_S_Auto_Body_and_Collision	D	42.768779	-73.73022
Latham_Biryani_Restaurant	B	42.733719	-73.762758
New_York_Court_Listing	C	42.736616	-73.792759
RE_MAX_Capital	C	42.687044	-73.858635
Capital_Buffet	B	42.717603	-73.804075
Michaels_Stores	C	42.697125	-73.847533
Uncle_John_Diner	B	42.774181	-73.701659
Kronick_Steven_D_MD	A	42.710265	-73.864116
KinderCare	A	42.813731	-73.890674
Supercuts	B	42.735926	-73.764444
Albany_Ninja_Lab	B	42.696505	-73.847365
Falc_Cathrine_Chirprctr	A	42.829803	-73.892262
Nicholas_A_Morra_Latham_Dental_Group	A	42.758726	-73.776918
Otis_&_Oliver's	B	42.765257	-73.794736
Maximum_Title	C	42.741181	-73.839236
Tetreault_William_R_MD	A	42.725677	-73.936308
Dermatology_for_Animals	A	42.739977	-73.738115
Consaul_Auto_Care	D	42.752371	-73.855974
Hoffman_Car_Wash	D	42.715131	-73.811168
Eaton_Carolyn_MD	A	42.796791	-73.892824
Colonie_Youth_Center_Inc_Lisha_Kill_Middle_School	A	42.748822	-73.857835
Newcomer_Funeral_Home_&_Cremation_Services	B	42.72902	-73.854359
Schenectady_Ski_School	A	42.78424	-73.888568
Watervliet_Wine_&_Liquor	C	42.730791	-73.703333
Colour_Cosmetic_Studio	A	42.682798	-73.841947
Gulf_Oil	C	42.715554	-73.830967
Kaiser_Opthalmics_Co	A	42.669233	-73.846982
Albany_Psychological_Associates_PC	A	42.688641	-73.862199
Gabriels_F_Forrest_PC	A	42.672778	-73.812309
Cohoes_Community_Center_Inc	A	42.776381	-73.702145
Guilderland_Music_Academy	C	42.691118	-73.868126
Elegant_Fashion	C	42.743211	-73.744346
La_Fiesta_Mexican_Restaurant	B	42.718242	-73.834147
Champs_Sports	C	42.690381	-73.85192
Cdy_Guilderland_Pinebush_Elementary	A	42.745973	-73.940608
Tokyo_Electron_America	C	42.69104	-73.833562
Shoppes_At_Newton_Plaza	C	42.727394	-73.761272
The_Eric_Idea_Agency	A	42.755043	-73.882656
Hannaford_Supermarkets	C	42.784474	-73.942981
Yan_Richard_MD	A	42.803729	-73.914637
China_1	B	42.773694	-73.697207
Bashkoff_Jacqueline_A_PHD	A	42.686397	-73.841024
Macina_Andrew_MD	A	42.683752	-73.77122
Duff_Thomas_MD	A	42.758088	-73.777249
Toedt_Insurance_Agency	C	42.691929	-73.794315
Sherwin-Williams	C	42.784213	-73.90878
Mobil	C	42.715657	-73.811955
Ron_Hamelin_Massage_Therapy	B	42.791596	-73.93894
Zoom_Tan	B	42.684005	-73.838787
Jang_Tuh_Asian_Grocery_Store	C	42.740686	-73.762525
A_Plus_MediTrans	E	42.692698	-73.812784
AAA	C	42.804385	-73.904412
Dunkin'	B	42.704046	-73.816329
Maple_Leaf_Childcare_Center_Inc	A	42.773361	-73.935458
Catholic_Family_&_Community_Svces_of_Albany	A	42.666384	-73.786234
Prison_Families_of_New_York	A	42.666394	-73.786249
Parker_Scientific_Dental_Labs	A	42.791486	-73.914702
Smile_SPA	B	42.777215	-73.93411
Garden_Grille	B	42.746503	-73.818826
Dillman_Randall_L	C	42.821408	-73.89877
Romaine_Robert_McDonough_Dr	A	42.76626	-73.730867
Sisters_of_St_Joseph	A	42.733282	-73.782052
Harold_finkle	B	42.716794	-73.831292
McDonald's	B	42.753142	-73.764683
All_Stars_Academy	B	42.738837	-73.735138
The_Language_Learning_Institute	A	42.748978	-73.765209
Dollar_Tree	C	42.81638	-73.891043
Next_Level_Detailing	D	42.751825	-73.870214
Montessori_Magnet_School	A	42.683458	-73.799379
Bruegger's	B	42.727214	-73.761105
Boys_&_Girls_Clubs_of_America	B	42.795704	-73.949966
Mr_Dealz	C	42.73198	-73.848377
Pep_Boys	C	42.729704	-73.845162
Holy_Trinity_Church	A	42.777659	-73.712961
Rhoades_Service_Center	C	42.693156	-73.876906
Ace_Hardware	C	42.692629	-73.875079
Heavy_Duty_Parts	C	42.696344	-73.822074
Namco_Pool	C	42.728895	-73.847077
Latham_Fire_Department_Station_2	A	42.733061	-73.750215
Strut_Spalontique	A	42.719474	-73.801729
Capital_District_Oral_&_Maxillofacial_Surgeons	A	42.771856	-73.757461
Pasquali_Michael_J_DDS	A	42.684723	-73.837744
Teresian_House	B	42.70179	-73.856403
AlterNative	C	42.689544	-73.849943
iDeal_Furniture_Albany	C	42.773007	-73.700755
New_Horizons_Computer_Learning_Center_of_Albany	A	42.735743	-73.81835
McDonald's	B	42.684213	-73.848562
Gomez_Neurology	A	42.717477	-73.809582
EmUrgentCare	A	42.782807	-73.94134
Cumberland_Farms	C	42.694089	-73.806544
Boys_&_Girls_Clubs_of_America	B	42.667318	-73.790611
Farmers_Insurance_Group	C	42.737561	-73.763694
Sunglass_Hut	A	42.711471	-73.814171
Erica's_Tailoring_Full_Svc	E	42.704755	-73.775649
Goldstein_Subaru	C	42.725779	-73.844677
Big_Horse_Auto	C	42.787654	-73.912571
Heart_Lotus_Qigong	B	42.776757	-73.683691
Sorbero_Orthodontics	A	42.685428	-73.838928
Bill's_Restaurant	B	42.773805	-73.69268
Hong_Kong_Bakery_&_Bistro	B	42.709506	-73.821795
Trustco_Bank	C	42.815033	-73.893058
Lab_Corporation	A	42.868084	-73.80789
Albany_Marine_Svce_Marina	C	42.819378	-73.728358
Marotta's_Pizza_&_Catering	B	42.783445	-73.912157
Wedekind_Motors	D	42.786923	-73.910883
Dunkin'	B	42.7304	-73.703477
Achievements	A	42.7317	-73.761607
Colonie_Youth_Center_Inc_Latham_Ridge_School	A	42.753569	-73.741518
Sundstrom_Roseanne_Dds	A	42.735401	-73.759324
Albany_Homecare_and_Staffing	B	42.72145	-73.801563
Progressions_Advanced_Hair_Cutting_Seminars	B	42.767232	-73.816283
Pineview_Community_Church_Pre_School	A	42.704203	-73.85521
F_L_Falvo_Insurance_Agency	C	42.805539	-73.907409
The_Honey_Baked_Ham_Co.	B	42.714008	-73.812607
Benson's_Pet_Center	C	42.723219	-73.79987
Sunoco	C	42.808215	-73.912706
Sher_Aaron_E	A	42.686413	-73.840996
Minuteman_Press	E	42.789135	-73.937272
Fiorello_Importing_&_Luigi's_Deli	B	42.676587	-73.82462
Capital_Smiles	A	42.807036	-73.909752
SpringHill_Suites_by_Marriott	B	42.703951	-73.815343
Scissors_III_&_Co_Hair_&_Nail_Design	B	42.714059	-73.829519
U-Haul	C	42.774068	-73.693465
Golf_Dome	C	42.757145	-73.786323
AA_Mazzone's_Auction_Service	C	42.755694	-73.943326
Latham_OB_Gyn_Associates	A	42.758315	-73.777402
Monroe_Wheelchair	B	42.751559	-73.794294
Skin_Deep	A	42.734011	-73.762764
BJ's_Restaurants	B	42.708561	-73.821299
Schenectady_Community_Action_Program_Head_Start	A	42.794904	-73.924314
HIIT_it_with_Britt	B	42.68843	-73.799151
Laura_M_Connell_MA_LMHC	A	42.717083	-73.807622
Albany_County_Veterinary_Hospital	A	42.681852	-73.841869
ValueOptions	A	42.760206	-73.824454
Mattress_Firm	C	42.748347	-73.763564
Domani_Nail_Spa	B	42.80485	-73.905685
Belanger_School_Of_Nursing_At_Ellis_Medicine	A	42.802986	-73.915866
Stewart's_Shops	C	42.724092	-73.841179
Afrim's_Sports_Park	B	42.7389	-73.826651
Lincoln_School	A	42.794892	-73.922053
Rollarama	B	42.774339	-73.936026
Hair_Journeys	B	42.733943	-73.85094
Hollister	C	42.689114	-73.849827
CapitalCare_Family_Practice_Guilderland	A	42.725827	-73.936064
Kate's_Kakes	E	42.713752	-73.810374
LUKOIL_North_America	C	42.807004	-73.913784
Dipace_Charles_J_Dr_Chirprctr	A	42.751407	-73.759378
Stewart's_Shops	C	42.701657	-73.819647
Bamboo_Restaurant	B	42.722693	-73.936221
Starbucks	B	42.705238	-73.823531
Chemung_Canal_Trust_Company	C	42.726309	-73.759838
Lam's_Kitchen	B	42.689535	-73.866226
Saddlewood_Elementary_School	A	42.732192	-73.838172
Loudonville_School	A	42.706054	-73.756494
GoWireless	C	42.726094	-73.760431
Tsl_Daycare_Services	A	42.673559	-73.849508
Popeyes_Louisiana_Kitchen	B	42.80002	-73.927151
Cachet_Salon	A	42.689313	-73.864132
Michael's_Shoe_Service	E	42.803367	-73.901577
Valero_Energy	C	42.755256	-73.944034
Westmere_Beverage_Center	C	42.688995	-73.863002
Milano_Pizza	B	42.68962	-73.86621
Sprint	C	42.713644	-73.813421
Albany_Dental_Care	A	42.692488	-73.774201
Krazh_Productions	A	42.682948	-73.800405
Steven_N_Barr_DC	A	42.68958	-73.866237
Boost_Mobile	C	42.731898	-73.707224
The_Market	B	42.720869	-73.799492
Taste_of_Italy_Pizza	B	42.746564	-73.763205
Steven_J_Oshins_DDS_Oshins_Of_Smiles	A	42.71563	-73.931698
Islamic_Center_of_the_Capital_District	A	42.762302	-73.878913
Action_Transportation	E	42.777493	-73.933269
Cameron_Dental	A	42.780311	-73.747183
Northwestern_Mutual	C	42.77236	-73.821921
Chipotle_Mexican_Grill	B	42.773262	-73.89404
The_Black_Bear_Inn	B	42.730332	-73.703089
Burden_Pond_Park	B	42.706078	-73.685317
Awards_By_Walsh's_&_Creative_Marketing	C	42.774284	-73.697298
Hong_Kong_Custom_Tailors	E	42.71284	-73.827975
Doug_Neil_Insurance_Agency	C	42.76221	-73.797639
Fantastic_Sams_Hair_Salons	B	42.75312	-73.764711
Artist_Pianos	C	42.737789	-73.764668
New_York_State_Optometric_Association	A	42.703956	-73.85851
Eblens	C	42.689326	-73.848384
Rotterdam_Dental_Arts	A	42.786938	-73.942186
Scally_Wags_Dog_Salon	C	42.781555	-73.746314
Adirondack_Trust_Company	C	42.720162	-73.81001
Windsor	C	42.688849	-73.849021
Bank_of_America	C	42.784252	-73.94448
Notre_Dame_Bishop_Gibbons_School	A	42.781436	-73.910646
Verizon_Wireless	C	42.773166	-73.891904
Don's_Garage_of_Cohoes	D	42.777722	-73.716065
Stewart's_Shop	C	42.74051	-73.736592
Judy_D'Angelo_Natural_Progressions_Wellness_Center	B	42.71582	-73.831401
Silver_Parrot	C	42.683708	-73.840637
BurgerFi	B	42.75355	-73.759975
Afrim's_Sports	C	42.724535	-73.79347
Capital_District_Oral_&_Maxillofacial_Surgeons	A	42.683697	-73.77112
Geico	C	42.728366	-73.84675
Katlan_Michael_G_MD	A	42.804889	-73.916066
Albany_Jcc_Montessori_Magnet_School	A	42.683463	-73.799161
Hampton	B	42.76832	-73.820286
Everything_Pets_and_Supplies	C	42.784134	-73.945798
George_Kevin_W_MD	A	42.715566	-73.804391
The_Costumer	C	42.745121	-73.863605
New_Covenant_Farmers_Market	C	42.672294	-73.810284
Just_Threading_Eyebrowz	A	42.749235	-73.761829
HRS_Hair_Replacement_Services	B	42.724102	-73.841173
Christ_Community_Church	A	42.773352	-73.935421
Three_Buckets_Wealth_Management_Ameriprise_Financial_Services	A	42.773171	-73.821822
Albany_Public_Library_Pine_Hills_Branch	B	42.666715	-73.790896
United_States_Postal_Service_(USPS)	C	42.728238	-73.701464
Planet_Fitness	B	42.708281	-73.775099
Van_Schaick_Island_School	A	42.768237	-73.687349
Spindle_City_Market	C	42.77406	-73.70177
The_Tile_Shop	A	42.717855	-73.803467
Berkshire_Bank	C	42.684779	-73.792926
Lyons_Christopher_DMD	A	42.705104	-73.776707
Rimma's_Unisex_Hair_Salon	B	42.735591	-73.701454
Hair_Designs_by_Amber_and_Tiffany	B	42.742434	-73.74381
The_Ice_Cream_Shop	B	42.754389	-73.874192
Jenny_Craig	B	42.735622	-73.763887
Flores_Family_Restaurant	B	42.794496	-73.919479
Carman_Road_Alliance_Church	A	42.754796	-73.943031
CVS	A	42.683458	-73.838482
T.J._Maxx	C	42.757835	-73.767898
AppleOne_Employment_Services	B	42.722383	-73.798964
Saperstone_James_D_MD	A	42.726871	-73.938143
Uncle_Sam's_All_American_Chocolate_Factory	C	42.727718	-73.761095
Tsao_Beatrice_MD	A	42.828719	-73.889579
Aflac_Kari_Cook	C	42.716722	-73.804756
Ford_Bradley_A_MD	A	42.726884	-73.938116
Big_Blue_Bus	B	42.67662	-73.824588
Johnny_Bladez	B	42.712741	-73.827823
Karner_Auto_Service	C	42.723755	-73.86162
St_Peter's_Health_Care_Services	A	42.702306	-73.825097
Cohoes_Falls_Park	B	42.785337	-73.710877
Sincere_Salon_and_Lounge	B	42.737343	-73.763952
Cifarelli_Joni_Csw	A	42.738959	-73.841272
Heavy_Duty_Plumbing_&_Heating	C	42.794087	-73.918946
Best_Western	B	42.725014	-73.799926
Bodywork_Professionals	B	42.725679	-73.760405
Latham_Auto_Body_Shop	D	42.738579	-73.791084
Mint_Models	C	42.759234	-73.759812
Capital_Region_Cars	C	42.782764	-73.907266
Elhosn_Eye_&_Aesthetics	B	42.684743	-73.837735
Sonic	B	42.756407	-73.775611
Peaches_Cafe	B	42.682978	-73.838436
Town_of_Niskayuna	B	42.839732	-73.907846
Hoffert_Eugene_MD	A	42.758797	-73.777149
Suburban_Propane	A	42.697187	-73.826019
BuildGreen_SIPs	C	42.777035	-73.69755
The_Vitamin_Shoppe	A	42.717219	-73.809743
Dominion_Equipment_Parts	C	42.749644	-73.889531
The_Music_Studio	C	42.69715	-73.808621
Albany_County_Jail_&_Penitentiary	A	42.751522	-73.81601
Professor_Java's_Coffee_Sanctuary	B	42.725179	-73.797514
Arsenal_City_Tavern	B	42.715591	-73.704413
Raymour_and_Flanigan_Furniture	C	42.777195	-73.890471
Jay_Allen_Barber_Studio	B	42.732074	-73.848283
Amazing_Wok	B	42.732851	-73.854856
John's_Body_Shop	D	42.787045	-73.934325
Party_City	C	42.695475	-73.847257
Shreyas_Exclusive	C	42.800301	-73.948195
Swicker_Stefan_A_MD	A	42.679931	-73.836246
Malecki_John_J_Rev	A	42.666992	-73.786757
Genoa_Importing	C	42.705851	-73.754235
Schuyler_Commons	C	42.738687	-73.787021
JNC_Landscaping	C	42.78789	-73.942228
Stewart's_Shops	C	42.803447	-73.900235
TJ's_Cafe	B	42.691061	-73.802
Brady_Stephen_MD	A	42.683774	-73.771252
Western_Diner	B	42.697121	-73.884934
MAACO	D	42.788555	-73.934967
West_Albany_News_Center	C	42.703079	-73.798268
Subway	B	42.75732	-73.758462
Cinnabon	B	42.710445	-73.815795
Community_Bank	C	42.757962	-73.782335
Yummy_Yummy	B	42.77378	-73.935058
Nuttings_General_Store	C	42.725459	-73.706485
Riverrun_Community_Montessori	A	42.795207	-73.884013
Michael_A_Perrino_DDS	A	42.764413	-73.916138
L&W_Supply	C	42.801223	-73.728845
McClellan_Street_Health_Center	A	42.80468	-73.916162
Remsen_Street_Flea_Market	C	42.775335	-73.701189
Osborne_Mill_Nursery	C	42.705375	-73.781402
Goodyear_Auto_Service_Centers	D	42.74704	-73.760499
Shaker_High_School	A	42.736053	-73.748836
Faddegon's_Nursery	D	42.768213	-73.818463
City_Line_Bar_and_Grill	B	42.677241	-73.82651
China_Dragon	B	42.788871	-73.936657
Franklin_Delano_Roosevelt_Elementary_School	A	42.803435	-73.94829
Berkshire_Bank	C	42.716673	-73.810454
Capital_Thai	B	42.684879	-73.794765
Bel_Cibo	C	42.803158	-73.901162
Kurver_Kreme	B	42.703349	-73.815808
Upstate_Guns_and_Ammo	C	42.773109	-73.896168
Bountiful_Bread	B	42.684635	-73.839815
Holiday_Inn_Express_Albany_Western_Ave_University	B	42.679002	-73.836156
Uptown_Beverage	C	42.780889	-73.953703
Dunkin'	B	42.78371	-73.912814
CAP_COM_Federal_Credit_Union	C	42.728492	-73.854948
World_of_Beer	B	42.690556	-73.853145
McDonald's	B	42.74381	-73.918571
Petco	C	42.706257	-73.821101
Marshall_Price_DDS	A	42.726377	-73.937926
Elations_Salon_&_Spa	B	42.759811	-73.697427
American_Residential_Mortgage	C	42.720388	-73.798181
Northeast_Urogynecology	A	42.687947	-73.773006
Whip_My_Hair_Salon	B	42.691401	-73.803556
Empire_Self_Defense_&_Fitness	B	42.718916	-73.837676
Mahabeer's_Convenience_Store	C	42.801087	-73.923816
China_Dragon_Chinese_Take_Out_Restaurant	B	42.732946	-73.701279
Starbucks	B	42.753033	-73.757121
Parsons_Early_Head_Start	A	42.795416	-73.925285
Daltile	E	42.726445	-73.855674
Bellini's_Italian_Eatery	B	42.731064	-73.762187
Cahill's_Automotive_Service_Center	D	42.679567	-73.834009
William_E_Sheridan	C	42.71307	-73.707136
Big_Red_Bus	B	42.676587	-73.824628
Berkley_Park	B	42.781765	-73.71897
David's_Beauty_Salon	B	42.81592	-73.894161
Starbucks	B	42.75095	-73.764228
Fresenius_Kidney_Care	A	42.816665	-73.888388
Holistic_Studies_Institute_&_Spiritualist_Center	A	42.712848	-73.827965
Rickard_Insurance_Agency	C	42.774543	-73.952988
Omlins_Auto_Sales_&_Service	D	42.768678	-73.910749
Raizada_Mart	C	42.802897	-73.899527
DiCarlo's_Gentlemen's_Club	B	42.692871	-73.804094
Pizza_Hut	B	42.72395	-73.798791
Shutts_John_I_Insurance_Agency	C	42.794461	-73.935625
International_Hair_Design	B	42.782253	-73.905544
Colonie_Town_Of_Memorial_Town_Hall_Newtonville	B	42.736625	-73.792731
B.GOOD	B	42.748565	-73.763514
Modern_Welding_School	A	42.779064	-73.903161
I_Love_New_York_Pizza	B	42.73108	-73.847768
Fred_Astaire_Dance_Studio	B	42.743939	-73.750284
Philip_Alexander_Jewelers	C	42.707525	-73.777377
Charles_Strumfeld_DDS	A	42.773921	-73.701415
CK_Hairartist_At_Faccia_Bella	B	42.782006	-73.746044
Childtime_Learning_Centers	A	42.761029	-73.815847
Young_Life_Spa	B	42.707295	-73.775823
Colonie_Town_Court	C	42.736604	-73.792727
Colonie_Youth_Center_Inc_Blue_Creek_School	A	42.741357	-73.753112
Gay_Royal_J_MD	A	42.683825	-73.77142
Berry_&_Berry	B	42.689543	-73.849824
D_&_L_Hospitality	B	42.773229	-73.700741
The_Shop_at_St_Andrew's	C	42.664565	-73.78829
Trinity_Baptist_Church	A	42.83559	-73.892815
La_Quinta_Inns_&_Suites	B	42.750845	-73.759206
The_Spa_Wholesaler	C	42.72956	-73.704981
Krumkill_Stables	C	42.664209	-73.851917
Bob's_Discount_Furniture	C	42.747444	-73.764045
Xtramart	C	42.770186	-73.893208
Zoar_Financial	A	42.720074	-73.807754
Michael's_Barber_Shop	B	42.786321	-73.943679
Gig_Computers	C	42.700711	-73.814188
Avis_Rent_A_Car	C	42.745761	-73.810087
Monro	D	42.714733	-73.830334
United_States_Postal_Service_(USPS)	C	42.774153	-73.699748
Audi_Albany	C	42.740956	-73.760963
Hannaford_Supermarkets	C	42.783351	-73.891136
Stewart's_Shops	C	42.76908	-73.875164
Hummer_of_Albany	D	42.724134	-73.84397
Edward_Jones	A	42.73049	-73.761916
Big_Nic's	B	42.69345	-73.773543
iCRYO_Cryotherapy	A	42.743608	-73.749237
Albany_Airport_Departure	C	42.745529	-73.809392
American_Italian_Heritage_Museum	B	42.696444	-73.807694
Progressive_Insurance_Colonie	C	42.716403	-73.832998
Cohoes_Family_Care	A	42.774254	-73.70092
Classic_Cuts	B	42.762335	-73.885553
Arby's	B	42.710579	-73.816425
21st_Century_Capital_Management	A	42.717067	-73.807667
Bob_Williams_Enterprises	C	42.767784	-73.889007
Fortune_Cookie	B	42.782976	-73.890697
DeNooyer_Group	C	42.749045	-73.86749
Precision_Volvo_Repair	D	42.759716	-73.897459
Lashed_Out	B	42.770589	-73.823584
Crossgates_Mall	C	42.689742	-73.850022
City_Nail_&_Spa	B	42.752836	-73.76266
MyHotTub	C	42.689328	-73.848421
Old_State_Road_Motorcar	C	42.724711	-73.934199
Church_of_Christ	A	42.823746	-73.891701
Kamco_Supply_True_Value_Albany	C	42.69302	-73.817446
George_Street_Park	B	42.765115	-73.702413
911_Restoration_of_Albany	D	42.751952	-73.870445
Landmark_Health_Albany	B	42.773238	-73.821862
Lcs_&_Z_Llp	A	42.773105	-73.758397
Williams-Sonoma	C	42.688258	-73.847824
Massage_Envy	B	42.773237	-73.892795
Supercuts	B	42.816564	-73.890771
Classy_Baskets	C	42.752534	-73.845258
Rent-A-Center	C	42.791658	-73.916371
New_York_Army_National_Guard	A	40.741214	-73.983871
Klim_Susan_L_PHD	A	42.738943	-73.841259
TD_Bank	C	42.733977	-73.761768
Panera_Bread	B	42.77417	-73.892854
Starbucks	B	42.664206	-73.785311
S_&_S_Video_&_Variety_Store	C	42.801021	-73.923364
Wall_Street_Dental_PC	A	42.761295	-73.94089
Albany_County_Correctional_Facility	A	42.751537	-73.816858
Scotti's_Restaurant_&_Pizzeria	B	42.803304	-73.901477
Tru_by_Hilton_Albany_Crossgates_Mall	B	42.686802	-73.852421
SriSiam_Thai_Restaurant	B	42.740966	-73.762574
RM_Ministries	A	42.762554	-73.812837
Miller_Stuart_MD	A	42.683742	-73.77124
Shop_Rite_Fuel_Center	C	42.724164	-73.84396
Hendrick_William_MD	A	42.758079	-73.777226
H&V_Collision_Center	D	42.782479	-73.905808
STS_Tire_&_Auto_Centers	D	42.74262	-73.7614
Nicky_P's	B	42.76914	-73.914938
American_Red_Cross_Fulton_Co_Chapter	A	42.689311	-73.77766
Seymours_Motorized_Sports	C	42.81471	-73.731873
Manor_Denis_P_MD	A	42.830713	-73.891048
Albany_International_Airport	E	42.748439	-73.801706
Burger_King	B	42.710522	-73.780167
Lindt	C	42.689631	-73.850866
Steve_Duggan_RE_MAX	C	42.687088	-73.858675
Bank_of_America	C	42.68067	-73.837966
Family_Dollar_Stores	C	42.798418	-73.947851
High_Adventure_Ski_&_Bike	C	42.764779	-73.808875
Beijing_Hair_Salon	B	42.713753	-73.827689
Immanuel_Lutheran_Church_Lcms	A	42.797246	-73.891595
LIA_HYUNDAI	C	42.68317	-73.792827
General_Orthopedics	A	42.721598	-73.836562
Rutgers_Park	B	42.796786	-73.933679
Pet_Stop_Of_Eastern_New_York	B	42.784008	-73.945898
Boncordo_Antonio_Dntst	A	42.713373	-73.782639
Hampton	B	42.679026	-73.836192
Shaker_Place_Rehabilitation_&_Nursing_Center	B	42.743422	-73.81369
Right_Way_Driving_Center	A	42.71025	-73.816552
Comprehensive_Neuropsychological_Services	A	42.665436	-73.789093
Hilltop_Pizzeria	B	42.737829	-73.724098
The_Acupuncture_Office	A	42.772683	-73.757839
PPG_Pittsburgh_Paints	C	42.752683	-73.778723
Navy_Federal_Credit_Union	C	42.801415	-73.898685
Technical_Video	B	42.734292	-73.794083
Chaplain_Claudia_Meyer	A	42.703404	-73.789737
Forts_Ferry_School	A	42.76453	-73.777915
School_Street	E	42.783917	-73.707751
Innovo_Kitchen	B	42.771334	-73.824173
Quality_Inn	B	42.772398	-73.937534
GameStop	C	42.689709	-73.85
Wilson_Jeffrey_J_PC	A	42.806558	-73.909941
New_Dragon_Garden_Restaurant	B	42.744652	-73.83814
Schenectady_Urological_Associates	A	42.82721	-73.90671
Stewart's_Shops	C	42.713262	-73.707612
Subway	B	42.729319	-73.700579
Lemons_Lorraine_DO	A	42.686411	-73.84101
Frank_G_Fort_MD	A	42.807164	-73.910071
Futia's_Formal_Wear	C	42.700058	-73.812225
Yankee_Candle	C	42.689254	-73.849208
Andaaz_Boutique	C	42.712715	-73.827778
State_Farm	C	42.72349	-73.936184
Regional_Emergency_Medical_Organization	A	42.721513	-73.836083
O'Reilly_Auto_Parts	C	42.704633	-73.819158
Wendy's	B	42.742189	-73.761381
Westney_Clarissa_Dr	A	42.792558	-73.878874
Famous_Footwear	C	42.775836	-73.889643
Firestone_Complete_Auto_Care	C	42.736442	-73.761404
Christopher_J_Maestro_DMD	A	42.681749	-73.848644
Allstate_Insurance	C	42.743544	-73.862917
Albany's_Indoor_Rockgym	B	42.688079	-73.79662
Kelley_Anne's_Hair_Salon_&_Boutique	B	42.760427	-73.787477
Dunkin'	B	42.723293	-73.801405
Sefcu_Niskayuna	C	42.782583	-73.893589
Pine_Hills_Elementary_School	A	42.667296	-73.790456
A_Perfect_Setting	B	42.72338	-73.801345
Lowe's	C	42.773436	-73.889691
Capital_District_Massage	B	42.72456	-73.841729
ULTA_Beauty	A	42.709542	-73.818187
Gabriels_Eye_MDs	A	42.672767	-73.81234
College_Of_Nanoscale_Science_&_Engineering	A	42.693019	-73.831823
Budget_Rent_A_Car	C	42.745694	-73.809963
James_Litynski_MD	A	42.802138	-73.89833
A_King's_Palace	B	42.796411	-73.947321
Bose	C	42.710396	-73.816456
Digestive_Disease_Associates_Of_Schenectady_Pc	A	42.80206	-73.90022
Aspen_Dental	A	42.758991	-73.766691
Hernia_Institute	A	42.726417	-73.70158
Nexgen_Wireless	C	42.708799	-73.817214
American_Design_and_Contracting	C	42.722561	-73.859605
Ario's_Pizza_&_Barbeque	B	42.770709	-73.820633
The_Good_Karma_Studio	B	42.716505	-73.838247
Caliber_Collision	D	42.782467	-73.905803
State_Farm	C	42.726488	-73.842508
Barnsider	B	42.716933	-73.813776
Central_Tailoring	E	42.6909	-73.801817
Kings_Cross_Knickers	C	42.758015	-73.819456
Tuxego	C	42.76222	-73.797467
Mobil	C	42.703757	-73.816406
Avila	B	42.700265	-73.857465
Maestro_Barbershop	B	42.76223	-73.797678
Albany_NY_Fitness_&_Revolution_Fitness_NY	B	42.696071	-73.824065
Labor_Ready	B	42.696899	-73.810519
Capital_Movers	C	42.697684	-73.798051
Grapeville_Agency_Inc	C	42.691825	-73.802837
El_Charro_Mexican_Grill	B	42.76259	-73.798687
United_Way	B	42.758533	-73.784779
Casey_Francis_B_OD	A	42.686365	-73.854799
Bike_Barn_Cycling_&_Fitness	C	42.773878	-73.700869
Ten_Thousand_Villages	C	42.683968	-73.840851
Visionworks	A	42.774877	-73.89298
Fiorello_Bakery_&_Deli	B	42.676461	-73.824376
Dish_Network_Sales	C	42.724555	-73.72651
Dave's_Tire_Warehouse	C	42.748357	-73.868371
Richard_W_Glover_DDS	A	42.814861	-73.891084
Eastern_Zen_Spa	B	42.77279	-73.753287
Spitzie's_Motorcycle_Center	C	42.74006	-73.859739
Good_Ground_Family_Church	A	42.775989	-73.70708
Wave_Length_Salon_&_Spa	B	42.746623	-73.757175
North_Bethlehem_Park	B	42.66717	-73.842256
Capital_District_Veterinary_Referral_Hospital	A	42.739998	-73.738119
Pizza_Mare_&_Delicatessen	B	42.731951	-73.848038
Sport_Clips	B	42.748437	-73.763547
High_Maintenance_Hair_Studio	B	42.723451	-73.840039
Miller_Patricia_PHD	A	42.710232	-73.864099
Mabel_Cheng_MD	A	42.773466	-73.82652
GOLDSTEIN_CHRYSLER_JEEP_DODGE	C	42.768015	-73.755447
212_Marketplace	B	42.66116	-73.77768
King_Of_The_Hill	D	42.699195	-73.825285
Albany_Fusion_Martial_Arts	B	42.689594	-73.866211
Auntie_Anne's	B	42.710147	-73.816856
Sylvan_Learning	A	42.710232	-73.864129
UniFirst_Uniforms_Albany	C	42.739346	-73.724803
Rite_Aid	A	42.73327	-73.849877
Loudon_Travel	B	42.706239	-73.77455
Mobil	C	42.7846	-73.913048
Mings	B	42.776941	-73.90063
Peckage_Bruce_Dpm	A	42.669726	-73.787494
LIDS	C	42.689332	-73.849477
CVS	A	42.690358	-73.851899
Andrew_Dentist_Albany_NY	A	42.68367	-73.771134
Holmes_Michael_B	A	42.830734	-73.891029
Chuck_E._Cheese's	B	42.754259	-73.766766
Akullian_Creative	A	42.681833	-73.848582
Greyhound	E	42.755259	-73.812476
T_Shirt_Spot	C	42.689325	-73.848399
Mme_Pirie's_Famise_Corset_&_Lingerie_Shop	C	42.68634	-73.854833
Alamo_Rent_A_Car	C	42.74602	-73.810001
Heritage_Therapeutic_Massage_&_Skin_Care	B	42.746066	-73.942997
Northeast_Parent_&_Child_Society	A	42.791433	-73.928344
Self_Expressions_Hair_Designs	B	42.77487	-73.932487
Avis_Rent_A_Car	C	42.711081	-73.816137
Bella_Napoli	B	42.737079	-73.763229
High_Bridge_Service_Center	C	42.771384	-73.924013
BJ's_Wine_&_Liquor	C	42.704654	-73.830242
Cake_Street_Sweets	E	42.771551	-73.70085
SaraBella_Pizza	B	42.710656	-73.805278
Town_of_Colonie	B	42.760638	-73.870592
Shapiro_Linda_S_PHD	A	42.738917	-73.841283
Amsure	C	42.720144	-73.809996
Vassolas_George_A_MD	A	42.83075	-73.891033
School_System_Federal_Credit_Union	C	42.710091	-73.865411
Latham_Christian_Academy	A	42.735471	-73.753002
Brown_Financial_Management_Group	A	42.705106	-73.857399
Good_Sheperd_Lutheran_Church	A	42.709951	-73.781203
Colonie_Central_High_School	A	42.708611	-73.808541
Buckle	C	42.689741	-73.851811
Family_Dollar_Stores	C	42.806986	-73.912251
Leading_the_Way_for_Little_Learners_Inc	A	42.714423	-73.826545
Mr_Hui's	B	42.774956	-73.897365
Sushi_X_&_Lounge	B	42.739819	-73.762681
Tantrums_Spa_Boutique	B	42.689331	-73.848428
Pop's_Pizza	B	42.770676	-73.708681
Dance_Fire_Studio_&_Fitness	B	42.816585	-73.888748
Valvoline	D	42.768675	-73.89137
State_Farm	C	42.751724	-73.942417
Sprint	C	42.773066	-73.892753
St_Ann_Maronite_Catholic_Church	A	42.731059	-73.702854
Prime_Storage	C	42.737495	-73.786289
Buca_di_Beppo	B	42.712622	-73.817179
Securitas	B	42.71512	-73.812883
Roofing_Rethought	D	42.743455	-73.756618
Tru_Images	B	42.657931	-73.765765
Our_Lady_of_Mercy	A	42.697498	-73.804437
TIAA_Financial_Services	C	42.772237	-73.759359
United_States_Postal_Service_(USPS)	C	42.738523	-73.777636
Wendy's	B	42.729406	-73.846901
Ryan's_Driving_School	C	42.719199	-73.932228
Tint_King	C	42.733512	-73.850528
Green's_Appliance_Direct	C	42.695629	-73.807114
Kathleen's_Designs_By_The_Flower_Girl	C	42.731635	-73.706454
Albany_Movement_&_Fitness	B	42.692241	-73.810827
Howe_Early_Childhood_Educational_Center	A	42.806937	-73.905441
Congregation_Gates_of_Heaven	A	42.801548	-73.900937
CapitalCare_Center_for_Preventative_Medicine	A	42.742442	-73.838489
Hot_Topic	C	42.689342	-73.849284
Synergy_Athletics	B	42.693908	-73.774003
Nail_Studio_&_Spa	B	42.773317	-73.891914
Finish_Line	C	42.690774	-73.852643
maurices	C	42.776051	-73.889667
Our_Daily_Eats	C	42.682468	-73.774842
Adirondack_Tire_&_Service	D	42.804257	-73.902172
Upstate_Podiatry_Services_Scott_Pickett_DPM	A	42.803728	-73.914643
Everything_Pets	C	42.710777	-73.816542
Khuri_Suheil_M_MD	A	42.693898	-73.771934
Allstate_Insurance	C	42.761211	-73.792396
Tri_City_Fitness	B	42.764485	-73.757907
NBT_Bank	C	42.756827	-73.776751
Childhood_Friends_Inc	A	42.766603	-73.938888
Harness_Horse_Breeders_of_New_York_State	B	42.744539	-73.752268
Skin_Deep	B	42.746763	-73.757699
Cdy_Guilderland_Westmere_Elementary	A	42.685919	-73.86114
Trustco_Bank	C	42.804616	-73.904898
Anesthesia_Group_of_Albany_PC	A	42.680039	-73.837303
Hixny	B	42.715297	-73.812967
Izumi_Spa_&_Nail	B	42.783348	-73.890994
Jk_Physical_Therapy_of_Albany	A	42.689049	-73.86343
McDonald's	B	42.804654	-73.903481
Upstate_CBD	B	42.805142	-73.904662
McDonald's	B	42.717062	-73.810155
Great_Oak_Oral_Surgery_and_Dental_Implant_Center	A	42.683587	-73.847038
Bon_Appetit_Cafe	B	42.71532	-73.812924
Pig_Pit_BBQ	B	42.760251	-73.697947
Empire_Pizza	B	42.783191	-73.910895
State_Farm	C	42.77281	-73.753295
Plaza_Fitness_Performance	B	42.684859	-73.839649
Michael_Kors	C	42.6889	-73.848691
John_Paolo's_Xtreme_Beauty_Institute_Goldwell_Product_Artistry	A	42.762117	-73.752352
Bet_Shraga_Hebrew_Academy	A	42.689016	-73.782646
Starbucks	B	42.745909	-73.809297
Liberty_Travel	B	42.710629	-73.816498
Plv_International	C	42.792746	-73.917522
Andrew_T_Frank_DMD_&_Associates	A	42.690351	-73.867597
Northway_Shopping_Center	C	42.706181	-73.82485
CVS	A	42.716425	-73.811809
Electronic_Business_Products	C	42.757648	-73.817732
Sears_Home_Services	C	42.710276	-73.816526
Goldwell_of_New_York	A	42.714656	-73.829072
Forest_Park_Elementary_School	A	42.720251	-73.823556
Francesca's	C	42.71031	-73.816073
StyledbyWill	A	42.713808	-73.827926
Via_Fresca	B	42.686523	-73.855414
Hilton_Music_Center	C	42.710955	-73.815553
Uncommon_Grounds	B	42.677343	-73.823139
Chris's_Clean_Out's_Odd_Job's	C	42.774182	-73.712058
Albany_Massage_Professionals	B	42.712526	-73.827554
Christ_The_King_Early_Childhood_Education_Center	A	42.693515	-73.887387
St_Paul_the_Apostle_Church	A	42.780381	-73.906056
Taras_Optical	A	42.772621	-73.823248
Galish_Frasier_Diana_C	A	42.829806	-73.892244
TD_Bank	C	42.815701	-73.891586
Hilltop_Park	B	42.703479	-73.64171
OneMain_Financial	A	42.783417	-73.94426
First_Niagara_Bank	C	42.72319	-73.83241
Mill_Road_Acres_Golf_Course	B	42.766845	-73.796344
Pioneer_Bank	C	42.725863	-73.793711
Allstate_Insurance	C	42.717713	-73.806687
Life_Church	A	42.741396	-73.778361
Choi's_Taekwondo	B	42.707348	-73.775786
Eastern_Wine_&_Liquor	C	42.807243	-73.912956
Herzog_Home_&_Paint_Centers	C	42.703238	-73.815601
Sokol_Harold_M_MD	A	42.688094	-73.773131
Pet_Spas_&_Suites	C	42.720736	-73.805022
Via_Roma	C	42.708827	-73.817206
Run_&_Tell_Auto_Sales	C	42.779052	-73.901856
Eddie's_Aquarium_Centre	A	42.800886	-73.73393
Charlie's_West_Indian_Bakery_&_Restaurant	B	42.794878	-73.920818
Shoss_Robert_G	A	42.684739	-73.837748
McGinnis_Women's_Medical_Care_PC	A	42.722059	-73.807513
The_Heritage_Group	C	42.768854	-73.82324
Smokey_Bones	B	42.71547	-73.829243
Edwin_F_Williams_III_MD	A	42.764727	-73.811185
Shaker_Ridge_County_Club	B	42.750172	-73.824199
Great_American_Cookies	C	42.689496	-73.850635
Izzo_Family_Auto_Center	D	42.770938	-73.697942
Blacksheep_Fit	B	42.687848	-73.794629
Alternative_Living_Group_Woodlawn_Elementary	A	42.770365	-73.90472
Colonie_Youth_Center_Inc_Veeder_School	A	42.754628	-73.864305
Salon_Cristina	B	42.783342	-73.944152
J's_Kitchen_Chinese	B	42.740939	-73.762548
Sublime_Hair_Studio_Inc	B	42.70186	-73.818343
Berdar's_Auto_Service	D	42.773184	-73.698153
Motion_Industries	C	42.716177	-73.841782
Joe_G's	B	42.758036	-73.777367
Dunkin'	B	42.695172	-73.847606
New_Yorker_Pizzeria	B	42.717711	-73.812719
First_New_York_Federal_Credit_Union	C	42.781168	-73.95535
Niskayuna_Square	C	42.782927	-73.891321
Upstate_Veterinary_Specialties	A	42.759416	-73.761914
Ryan_P_Lambert_Ameriprise_Financial_Services	A	42.773188	-73.821792
David_B_Brown_Jr_LCSW	A	42.807045	-73.909778
Tullio_Hair_Studio	B	42.722864	-73.936214
T_&_T_Body_King	D	42.754202	-73.793756
ShopRite	C	42.816724	-73.889766
Kids_Express_Learning_Center	A	42.743086	-73.701548
Niskayuna_Tire_&_Service_Center_Inc	C	42.815883	-73.892861
Taco_Bell	B	42.737446	-73.762813
Subway	B	42.773378	-73.6973
Hewitt's_Guilderland	D	42.694789	-73.877806
99_Cents_City	C	42.70769	-73.822721
Sephora	A	42.710028	-73.816992
Wendy's	B	42.689256	-73.849932
University_Wine_&_Liquor	C	42.677321	-73.823153
St_Clare's_Church	A	42.740092	-73.857478
Sabai_M	A	42.672124	-73.790594
Sefcu	C	42.690539	-73.832021
House_of_Spices_India	B	42.738711	-73.762782
McDonald's	B	42.706349	-73.775363
Leslie_Botta_DC	A	42.721451	-73.863616
Pebbles_Asian_Fusion	B	42.770622	-73.822134
Colonie_Youth_Center_Inc_Roessleville_School	A	42.705276	-73.813031
Latham_Circle_Mall	C	42.746547	-73.763173
Hoffman_Carwash_Self_Serve	D	42.728772	-73.761283
Steadfast_Beer_Co	D	42.688902	-73.863079
Mr_Subb	B	42.730104	-73.758463
CrossFit	B	42.751966	-73.870458
George's_Market	D	42.760096	-73.768513
Pizza_Hut	B	42.766297	-73.8146
Lane_Bryant	C	42.689935	-73.851218
Kar_Rvs	C	42.788949	-73.913091
Inferno_Pizzeria	B	42.707708	-73.778672
Casa_Visco	C	42.768011	-73.914821
Adtek_Enterprises	D	42.725255	-73.839873
Colonie_Star_Beverage	C	42.730735	-73.847152
Beck_Furs	C	42.684754	-73.839813
Golden_Corral	B	42.736209	-73.853206
Stephanie_Gray_Electrolysis_Studio	A	42.772191	-73.836245
Hudson_Shores_Park	B	42.730034	-73.698361
Wet_Willy's_Car_Wash	D	42.738993	-73.761605
Tepper_Clifford_MD	A	42.701155	-73.849469
Texas_de_Brazil	B	42.688989	-73.848346
Abele_Tractor_&_Equipment_Co	C	42.692204	-73.776816
Flights_of_Fantasy_Books_&_Games	C	42.710094	-73.804447
Hendrick_Arnold_MD	A	42.75811	-73.777248
Boght_Veterinary_Clinic	A	42.790335	-73.736546
Schwab_Marjorie_P_A	A	42.758332	-73.777379
Adecco	B	42.769694	-73.822304
Kundert_Deborah	A	42.688653	-73.86222
Claire's	C	42.710449	-73.81579
North_Country_Academy_Of_Airport_Park_Llc	A	42.76103	-73.815818
ABC_Sports_&_Fitness	B	42.761601	-73.750659
Kiskis_Tire	D	42.766205	-73.815975
Kitchen_and_Bath_World_Inc	C	42.742154	-73.861324
Home2_Suites	B	42.718694	-73.799706
Iroquois_Middle_School	A	42.798058	-73.863839
Liberty_Tax_Service	A	42.800627	-73.926337
Cumberland_Farms	C	42.765097	-73.939501
LaBarge's_Tire_&_Auto_Service	D	42.744687	-73.750158
Red_Lion_Hotels	B	42.723403	-73.797228
Top_Fine_Jewelry	C	42.746887	-73.758232
The_Fresh_Market	C	42.736033	-73.763791
Crossgates_Commons	C	42.695889	-73.847215
Langan_Chrysler_Jeep	C	42.764432	-73.88685
The_Stuffed_Rooster	B	42.770345	-73.823871
Beauty_Works_Supply	B	42.791929	-73.91772
Moffett_S_V_Co	B	42.798736	-73.729156
Concepts_In_Fitness_Equipt	C	42.714593	-73.828795
Empire_Financial_Advisors	A	42.753289	-73.781332
Billy_Beez	B	42.690004	-73.85025
Cohoes_Eye_Associates	A	42.774773	-73.699744
PK_at_Haven_Hair_Studio	B	42.701943	-73.814143
Chris'_Coffee_Service	C	42.702238	-73.880135
State_University_of_New_York_Insttte_Fr_Trffc_Sfty	A	42.715323	-73.812924
Pastrana_J_Richard_DDS	A	42.678284	-73.844595
Pro_Automotive	D	42.779982	-73.90277
Prime_Group_Insurance_Agency	C	42.805557	-73.90741
Dollar_&_Things	C	42.688853	-73.850139
Muddy's_40	B	42.717226	-73.71789
Army_Aviation_Support_Facility	A	42.742675	-73.796372
Auto_Center_Francis'	D	42.732142	-73.69946
Every_Thomas_DDS	A	42.788754	-73.91387
Paradise_Natural_Foods	A	42.691173	-73.868619
Kuma_Ani	B	42.716606	-73.808873
Maurice's_Central_Delicatessen	B	42.729944	-73.850022
JRL_transportation	C	42.798477	-73.945883
Dough_Life	C	42.689317	-73.848381
Habana_Premium_Cigar_Shoppe	C	42.720164	-73.835165
Hear_For_You	A	42.784827	-73.944701
Myo_Massage	B	42.737223	-73.763615
Charter_Industries	C	42.726248	-73.85295
CVS	A	42.676317	-73.823735
Sports_Zone	C	42.70883	-73.817204
Maria_Mencarelli_RE_MAX_CAPITAL	C	42.687218	-73.858571
Ensign_Autobody_and_Restoration_Services	D	42.750888	-73.760638
La_Vigne_Gregory_MD	A	42.686463	-73.841079
AT&T	C	42.710604	-73.816436
Open_Arms_Fellowship_Church	A	42.758167	-73.926926
Exxon_Mobil	C	42.741713	-73.762317
Mick's_Pizza	B	42.774322	-73.703392
Freeway_Insurance_Services	C	42.684808	-73.795924
Village_of_Colonie	B	42.70954	-73.836447
Boys_And_Girls_Club_Of_Schenectady_Steinmetz_Homes	A	42.791905	-73.922336
Carhartt	C	42.689343	-73.848387
Blue_Ribbon_Restaurant_&_Bakery	B	42.780725	-73.90387
Colony_Liquor_&_Wine_Distributors	C	42.727638	-73.854238
Nail_Palace	B	42.816481	-73.88886
Trinity_Church	A	42.724422	-73.701379
Ten_Eyck_Group	C	42.693499	-73.878172
Pure_Elements	B	42.688212	-73.86049
Life_Kids_Guilderland	A	42.666491	-73.853298
ATAX_Albany	A	42.684413	-73.794245
Allstate_Insurance	C	42.739354	-73.736122
Mane_Solution	B	42.765289	-73.811026
Wealth_Advisory_Group	C	42.772494	-73.823027
Panera_Bread	B	42.695616	-73.847325
Bova_Health_and_Wellness	A	42.762899	-73.799204
Weight_Watchers	B	42.781073	-73.955515
Metamorphose_Salon	B	42.726362	-73.84237
William_K_Sanford_Town_Library	B	42.726297	-73.79189
La-Z-Boy	C	42.75185	-73.7606
Empire_Region_Insurance_Agency	C	42.753291	-73.777351
Colonie_Youth_Center_Inc_Shaker_Road_School	A	42.709741	-73.782646
Trustco_Bank	C	42.768841	-73.819497
Executive_Cuts	B	42.737229	-73.763589
G_&_M_Auto_Tech	D	42.791205	-73.915802
Precision_Plumbing	C	42.680915	-73.8556
Different_Blend_Bakery	E	42.74853	-73.941315
Headliners_Barbershop	B	42.694774	-73.807276
Nitaya_Custom_Sewing	C	42.686674	-73.855742
Maggies_Gift_Shop	C	42.749513	-73.762446
Kennedy_M_Katherine_PHD	A	42.709605	-73.863119
MASERATI_OF_ALBANY	C	42.689126	-73.799662
United_Church_of_Cohoes	A	42.773533	-73.699843
Margarita_City	B	42.689748	-73.801697
Salt_Den	A	42.737358	-73.77271
Cumberland_Farms	C	42.782751	-73.74416
Adirondack_Orthodontics	A	42.75869	-73.776928
Calvary_Baptist_Church	A	42.696391	-73.800951
The_UPS_Store	C	42.695386	-73.879048
Fusco_Town_Park	B	42.737337	-73.910128
Grrreendog_Grooming_&_Spa	C	42.679497	-73.833581
Cork_&_Bottle	C	42.742528	-73.838418
Tower_News	C	42.682863	-73.780592
Dunkin'	B	42.773881	-73.697937
Party_City	C	42.752867	-73.762948
State_Street_Auto_Fix	D	42.800005	-73.925654
Pil_Sung_Martial_Arts	B	42.688399	-73.79907
Fox_Robert_Dr	A	42.770588	-73.823602
Jersey_Mike's	B	42.74895	-73.763545
New_York_Task_Force_2	A	42.733236	-73.86603
Guptill's_Ice_Cream	B	42.78108	-73.745112
Weck_David_Dr_DC	A	42.80725	-73.911821
Natural_Image_Electrolysis	A	42.767892	-73.817476
J_K_Kenpo_Cardio_Kickboxing_&_Tanning	B	42.751908	-73.907032
Jeffrey_R_Moran_DDS	A	42.685436	-73.838957
99_Restaurants	B	42.71621	-73.809317
Community_Care_Urgent_Care_Center_of_Niskayuna	A	42.829151	-73.888711
Jade's_Hair_Envy	B	42.700865	-73.814363
NEMER_VOLKSWAGEN	C	42.750099	-73.764919
Infinity_Athletics_Health_Cafe	B	42.742464	-73.838542
Fleur_De_Lis	B	42.757791	-73.779892
Guptill's_Roller_Skating_Arena	B	42.781414	-73.744785
Mazadar_Mediterranean_Kitchen	B	42.732033	-73.848272
Golden_Arrow_Car_Wash_&_Detailing	D	42.685648	-73.795881
Brian_Beaury_Basketball_Camp	B	42.664008	-73.785563
The_Parent_&_Teacher_Store	C	42.748961	-73.76137
Rosendale_School	A	42.799073	-73.866437
KeyBank	C	42.802937	-73.900564
White_Barn	C	42.709008	-73.816826
Weissman_Charles_H_MD	A	42.772829	-73.751859
Sunset_Park	B	42.780858	-73.709012
Walgreens	A	42.730893	-73.702068
Dropkin_Robert_H_MD	A	42.686504	-73.84117
Hair_Beautique_Hair_Studio	B	42.732047	-73.709954
Cohoes_Public_Library	B	42.771998	-73.699422
Mckownville_Park	B	42.676892	-73.842257
Oscar's	B	42.72267	-73.839094
MAC_Cosmetics	A	42.707617	-73.821314
Foot_Locker	C	42.688521	-73.847996
Grandma's_Pies_&_Restaurant	B	42.698927	-73.810796
Smashburger	B	42.714689	-73.812066
Ethan_Allen	C	42.708774	-73.820923
Ballston_Spa_National_Bank_(BSNB)	C	42.772599	-73.823169
Flowers_By_Jo_Ann	C	42.805197	-73.904901
Mohawk_Commons	C	42.77346	-73.89111
Walmart	C	42.694879	-73.846999
Scubber's	B	42.723428	-73.801287
Xtramart	C	42.773842	-73.824919
West_Elm	C	42.683748	-73.839613
Stewart's_Shops	C	42.730449	-73.700882
Top_Custom_Jewelers	C	42.737928	-73.724337
Lishakill_Reformed_Church	A	42.75615	-73.875977
Goodwill_Industries	C	42.703321	-73.817395
Angiodynamics	A	42.768478	-73.760042
NAPA_Auto_Parts	C	42.733841	-73.791258
Say_it_With_Shirts	C	42.789763	-73.945082
Rite_Aid	A	42.705883	-73.775897
Royalty_Cleaning	D	42.825346	-73.911176
Sandra_L_Riccio_CFP	A	42.686463	-73.842109
Hari's_Service_Center	D	42.791323	-73.871617
Christ_Church_of_Watervliet	A	42.726102	-73.701308
Brassard_Christopher_A_Insurance	C	42.693496	-73.878207
Less_EMF	B	42.738582	-73.794159
John_Valentis_Ph_D	A	42.67827	-73.83649
Albany_Aikido	B	42.737999	-73.724538
Renzo_Gracie_Academy	B	42.750911	-73.76095
Medical_Liability_Mutual_Insurance	C	42.75919	-73.822773
Ellis_Residential_&_Rehabilitation_Center	A	42.804497	-73.915962
Embellish_Hair_Studio	B	42.744463	-73.837229
China_King_Kitchen	B	42.773263	-73.89191
Ralph's_Tavern	B	42.701529	-73.815068
Douglas_A_Neil_Nationwide_Insurance	C	42.762232	-73.797669
Build_A_Burger_Pub	B	42.745022	-73.864692
Jiffy_Lube	D	42.726932	-73.842885
Paesan's_Pizza_&_Restaurant	B	42.661123	-73.781972
Westlawn_Lanes	B	42.695471	-73.880056
Joe's_Tavern	B	42.780932	-73.71027
Islander_Pools_&_Spas_Inc	C	42.742093	-73.859528
Dollar_Tree	C	42.729266	-73.700544
Habana_Premium_Cigar_Shoppe	C	42.71064	-73.84325
Chudgar_Siren_MD	A	42.796793	-73.892807
Jacob_&_Anthony's_Italian	B	42.682064	-73.839131
Sportsman's_Bowl	B	42.789109	-73.945672
Green_Papas_Premium_Cbd	A	42.689317	-73.848388
Hair_Club	B	42.7407	-73.842907
Kelly_Services	B	42.716894	-73.807674
Carman_Service_Center	C	42.784861	-73.930731
LaBarges_Tire_&_Auto	D	42.690083	-73.80097
Moe's_Southwest_Grill	B	42.748725	-73.763476
US_Nails	B	42.691078	-73.868147
S_M_Miller_&_Associates_Ameriprise_Financial_Services	A	42.688093	-73.773179
Dog's_Retreat	C	42.761233	-73.793063
Complete_Nails	B	42.789082	-73.936892
Crave_Burgers_Frozen_Yogurt	B	42.662149	-73.777447
Elite_Nutrition	B	42.737849	-73.724118
Dennis_Holzman_Antiques	C	42.774081	-73.700903
LY_Nails	B	42.689851	-73.85183
Fantastic_Sams	B	42.78332	-73.944107
Grill_&_Wraps	C	42.710219	-73.816184
Moore's_Wholesale_Tire_Sales	C	42.693627	-73.818715
Accent_Furniture	C	42.70249	-73.830653
Audiology_Center_at_Community_Care_Physicians	A	42.758081	-73.777357
Green_Bottle_Redemption_Center	E	42.781837	-73.952448
Adams_Auto_Sale_Inc	C	42.789632	-73.942312
MacAran_Printed_Products	C	42.777734	-73.699283
Supercuts	B	42.714147	-73.812455
Zombie_Planet	C	42.69647	-73.809221
Redeemer_Church	A	42.673253	-73.849274
Valvoline	D	42.743039	-73.761494
205_on_Wolf	B	42.723563	-73.797446
Patio_Enclosures	C	42.726057	-73.856099
Prime_Eyebrows_Threading	A	42.676491	-73.824095
Pet_Supplies_Plus	C	42.677479	-73.823579
Christopher_Myers_RE_MAX	C	42.68724	-73.858569
LUKOIL_North_America	C	42.72884	-73.701408
Sunoco	C	42.770259	-73.893174
Sherwin-Williams	C	42.738821	-73.731317
Childtime_Learning_Centers	A	42.73334	-73.845972
Bellevue_Woman's_Hospital	B	42.792456	-73.878958
Christine_Yang_Finnin_MD	A	42.758322	-73.777471
Capital_District_Truck_Center	C	42.767875	-73.890524
Bauer_Environmental_Park	B	42.724221	-73.817737
J.D._Byrider	C	42.748587	-73.867002
The_Lazy_Axe	D	42.733619	-73.850361
Albany_Associates_In_Cardiology	A	42.690274	-73.776588
Monro	D	42.683229	-73.794315
JC's_Central_Deli	B	42.729935	-73.850042
BCBG	C	42.689645	-73.850703
Dunkin'	B	42.803954	-73.903158
Little_Caesars	B	42.684462	-73.794153
Ted's_Fish_Fry	B	42.733163	-73.762847
LOFT	C	42.683336	-73.838423
AT&T	C	42.684118	-73.840742
Phil's_Body_Shop	D	42.802344	-73.955848
Bruegger's	B	42.804176	-73.903819
Capital_Pilates	B	42.686424	-73.782438
Quik_Stop_Convenience_Store	C	42.793735	-73.918533
Block_Advisors	A	42.718161	-73.805041
Fan_Zone	C	42.690367	-73.851553
Gooding_Skin_Systems	B	42.733875	-73.793496
Days_Inn_by_Wyndham_Albany_Airport	B	42.754203	-73.816273
Nut_Zez_Gourmet_Almond_Butter	C	42.775634	-73.701662
A_A_U_Taekwondo_National_Headquarters	B	42.788125	-73.867424
Dunkin'	B	42.705393	-73.775306
Perlman's_Towing_&_Recovery	C	42.689222	-73.80108
Design_Nail_Salon	B	42.782555	-73.955168
CoreLife_Eatery	B	42.753278	-73.765266
Shaker_Junior_High_School	A	42.735977	-73.75161
Dalland_Edward_S_Jr_DVM	A	42.761027	-73.791737
Music_&_Arts	C	42.753145	-73.76472
Dick's_Sporting_Goods	C	42.689933	-73.853493
Touched_By_Love_Hair_Studio	B	42.781389	-73.905894
St_Peter_Armenian_Apostolic_Church	A	42.73354	-73.717955
Capital_District_Protective_Coatings_LLC	C	42.737188	-73.855921
KFC	B	42.696904	-73.808498
Latham_Family_Vision	A	42.744533	-73.752256
Sunglass_Hut_International	C	42.689617	-73.851435
Corner_Ice_Cream_Store	B	42.723428	-73.936216
Athos_Restaurant	B	42.690079	-73.867062
LensCrafters	A	42.710684	-73.815038
MezzaNotte_Ristorante	B	42.696813	-73.886328
Schcnectady_Mobile_Drug_Testing	A	42.69521	-73.878752
TL_Bodywork_Massage	B	42.731269	-73.7765
Cocolo_Spa	B	42.706411	-73.774697
Ka_Of_Albany	A	42.702815	-73.860836
Urgent_Care_Center_of_Latham	A	42.758081	-73.777352
Living_Hope_Community_Church	A	42.757374	-73.797434
Allied_Building_Products	C	42.691849	-73.812743
Capital_District_Marine_Sales	C	42.773496	-73.684714
Alternative_approach_massage_therapy	B	42.756958	-73.77517
Bentrovato_Donald_A_MD	A	42.827174	-73.906712
Christopher_&_Banks	C	42.711083	-73.81613
Valero_Energy	C	42.700372	-73.821246
Speedway	C	42.739602	-73.761697
Old_Brick_Furniture_Company	C	42.704013	-73.827486
America's_Best_Contacts_&_Eyeglasses	A	42.71461	-73.828919
Torrid	C	42.710289	-73.81673
Albany_Amusement	E	42.724187	-73.700918
Mario's_Barbershop	B	42.816367	-73.892836
Whalen_Automotive	D	42.720752	-73.712921
Kingsway_Arms_Nursing_Center	B	42.776133	-73.913203
Mulvaney_Michael_J_MD	A	42.684642	-73.837607
Lord_and_Taylor	C	42.689352	-73.848386
Pioneer_Bank	C	42.774269	-73.700378
Side_Door_Cafe	B	42.686142	-73.854247
FUCCILLO_NISSAN_OF_LATHAM	C	42.769727	-73.755467
TownePlace_Suites_by_Marriott	B	42.75672	-73.773119
Edward_Jones	A	42.695218	-73.878831
OneMain_Financial	A	42.743644	-73.749293
Walmart	C	42.74639	-73.764233
Bob's_Car_Cleaning	D	42.778726	-73.902649
Goldfish_Swim_School	A	42.717905	-73.803156
Sanitary_Barber_Shop	B	42.726535	-73.705734
Oliva_Gourmet_Olive_Oils_&_Vinegars	C	42.684929	-73.840779
Price_Chopper_New_England	C	42.732359	-73.70479
Sanders_Nancy_F_N_P	A	42.758108	-73.777196
Latham_Vapor_Outlet	C	42.738396	-73.762449
Latham_Ridge_School	A	42.753563	-73.741514
Ta_Da_Gifts	C	42.683953	-73.840796
PetSmart	C	42.755211	-73.765915
Mohamed_Zoser_Z_Psychiatrist	A	42.806594	-73.910139
Visionworks	A	42.750717	-73.765892
Subway	B	42.728318	-73.759672
CVS	A	42.810961	-73.892142
Ali_Baba's_Indian_Spices	C	42.702449	-73.817367
American_Trade_and_Goods	C	42.795482	-73.73371
Fleet_Feet_Sports	C	42.720823	-73.802093
Nail_Works	B	42.735233	-73.762582
Complexions_Spa_For_Beauty_&_Wellness	B	42.725694	-73.796489
Dairy_Queen	B	42.690165	-73.852257
In_Harmony_Yoga	B	42.773124	-73.700899
Zumiez	C	42.689242	-73.849212
Herzog_Home_&_Paint_Centers	C	42.757336	-73.758604
Lash_and_Skin_Studio	A	42.701965	-73.814253
What's_Poppin	C	42.729655	-73.849017
P.F._Chang's_China_Bistro	B	42.710688	-73.816882
Ferri_Formals_and_Bridals	C	42.804796	-73.905561
United_Granite_Marble	C	42.688519	-73.797959
American_Freight	C	42.698266	-73.823621
McDonald's	B	42.783061	-73.950058
TGI_Fridays	B	42.683066	-73.840119
Living_Resources	A	42.708908	-73.866596
Boys_&_Girls_Clubs_of_America	B	42.673601	-73.816243
Nice_Nails	B	42.778516	-73.932808
Talbots	C	42.719658	-73.802122
Twist'N_Flip_Gymnastics	B	42.713853	-73.846167
Aerus_Electrolux_Vacuums	C	42.728212	-73.846487
The_Men's_Wearhouse	C	42.710713	-73.82039
Flaim_Thomas_N_MD	A	42.804891	-73.916076
David's_Bridal	C	42.705214	-73.822686
Francesca's_Specialty_Bakery	E	42.771532	-73.700999
Jessica_Berman_MD_Family_Practice_Niskayuna	A	42.796786	-73.892805
St_Pius_X_School	A	42.696503	-73.761308
DeMarco's_Restaurant	B	42.741208	-73.859268
Verizon_Wireless_Authorized_Retailer	C	42.704651	-73.830213
Baler_Joseph_S_MD	A	42.689349	-73.774706
Bruegger's	B	42.72767	-73.845812
Latham_Circle_Nails	B	42.756077	-73.758737
Brown_School	A	42.783417	-73.90096
Albany_Total_Wellness	B	42.696369	-73.770096
Rusty's	B	42.733097	-73.701262
Goldstein_Auto_Group	D	42.722648	-73.836833
Capital_Care_Family_Practice_Ravena	A	42.72686	-73.938141
Mcmahon_Family_&_Dentistry	A	42.671639	-73.809052
Rudy_A_Ciccotti_Family_Recreation_Center	B	42.714523	-73.800134
Empire_Christian_Center	B	42.701742	-73.850198
New_York_State_Credit_Union_League	C	42.743717	-73.836733
Street_Corner_News	C	42.689504	-73.850764
Spotted_Zebra	A	42.692494	-73.774211
Bella_Nail_And_Spa	A	42.782581	-73.941808
Vortex_Video_Games	C	42.73796	-73.724416
Keith_Aibel_DMD_Aibel_Endodontics	A	42.685431	-73.838965
Cocca's_Inn_&_Suites_Wolf_Road	B	42.709349	-73.8225
Walgreens	A	42.705879	-73.775896
Pulmonary_&_Critical_Care_Services_PC	A	42.688069	-73.773163
Pleasant_Valley_School	A	42.799268	-73.941179
Town_Park	B	42.663902	-73.626961
Trustco_Bank	C	42.780335	-73.954804
WV_Pizza	B	42.735646	-73.702103
Kidz_Gym	A	42.701363	-73.813374
Eyedentity_Eyewear	A	42.701541	-73.813474
Charter_Industries	C	42.726209	-73.852926
Denny's	B	42.717935	-73.808466
Taco_Bell	B	42.714117	-73.814718
Sun_Capsule_Tanning_Center	B	42.783408	-73.948963
Capital_District_Colon_&_Rectal_Surgery_Assocs_PC	A	42.688081	-73.773164
Veeder_Elementary_School	A	42.754646	-73.864298
Niskayuna_Life_Chiropractic	A	42.829839	-73.892256
Boys_&_Girls_Clubs_of_America	B	42.797411	-73.939644
Liberty_Tax_Service	A	42.788877	-73.938475
CBRE_Albany	C	42.7032	-73.856602
Gail_King_Electrolysis	A	42.815911	-73.893925
Auto_Shop	D	42.722259	-73.701341
The_Home_Depot	C	42.753142	-73.764723
Macy's	C	42.691241	-73.853937
Starbucks	B	42.683268	-73.840308
Micheal_John_Hairstyling_Barber_Lounge	B	42.689898	-73.864523
Cathy_Winter_Music	C	42.803073	-73.909578
NGR_New_Used_Tires_&_Auto_Repair	C	42.795801	-73.922107
St_Peter's_Bender_Lanoratory	A	42.702887	-73.825686
The_Ideal_U	B	42.681748	-73.83837
Family_Dollar_Stores	C	42.737046	-73.701255
Kristel_Mechanical	A	42.774535	-73.952986
Tengu_Asian_Bistro	B	42.703203	-73.815477
Emily_K_Modan	C	42.791705	-73.872172
Namia_Salon_&_Spa	B	42.701288	-73.820262
KeyBank	C	42.764231	-73.938709
Midas	D	42.786517	-73.910238
Tuesday_Morning	C	42.696742	-73.847282
Sand_Creek_Middle_School	A	42.706657	-73.79945
Gary_Harlan	C	42.781046	-73.905234
Mohawk_Golf_Club	B	42.804394	-73.887006
Tradeway_Auto_Sales	C	42.787052	-73.934309
Five_Guys	B	42.728408	-73.76076
Via_Consulting	A	42.712738	-73.828042
Adirondack_Orthodontics	A	42.681559	-73.838076
Youngelman_Debbie_MD	A	42.758707	-73.776935
Ronco_Communications	C	42.73485	-73.793077
U_Haul_Moving_&_Storage_of_Schenectady	C	42.777933	-73.933924
Mr_Subb	B	42.764657	-73.74665
All_Star_Wine_&_Spirits	C	42.753816	-73.761506
Albany_Certified_Electrolysis	B	42.680009	-73.832132
Proforma_Lee's	E	42.789738	-73.945076
Adp	A	42.70899	-73.86324
The_Century_House	B	42.771058	-73.753019
Peek_A_Boo_Preschool	A	42.706417	-73.774688
Bruegger's	B	42.683608	-73.838649
Kathleen's_Therapeutic_Massage_And_Day_Spa	B	42.772445	-73.936199
Jenna's_Salon	B	42.731293	-73.706403
HD_Supply	C	42.69673	-73.821481
Eastern_Mountain_Sports	C	42.68494	-73.840214
Motel_6	B	42.759779	-73.929864
Sommers_&_Magilton_Inc_Tax_Services	A	42.69522	-73.878827
Capital_Orthotic_Prosthetic_Associates	A	42.702548	-73.880986
Beef_Jerky_Outlet	C	42.73404	-73.762788
Anixter	C	42.710046	-73.86541
Twin_Bridges_Insurance_Agency	C	42.693456	-73.873822
CNY_Healing_Arts	B	42.75984	-73.75973
Towne_Bowling_Academy	B	42.783306	-73.949332
Junk_King_Capital_District	E	42.714854	-73.83956
