occupation	latitude	longitude	zipcode
Crispy_Basil_Artisan_Pizza_Latham	B	42.736907	-73.761583
Hair_by_Kaylena	B	42.737205	-73.763594
Bob_&_Ron's_Fish_Fry	B	42.685038	-73.795296
Athleta	C	42.688427	-73.847912
DiNapoli_Opticians	A	42.684378	-73.841074
Biggs_Bradley_PHD	A	42.665407	-73.789131
Ferris_Coin_&_Jewelry_Co	C	42.723324	-73.799437
Homewood_Suites_by_Hilton	B	42.687259	-73.852967
Sondra's_Fine_Jewelry	C	42.80444	-73.904591
MGX_Fitness	B	42.691164	-73.868036
Lanie's_Cafe	B	42.707591	-73.777188
Kent_Molino_DDS	A	42.80243	-73.898655
Spare_Time_Latham	B	42.745287	-73.750839
St_Clare's_Church	A	42.740092	-73.857478
Sabai_M	A	42.672124	-73.790594
Quest_Diagnostics	A	42.684695	-73.83772
Petco	C	42.736471	-73.764436
Miami_Sun_Tanning	B	42.678405	-73.828255
Cusato's_Pizzeria	B	42.735665	-73.702096
Exxon_Mobil	C	42.689647	-73.80064
Beauty_At_Your_Service	B	42.71867	-73.808161
Orkin	D	42.737241	-73.793861
Farrell_Peter_A_Investment_Management_Svces	A	42.683469	-73.764843
Hometowne_Pizzeria	B	42.772709	-73.701099
CareNet_Medical_Group	A	42.828674	-73.889675
Prima_Pizzeria	E	42.7697	-73.892676
West_Albany_Fire_Department_Station_1_Sand_Creek_Road	A	42.692061	-73.784862
Cusato's_Pizzeria	B	42.782535	-73.949551
The_Edge_Skate_Sharpening_&_Profiling	C	42.712663	-73.828122
Lipstik_Beauty_Lounge	B	42.702092	-73.817889
Apropos_Prom_&_Bridal	C	42.690734	-73.866573
Enterprise_Rent-A-Car	C	42.792357	-73.916933
Reds_Field	B	42.71635	-73.705341
NexGen_Indoor_Golf_Center	B	42.770849	-73.82427
Play_It_Again_Sports	C	42.762281	-73.797747
Jean_Paul_Salon	B	42.727786	-73.761141
51Vape_Schenectady	C	42.760703	-73.882386
Stephen_J_Conway_DDS	A	42.751387	-73.759384
Mobil	C	42.70382	-73.816496
Avila	B	42.700237	-73.857487
Maestro_Barbershop	B	42.762334	-73.797559
Northeast_Psychological_Associates	A	42.7389	-73.841064
Quality_Inn	B	42.719299	-73.837097
Albany_Hypnosis_Center	B	42.744112	-73.837686
Gepettos_Pizzeria_and_Catering	B	42.772436	-73.701242
Mavis_Discount_Tire	D	42.734151	-73.852524
Ada's_Spirit_Works	C	42.755018	-73.874842
Heritage_Baptist_Church_Of_Latham	A	42.76649	-73.703212
Northeast_IS	C	42.73861	-73.820815
ULTA_Beauty	A	42.771836	-73.892613
Mario's_Restaurant_&_Pizzeria	B	42.803256	-73.861905
tru_by_Hilton	B	42.746027	-73.82355
Armory_Chrysler_Dodge_Jeep_Ram_FIAT_of_Albany_Service	C	42.680954	-73.793337
Wendy's	B	42.769312	-73.820049
Chang's_Garden	B	42.66204	-73.776743
Repsher_&_Associates_Physical_Therapy	A	42.693894	-73.771915
TD_Bank	C	42.697532	-73.810721
Caliber_Collision	D	42.718875	-73.83293
Eden_Cafe	B	42.70754	-73.774811
McCambley_John_DMD	A	42.788715	-73.913851
Shear_Perfection	B	42.734267	-73.851381
Fitness_Artist	B	42.734874	-73.762753
Albany_Health_Management_Assoc	A	42.725978	-73.761304
Vallecorsa_J_David_DDS	A	42.750844	-73.763383
Mohonasen_Senior_High_School	A	42.76885	-73.956816
Visionworks	A	42.685187	-73.795489
Peter_Harris_Clothes	C	42.762102	-73.796829
Metro_Mattress	C	42.712662	-73.815294
LongHorn_Steakhouse	B	42.719405	-73.806247
Hair_Loss_Control_Clinic	B	42.770406	-73.756088
United_Buffet	B	42.783982	-73.916942
UniFirst_Uniforms_Albany	C	42.739298	-73.724774
Monocrete_Steps	C	42.721627	-73.720758
Hibachi_Express	B	42.792497	-73.917102
Stewart's_Shops	C	42.686926	-73.854341
Raymond_James_Financial	A	42.682974	-73.846982
No_1_Chinese_Restaurant	B	42.800112	-73.926733
Allstate_Insurance	C	42.761211	-73.792396
Adirondack_Advantage_Driving_School	A	42.691889	-73.777233
Tri_City_Fitness	B	42.76451	-73.757898
NBT_Bank	C	42.756827	-73.776751
Childhood_Friends_Inc	A	42.766599	-73.938889
Make_Your_Mark_Tattoo_Studio	B	42.700881	-73.814276
NicholasJade_Salon	B	42.740252	-73.858205
Sanjiv_Kayastha_MD_K_Plastic_Surgery	A	42.75783	-73.776787
V_Salon	B	42.676001	-73.822424
Cool_Insuring_Agency	C	42.758096	-73.78325
Pro_Martial_Arts_Colonie	A	42.729847	-73.850313
Red_Lobster	B	42.722448	-73.802483
Langes_Pharmacy	A	42.815992	-73.894213
Allstate_Insurance	C	42.7317	-73.761479
Hershey_John_M_Psyd	A	42.73892	-73.841073
PCI_Tire_&_Service	C	42.773654	-73.929989
CoreLife_Eatery	B	42.678261	-73.827874
Latham_Bible_Baptist_Church	A	42.735805	-73.753137
Ed's_Glass	D	42.787754	-73.941489
Book_House_of_Stuyvesant_Plaza	C	42.684463	-73.839396
Kinkaid_Family_Chiropractic	A	42.693128	-73.873291
State_Street_Grocery	C	42.790549	-73.915089
Lyles_Hoagies	B	42.784453	-73.907945
Inferno_Pizzeria	B	42.738202	-73.7279
House_of_Pops_Barbershop	B	42.796047	-73.922222
Family_Auto_Repair	C	42.789722	-73.941994
Albany_Advanced_Dental_Care	A	42.716155	-73.785706
LINE-X	E	42.744687	-73.863208
Mitola_Family_Dentistry	A	42.775226	-73.701649
21_Below_Thai_Rolling_Ice_Cream	B	42.770835	-73.824323
Mobil	C	42.784556	-73.913105
Mings	B	42.776982	-73.900595
Peckage_Bruce_Dpm	A	42.669732	-73.787496
LIDS	C	42.689339	-73.849492
Sub_Stop	B	42.77007	-73.705324
Andrew_Dentist_Albany_NY	A	42.68367	-73.771134
YMCA	B	42.791681	-73.9401
Funny_Bone_Comedy_Club_&_Restaurant	B	42.689249	-73.851072
Spa_Mirbeau	B	42.689229	-73.849808
Cardinal_Health	A	42.717759	-73.833522
Gerstenbluth_Robert	A	42.827198	-73.906682
Kaiser_Body_Shop	D	42.756369	-73.808831
Price_Chopper_New_England	C	42.733356	-73.855919
Cevera_John	A	42.686398	-73.840996
Surroundings_Floral_Studio	C	42.743907	-73.837731
Capital_Business_Advisors_Inc	A	42.712724	-73.828014
Bowled	B	42.784145	-73.918373
Redwood_Lanes	B	42.71481	-73.828575
Beauty_Plus_Salon	B	42.687855	-73.84729
C_Callahan_Agency	C	42.781773	-73.954023
Cumberland_Farms	C	42.768893	-73.914849
Bake_For_You	E	42.658828	-73.768846
WeHair_Beauty_Bar	B	42.799961	-73.948101
Mild_Wally's	B	42.662293	-73.777075
All_4_Fun	A	42.763612	-73.808596
Pro_tech_automatic_lawn_sprinklers	C	42.685541	-73.783449
Camp_Bow_Wow	B	42.704323	-73.828302
Advantage_Sport_&_Fitness	C	42.757299	-73.758587
Claire's	C	42.710449	-73.816166
Super_Mart	C	42.715549	-73.831005
Miles_and_Styles_Barbershop	B	42.791709	-73.934736
Eddie's_Aquarium_Centre	B	42.8009	-73.733903
Advanced_RV_Repair	C	42.756153	-73.808036
Charlie's_West_Indian_Bakery_&_Restaurant	B	42.794878	-73.920818
Shoss_Robert_G	A	42.684739	-73.837748
Image_Guided_Radiation_Therapy	A	42.758726	-73.776904
Goldilocks_Promos	E	42.751602	-73.776767
JCPenney_Optical	A	42.689208	-73.849774
FUCCILLO_LINCOLN_INC	C	42.765422	-73.886644
Venetian_Nails_Spa	B	42.735945	-73.764313
Bridal_Gallery_By_Yvonne	C	42.756414	-73.757684
Fiqh_Mosque_Inc	A	42.733492	-73.70831
Dollar_Tree	C	42.771116	-73.893966
Automedics	D	42.688207	-73.800795
CoreLife_Eatery	B	42.753143	-73.766986
Mobil	C	42.753566	-73.771388
Armory_Jeep_Wrangler	C	42.681037	-73.793864
Great_Wall	B	42.784103	-73.918558
Radiance_Hot_Yoga	B	42.727567	-73.759808
Hair_by_Cortney	B	42.714084	-73.828315
Bella_Hair_Salon	B	42.706801	-73.777757
Edge_City_Barber_Shop	B	42.800023	-73.925656
Lab_Corp	A	42.689355	-73.774668
Kiernan's_Craft_Tavern	B	42.757196	-73.761489
A_Magic_Kingdom	A	42.786783	-73.902004
The_Holistic_Network	A	42.666101	-73.789474
Sunoco	C	42.735114	-73.701118
Golden_Wok_Restaurant	B	42.757187	-73.761211
Glennpeter_Jewelers	C	42.710072	-73.816776
Art_Threading_Salon	B	42.712727	-73.827999
Dejavu	C	42.71723	-73.831995
Vachon_Francois_DO	A	42.725673	-73.936264
Colonie_Youth_Center_Inc_Loudonville_School	A	42.706019	-73.756538
Nexgen_Wireless	C	42.708799	-73.817214
Big_Lots_Stores	C	42.732874	-73.855398
Kennedy_Ophthalmology_Associates	A	42.830041	-73.9034
AT&T	C	42.689602	-73.850417
Pombo_Insurance_Services	C	42.720042	-73.807733
Latham_Center	C	42.757238	-73.769073
Studio_Orlo	B	42.814921	-73.893048
25_Silver_Boutique	C	42.684509	-73.839147
Casa_De_Richani	A	42.80364	-73.864601
Allan_L_Nahman_DDS	A	42.674397	-73.815341
Relish_Experience	B	42.718481	-73.807644
King_Cork_Wine_&_Liquor	C	42.784241	-73.917989
Schenectady_Center_For_Rehabilitation_And_Nursing	B	42.791178	-73.932414
Eagle_Point_Elementary_School	A	42.673639	-73.816217
Joseph_Krongold_Sunrise_Realty_Advisors	C	42.705121	-73.857411
Appletinis_Cafe	B	42.689743	-73.801689
Adirondack_Tire_&_Service	C	42.748948	-73.890079
Larry's_Foreign_Auto_Service	D	42.683114	-73.781913
Kellie_Kieley_Realty	C	42.682779	-73.841932
Burlington	C	42.747986	-73.763642
New_Panda	B	42.799301	-73.947722
Maurice's_Sandwich_Shop	B	42.718478	-73.805611
Allstate_Insurance	C	42.693583	-73.774509
Blockbuster_Video	C	42.756043	-73.758629
Homedical_Associates	A	42.803457	-73.9002
Higher_Hope_Church_Of_God_In_Christ	A	42.773246	-73.898274
Union_Street_Office	C	42.803572	-73.900153
Home_Outlet	C	42.699163	-73.824371
Aéropostale	C	42.689246	-73.850035
Smokers_Choice	C	42.737133	-73.761757
WellNow_Urgent_Care_Latham	A	42.748087	-73.761842
Blood_Banks_Association_Of_New_York_State	A	42.727911	-73.93376
Spaulding_Computers	D	42.691352	-73.802568
CVS	A	42.756281	-73.7704
Spencer_Gifts	C	42.689208	-73.849817
Anesthesia_Group_of_Albany_PC	A	42.680039	-73.837303
Tipsy_Moose_Tap_&_Tavern	B	42.746258	-73.759119
The_Coffee_Beanery	B	42.710425	-73.816315
Leslie_Botta_DC	A	42.721451	-73.863616
Choice_One_Chiropractic	A	42.753078	-73.777475
Hemberger_Michael_Photographer	A	42.829617	-73.895017
Supercuts	B	42.735926	-73.764444
Latham_Table_Pad_Company	C	42.770285	-73.788898
Albany_Ninja_Lab	B	42.696499	-73.847376
Falc_Cathrine_Chirprctr	A	42.829803	-73.892262
St_Peter_&_St_Paul_Ukranian_Catholic_Church	A	42.773696	-73.695049
Kids_&_Family_Dental	A	42.713562	-73.813521
Sunbelt_Rentals	C	42.731083	-73.795521
Wheelers_Accessible_Vans	B	42.701695	-73.824608
Regal_Entertainment_Group	A	42.710979	-73.816671
Pustolkas_Tavern	B	42.789127	-73.929361
Smokers_Choice	C	42.701031	-73.819365
SICAP_Industries	A	42.71372	-73.844773
CoreLife_Eatery	B	42.71655	-73.808955
Shaker_Ridge_Country_Club	B	42.751233	-73.825663
Primal	C	42.684004	-73.838625
Rotterdam_Family_Chiropratic	A	42.782561	-73.953109
3_Stone_Dentistry_&_Implants	A	42.754403	-73.773063
Allstate_Insurance	C	42.721763	-73.837152
International_Guitar_Museum_And_Hall_Of_Fame	B	42.727513	-73.75983
Deangelo's_Ristorante	B	42.791128	-73.939341
Red_Kap	C	42.705695	-73.777011
Yuan_Sushi	B	42.771945	-73.700559
Sherwin-Williams	C	42.714618	-73.845058
Land_Rover_Albany	C	42.729478	-73.853502
Eddy_Village_Green	B	42.775733	-73.725679
Sherry's_Kitchen	C	42.695935	-73.808598
Fifi's_Frocks_&_Frills	C	42.690917	-73.867758
Subway	B	42.746667	-73.763696
St_Lukes_Catholic_Church_Outreach	A	42.799013	-73.924035
Ram_Orthotic_&_Prosthetic_Lab	A	42.826251	-73.90811
Fort_Hunter	B	42.750528	-73.946843
Albany_Complementary_Health	B	42.697405	-73.885536
Gel_Nail_Salon	B	42.803167	-73.900069
Stewart's_Shops	C	42.781268	-73.904259
Kingsway_Community	B	42.776045	-73.913115
Ghi_Family_Dental_Practice	A	42.693121	-73.873266
CrossFit	B	42.713918	-73.810193
Best_Fire_Hearth_&_Patio	C	42.726856	-73.844001
Rent-A-Center	C	42.782468	-73.941938
IRwise_Imaging	A	42.693066	-73.873337
ABC_Supply	C	42.725537	-73.850401
Holmes_Michael_B	A	42.830734	-73.891029
Pershing_Green_Memorial_Park	B	42.710344	-73.707852
Annette_Bridals	C	42.713402	-73.828657
Northeastern_Insurance_Agency	C	42.771478	-73.823349
TD_Bank	C	42.815731	-73.891577
Burger_King	B	42.735546	-73.76186
NY_Nails_&_Spa	B	42.78907	-73.936915
Valentis_John_PH_D	A	42.678241	-73.836453
Beltzer_DiMura_Agency	C	42.747	-73.758346
Loudonville_Community_Church	A	42.695829	-73.75492
Zoar_Financial	A	42.720146	-73.808808
Trustco_Bank	C	42.720051	-73.80114
Kaiser_Opthalmics_Co	A	42.669233	-73.847017
Albany_Wheel_Services	D	42.680387	-73.879271
B_Brows	B	42.737206	-73.763574
Aspire_Nail_Studio	B	42.701846	-73.81415
Premium_Mortgage	C	42.720832	-73.80909
Safe_Inc_of_Schenectady	B	42.795236	-73.923196
La_Mexicana_Grocery	B	42.781692	-73.905095
Grace_Nail_&_Spa	B	42.733145	-73.854619
Shaw_Environmental_&_Infrastructure	A	42.761061	-73.818492
Pine_Bush_Elementary_School	A	42.745987	-73.940758
George's_Market_and_Nursery	C	42.760118	-73.768497
D_P_Dough	B	42.661588	-73.777322
Guilderland_Mobil_Mart	C	42.714688	-73.931786
Caskade_Kitchen_&_Bar	B	42.771704	-73.700969
First_United_Methodist_Church	A	42.7735	-73.700765
LL_Flooring	C	42.706435	-73.826421
Adirondack_Oral_Maxillofacial_Surgery	A	42.688118	-73.773156
Paige_School	A	42.78588	-73.903197
Advance_Auto_Parts	C	42.784051	-73.945942
New_York_Optical	A	42.720661	-73.801921
Meineke_Car_Care_Centers	D	42.685476	-73.795712
St_Peter's_Hospital	A	42.721322	-73.801443
Northeast_Orthopaedics	A	42.693886	-73.771925
Gap	C	42.771623	-73.892733
The_Cheesecake_Factory	B	42.710402	-73.817294
Ferrari's_Ristorante	B	42.793342	-73.950533
Hannaford_Food_And_Drug	A	42.755777	-73.76062
Combo_Fish_Fry	C	42.799794	-73.94804
Nail_Perfect	B	42.792512	-73.917118
DHL	C	42.803489	-73.900172
Albany_Aikido	A	42.737981	-73.724469
Vineyard_Wines_&_Spirits	C	42.777288	-73.934013
Keller_Williams	C	42.76358	-73.75429
BurgerFi	B	42.75355	-73.759975
Afrim's_Sports	A	42.724684	-73.793498
Case_Moving_&amp_Junk_Removal	E	42.79407	-73.918943
Kings_Cross_Knickers	C	42.757919	-73.819229
Tuxego	C	42.76222	-73.797467
Uptown_Wine_and_Spirits	C	42.730988	-73.705403
Latham_Optical_of_Stasior_&_Stasior	A	42.755317	-73.776643
Cisco_Systems	A	42.68082	-73.763662
Stewart's_Shop	C	42.740405	-73.736666
Judy_D'Angelo_Natural_Progressions_Wellness_Center	A	42.71582	-73.831401
Silver_Parrot	C	42.683708	-73.840637
Parsons_Child_And_Family_Center_Inc	A	42.795432	-73.925275
Turning_Pointe_Dance_Center	B	42.736223	-73.796204
Hammersmith_Home_Brew_Supplies	C	42.755741	-73.758011
Pep_Boys	C	42.683453	-73.795704
Off_Broadway_Shoe_Warehouse	C	42.689895	-73.852254
Texture_Hair_Studio	B	42.714037	-73.82834
State_Farm	C	42.754359	-73.777574
Western_Dental_Care_Pc	A	42.697388	-73.885541
CVS	A	42.772325	-73.728146
Stier_Peter	A	42.803595	-73.914745
Schoolhouse_Auto	D	42.668454	-73.847577
Vascular_Health_Partners_Latham	A	42.758698	-73.776906
Full_Circle_Fitness_NY	B	42.721519	-73.863519
Jimmy_Jazz	C	42.688504	-73.849277
Ruggiero's_Pizza_&_Deli	B	42.715535	-73.931691
DirectBuy_of_Albany	C	42.743594	-73.749072
Century_Hill_Financial_Group	C	42.770781	-73.758022
Hackel's_Foreign_Car_Svce	D	42.704072	-73.817911
Cohoes_Community_Center	B	42.77634	-73.702159
Warehouse_Grill_&_BBQ	B	42.725196	-73.796605
Colonie_Youth_Center_Inc_Boght_Hills_School	A	42.775262	-73.756798
Park_View_Cemetery	B	42.792188	-73.912939
Batteries_Plus_Bulbs	C	42.771525	-73.892329
Paul_Mitchell_Focus_Salon_schenectady	B	42.790209	-73.915435
Hannaford_Food_And_Drug	A	42.717581	-73.812494
Guru_Nanak_Darbar_Of_Albany_Inc	A	42.79429	-73.886771
Kids_Kloset	C	42.783559	-73.745354
East_Coast_Discount_Tire	C	42.729512	-73.701863
Gallivan_Michael_T_Dr_DDS	A	42.775879	-73.701746
Loudon's_Mart	C	42.712719	-73.755855
Kiddie_Academy	A	42.702555	-73.86103
Crescentview_Physical_Therapy	A	42.698138	-73.768206
ValueOptions	A	42.759427	-73.82453
Mattress_Firm	C	42.748349	-73.763433
Domani_Nail_Spa	B	42.804854	-73.905692
St_Helen's_Church	A	42.801402	-73.896799
Transtutors	A	42.722181	-73.800679
Berkshire_Bank	C	42.770886	-73.823226
Miracle_Eyebrows	B	42.688689	-73.849102
CentralMed_Urgent_Care	A	42.721424	-73.837704
Latham_Vehicle_Safety	A	42.75789	-73.758734
Pinewood_Elementary_School	A	42.76367	-73.918029
Lia_Honda	C	42.697813	-73.811796
Piedmont_Plastics	A	42.726959	-73.855068
McDonald's	B	42.798046	-73.924469
Perfections_Hair_Salon	B	42.723445	-73.840034
Recycled_Salon	B	42.688668	-73.7818
Christopher_Brian_Salon	B	42.771368	-73.700964
Hot_Topic	C	42.689305	-73.849295
Light's_Funeral_Home	B	42.794454	-73.92034
Perfume_Stop	A	42.688483	-73.849244
T_&_T_Body_King	D	42.754202	-73.793756
ShopRite	C	42.816654	-73.88977
Niskayuna_Tire_&_Service_Center_Inc	C	42.815866	-73.892842
Lauren_Elizabeth_Salon	B	42.690899	-73.869317
Kidz_Korner	A	42.744652	-73.838164
Whole_Foods_Market	C	42.708839	-73.818266
Bayberry_Veterinary_Care	A	42.73247	-73.761746
JZ_s_Rock_Paper_Scissors_Salon	B	42.78759	-73.934235
Lifestyle_Juice_Bar	B	42.804701	-73.919195
Abounding_Grace_Christian_Church	A	42.766229	-73.939594
RAD_Soap_Co	A	42.683819	-73.838831
Angiodynamics	A	42.768478	-73.760042
Party_City	C	42.752867	-73.762948
State_Street_Auto_Fix	D	42.800007	-73.925656
Pil_Sung_Martial_Arts	A	42.688399	-73.79907
Fox_Robert_Dr	A	42.770588	-73.823602
Endeavour_Toys	C	42.695167	-73.878799
Jersey_Mike's	B	42.74895	-73.763545
New_York_Task_Force_2	A	42.733236	-73.86603
Crossgates_Mall	C	42.689147	-73.851127
Brookdale_Senior_Living	B	42.800911	-73.897587
Service_Partners	A	42.726639	-73.851392
Exclusive_Nail_Salon	B	42.717048	-73.810956
Martini's_Deli	B	42.74371	-73.837823
Dapp's_Tavern	B	42.714549	-73.719006
Cricket_Wireless	C	42.734091	-73.762757
Wendy's	B	42.773905	-73.895809
Ed_Conroy_MetLife_Auto_&_Home	C	42.74897	-73.765253
Local_Flavor_Cafe	B	42.731272	-73.706467
Craig_Elementary_School	A	42.831698	-73.890369
Starbucks	B	42.689574	-73.850341
Blu_Stone_Bistro	B	42.729356	-73.796755
Taco_Bell	B	42.774827	-73.891998
Shazi_Food_and_Groceries	C	42.794654	-73.929453
McNally_Paving	A	42.718437	-73.819013
LePage's_Market	C	42.786909	-73.711813
Rjn_Physical_Therapy	A	42.750788	-73.757955
Walmart_Supercenter	C	42.694782	-73.846984
Scubber's	B	42.723501	-73.801217
XtraMart	C	42.773725	-73.825096
Geovanny_Marble_&_Granite	C	42.732963	-73.710283
Albany_County_Hockey_Training_Facility	B	42.747183	-73.815181
American_Heart_Association	A	42.740047	-73.843267
Union_Street_Dentistry	A	42.803159	-73.901156
Ferri_Formals_and_Bridals	C	42.80478	-73.905497
United_Granite_Marble	A	42.688519	-73.797959
American_Freight	C	42.698428	-73.823707
McDonald's	B	42.783017	-73.949992
TGI_Fridays	B	42.683181	-73.840148
Jos._A._Bank_Clothiers	C	42.684005	-73.838787
The_Purple_Rose_Everlasting	C	42.775378	-73.935384
Faccia_Bella_Salon	B	42.782014	-73.746056
Grout_Park	B	42.792701	-73.928741
Mike_Bowens_Motivates	A	42.80143	-73.945144
Albany_Medical_Center	A	42.758712	-73.776923
New_Loudon_Center	C	42.753648	-73.757458
Islander_Pools_&_Spas_Inc	C	42.741824	-73.859407
Dollar_Tree	C	42.729279	-73.700399
Habana_Premium_Cigar_Shoppe	C	42.71064	-73.84325
Sunoco	C	42.770345	-73.89327
Sherwin-Williams	C	42.738804	-73.73132
New_Ming's_Wok	B	42.729946	-73.84999
St_Peter's_Hospital	A	42.709667	-73.864028
Light_Of_The_World_Christian_Ministries_Inc	A	42.767906	-73.777057
Hoffman_Development_Corp	D	42.756993	-73.77766
Newton_Medical_PC	A	42.726773	-73.761052
Fred_Meyer_Jewelers	C	42.688466	-73.849275
Capital_Region_Vein_Centre	A	42.807145	-73.910102
DCI_Albany_NY	A	42.699188	-73.851829
Juliet_House_of_Brides	C	42.728392	-73.760958
Cumberland_Farms	C	42.772076	-73.685262
H&R_Block	A	42.774125	-73.896188
CapitalCare	A	42.804452	-73.915739
Kurver_Kreme	B	42.703344	-73.815815
Upstate_Guns_and_Ammo	C	42.773086	-73.89619
Bountiful_Bread	B	42.684632	-73.839474
GOLDSTEIN_BUICK_GMC	C	42.722601	-73.837155
Latham_Beverage_Center	C	42.728673	-73.759812
Absolute_Fitness	B	42.76201	-73.749863
D_&_M_Jerk_Center	B	42.663072	-73.775744
Sunoco	C	42.815886	-73.892968
Sunoco	C	42.729228	-73.760118
Fitness_Factory	B	42.783487	-73.946041
On_Tap	B	42.760977	-73.754672
Rocky_Mountain_Chocolate_Factory	C	42.683604	-73.840502
Boys_And_Girls_Clubs_Of_Schenectady_Keane_Elem_Aasp	A	42.796599	-73.925075
Eastern_Wine_&_Liquor	C	42.807243	-73.912956
Herzog_Home_&_Paint_Centers	C	42.703196	-73.815552
BJ's_Wholesale_Club	C	42.704643	-73.830224
Cake_Street_Sweets	E	42.771551	-73.70085
Valvoline	D	42.785715	-73.94439
Fantastic_Sams	B	42.717517	-73.813119
Schott's_Boxing	B	42.688257	-73.794965
Boost_Mobile	C	42.785633	-73.910561
Capital_District_Hemotology_Oncology_Associates_PC	A	42.77285	-73.75186
McDonald's	B	42.706349	-73.775363
The_Regional_Synod_Of_Albany_Reformed_Church_In_America_Inc	A	42.814875	-73.90541
St_Catherine's_Ctr_For_Children_R_&_E_May_School	A	42.666201	-73.785725
Valiant_Insurance_Company	C	42.722336	-73.798915
Our_Lady_of_Mount_Carmel_Church_of_Schenectady	A	42.793807	-73.947203
Primo_Pizzaria_&_Italian_Specialites	B	42.703852	-73.775881
Amber's_Traveling_Nails	B	42.760715	-73.882362
Memory_Gardens_Cemetery	B	42.739538	-73.829494
Vince's_Garage	D	42.789863	-73.93956
Milano_Restaurant	B	42.727926	-73.761193
Marras_Pharmacy	A	42.77113	-73.700303
City_Of_Albany_Department_Of_Fire_Emergency_Medical_Services_And_Code_Enforcement_Brevator_Station	A	42.677105	-73.801308
Bentley's_Cafe_II	B	42.685414	-73.765646
Saint_Agnes_Cemetery	B	42.767451	-73.728639
Joan's_Cake_Chateau	E	42.738526	-73.787378
Mobil	C	42.824373	-73.910795
Five_Below	C	42.710498	-73.816163
Hockey_Store_N_More	C	42.747134	-73.814674
Tu_Nails	B	42.784004	-73.919289
State_University_of_New_York_Insttte_Fr_Trffc_Sfty	A	42.715323	-73.812969
Pastrana_J_Richard_DDS	A	42.678284	-73.844595
Pro_Automotive	D	42.77995	-73.902782
Prime_Group_Insurance_Agency	C	42.80556	-73.90742
Dollar_&_Things	C	42.688903	-73.850241
Little_Caesars	B	42.684456	-73.794164
Ted's_Fish_Fry	B	42.733163	-73.762847
Edward_Jones	A	42.718481	-73.807505
CITGO	C	42.706746	-73.712206
Mobil	C	42.712698	-73.755879
Clean2o_Touchfree_Car_Wash	D	42.765905	-73.814018
TruGreen	D	42.714087	-73.840821
The_Moore_Insurance_Agency_Inc	C	42.735582	-73.699903
Wolf_Kemp_Cemetery	B	42.726413	-73.802801
St_Peter's_Hospital	A	42.721323	-73.80144
Where_Smiles_Grow_Latham	A	42.772045	-73.75667
WellNow_Urgent_Care	A	42.679657	-73.834657
Best_Buy	C	42.689998	-73.85042
Distillery_Church	A	42.703026	-73.755436
Little_Bites_and_More	B	42.746925	-73.75818
Rainbow_Corner	C	42.776255	-73.903104
Upstate_Cellular_Phones	C	42.731887	-73.70722
Albany_Hypnosis_Center	B	42.721406	-73.863705
Albany_Medical_Center_Center_For_Donation_&_Transplant	A	42.682144	-73.847723
Grace_Nail_&_Spa	B	42.732976	-73.854598
Albany_Chiropractic_and_Physical_Therapy	A	42.723105	-73.839711
Bohler_Engineering	C	42.721157	-73.807069
Learning_Development_Associates	A	42.74452	-73.75224
Roberts_Auto_Service	C	42.760634	-73.790986
Boys_&_Girls_Clubs_of_America	B	42.667287	-73.79045
Farmers_Insurance_Group	C	42.737561	-73.763694
Sunglass_Hut	A	42.711471	-73.814171
Erica's_Tailoring_Full_Svc	D	42.704755	-73.775649
Goldstein_Subaru	C	42.725428	-73.845016
Big_Horse_Auto	C	42.787661	-73.91265
Residence_Inn_by_Marriott	B	42.692466	-73.85
Glass_America	D	42.767913	-73.890513
GNH_Design_Showroom	C	42.757466	-73.758649
Church_of_the_Nazarene	A	42.787645	-73.904073
Raya_Wellness	A	42.731962	-73.782801
Regal_Cinemas_Crossgates_18_&_IMAX	A	42.688496	-73.849274
Active_Family_Chiropractic_Pc	A	42.709154	-73.863245
EmUrgentCare	A	42.802138	-73.897859
Schenectady_Community_Action_Program_Head_Start	A	42.794861	-73.924477
HIIT_it_with_Britt	A	42.688172	-73.797056
Laura_M_Connell_MA_LMHC	A	42.717083	-73.807622
Albany_County_Veterinary_Hospital	A	42.681841	-73.84185
America's_Best_Contacts_&_Eyeglasses	A	42.774916	-73.89293
99_Restaurants	B	42.71621	-73.809317
Beef_Jerky_Outlet	C	42.68947	-73.850733
Gershon's_Deli_&_Caterers	E	42.805031	-73.906037
Lasalle_School	A	42.664739	-73.783516
Open_Arms_Fellowship_Church	A	42.758155	-73.926834
ClearPoint_Credit_Counseling_Solutions	C	42.72006	-73.807744
Quick_Lane	C	42.770117	-73.891118
Dollar_Tree	C	42.706463	-73.777643
Mobil	C	42.715722	-73.812002
Ron_Hamelin_Massage_Therapy	A	42.7916	-73.938931
Castle_Barbershop	B	42.737222	-73.763579
Amazingly_Ageless_MedSpa	B	42.7708	-73.823315
Stride_Rite	C	42.683676	-73.840582
Alternative_approach_massage_therapy	A	42.756967	-73.775176
Fischer_Frederick_L_DMD	A	42.690823	-73.869104
Christopher_&_Banks	C	42.709774	-73.816479
Charlotte_Russe	C	42.690127	-73.851497
V_Mathis_Insurance_Agency	C	42.721136	-73.808735
Mohawk_River_State_Park	B	42.804365	-73.857662
Colonie_Babe_Ruth_League	B	42.708481	-73.83258
McDonald's	B	42.683508	-73.794695
Nice_Nails	B	42.77857	-73.932842
Talbots	C	42.719658	-73.802122
Twist'N_Flip_Gymnastics	B	42.713915	-73.846224
Aerus_Electrolux_Vacuums	D	42.728212	-73.846487
Quest_Diagnostics	A	42.785316	-73.941702
Starbucks_Retail_Center	C	42.75095	-73.764228
Reel_Seafood	B	42.723018	-73.800196
Schenectady_Gospel_Chapel_Of_The_Christian_And_Missionary_Alliance	A	42.754845	-73.942857
Ted's_Fish_Fry	B	42.723767	-73.79902
Laura_Brodsky	A	42.758112	-73.777234
Moore_Insurance_Agency	C	42.688422	-73.778517
Golden_Cue_Billiard_Lounge	B	42.685906	-73.797256
Mj_Pelkey_Sealcoating	A	42.764913	-73.699287
New_Mt_Pleasant_Bakery	E	42.79911	-73.947431
Stewart's_Shops	C	42.713277	-73.707606
The_Shop_at_St_Andrew's	C	42.664565	-73.78829
Trinity_Baptist_Church	A	42.835528	-73.892858
Hoffman_Carwash_Self_Serve	D	42.728772	-73.761283
Steadfast_Beer_Co	D	42.688902	-73.863079
Mr_Subb	B	42.73009	-73.758492
CrossFit	B	42.751846	-73.870161
George's_Market	C	42.760096	-73.768513
Pizza_Hut	B	42.766297	-73.8146
Ground_Equipment	C	42.730329	-73.710503
O'Reilly_Auto_Parts	C	42.783603	-73.90682
Health_Street	A	42.727599	-73.75982
CosmoProf	C	42.7177	-73.80451
AutoZone	C	42.729298	-73.844884
Koto_Japanese_Steak_House	B	42.729877	-73.795334
Mac's_Drive_In	B	42.714198	-73.706153
Work_Fit_Medical	A	42.69521	-73.878863
Sunmark_Federal_Credit_Union	C	42.732538	-73.84927
ABF_Freight_System	E	42.802121	-73.727018
The_Old_Polish_Deli	C	42.71304	-73.707122
New_York_Physical_Therapy_Association	A	42.688143	-73.773165
Leitner_Jeffrey_M_DMD	A	42.794535	-73.91961
Blaze_Pizza	B	42.771413	-73.892489
Littman_Jewelers	C	42.688505	-73.849272
L&W_Supply	C	42.801223	-73.728845
McClellan_Street_Health_Center	A	42.80468	-73.916162
East_Jade_Chinese_Buffet	B	42.729015	-73.700381
Advance_Auto_Parts	C	42.738655	-73.762691
Mizu_Sushi	B	42.769724	-73.892663
I_Love_New_York_Pizza_of_Cohoes	B	42.778249	-73.709802
CBRE_Group	A	42.703188	-73.856591
Kevin_Naylor_MetLife_Auto_&_Home	C	42.775385	-73.8337
Troy's_Landscape_Supply	C	42.802912	-73.734821
Kohler_William_PA	A	42.758341	-73.777469
Top_Indoor_Golf	B	42.738091	-73.842403
Invisible_Ink_Tattoo_Removers	A	42.728437	-73.75965
Brian_Beaury_Jiu_Jitsu	A	42.714891	-73.706187
IWC_Schaffhausen	C	42.684896	-73.848015
Color_Bar_Hair_Studio	B	42.773595	-73.935222
Lee's_Dragon_Buffet	B	42.73447	-73.851548
Junior_Shoe_Port	C	42.683689	-73.840593
The_Cuckoo's_Nest	B	42.661872	-73.778108
Shaker_Junior_High_School	A	42.73612	-73.750787
Dalland_Edward_S_Jr_DVM	A	42.761027	-73.791737
Music_&_Arts	C	42.752978	-73.763409
Xpedx_Paper_&_Graphics_Store	C	42.694376	-73.819534
Halal_Grub	B	42.718644	-73.805538
Hospice_&_Palliative_Care_Association_of_New_York_State	B	42.716337	-73.803908
Pisa_Biopharm	A	42.683293	-73.846806
CAP_COM_Federal_Credit_Union	C	42.774258	-73.695947
One_Step_Above	B	42.76212	-73.752256
Childtime_Learning_Centers	A	42.733386	-73.846074
Bellevue_Woman's_Hospital	A	42.792733	-73.879081
Capital_District_Truck_Center	A	42.767875	-73.890524
Bauer_Environmental_Park	B	42.724932	-73.817652
Morrison_James_K_Ph_D_P_C	A	42.75483	-73.774824
Lincare	B	42.757769	-73.817658
State_Street_Station_1579	B	42.787665	-73.911774
Smith_Frederick_J_PHD	A	42.709649	-73.863104
Jersey_Mike's	B	42.677415	-73.826979
Carrabba's_Italian_Grill	B	42.755116	-73.772155
B.GOOD	B	42.684106	-73.840712
Army_Aviation_Support_Facility	C	42.742675	-73.796372
Auto_Center_Francis'	D	42.732142	-73.69946
Hannaford_Food_And_Drug	A	42.783138	-73.891313
Every_Thomas_DDS	A	42.788745	-73.913862
Hear_For_You	B	42.784724	-73.944599
Myo_Massage	B	42.737223	-73.763615
Glory_House_Of_Prayer_Ministries	A	42.71313	-73.828217
Charter_Industries	C	42.725515	-73.852188
Nail_Art_2	B	42.771002	-73.824247
Community_Care_Physical_Therapy	A	42.75811	-73.777241
Family_Rosary	A	42.694804	-73.887321
Accent_On_Skin	B	42.804436	-73.915745
United_Auto_Clinic	D	42.768102	-73.910195
Picture_People	A	42.706474	-73.823649
J_Spa	B	42.688478	-73.849258
Heritage_Home_For_Women	B	42.807767	-73.911195
Capital_Region_BOCES_Maywood_School	A	42.743661	-73.861357
United_States_Postal_Service_(USPS)	C	42.814845	-73.890487
Watervliet_Fire_Department	A	42.72291	-73.703182
Subs_Ta_Toot	B	42.774594	-73.700904
Girl_Scouts_of_Northeastern_New_York	C	42.702358	-73.813567
Hindu_Temple_Society	A	42.701557	-73.775165
Riverfront_Insurance_Agency	C	42.711389	-73.708551
Audiology_Center_at_Community_Care_Physicians	B	42.758081	-73.777357
Green_Bottle_Redemption_Center	E	42.781866	-73.952409
Adams_Auto_Sale_Inc	C	42.789633	-73.942305
Goldstein_Mitsubishi	C	42.729893	-73.760115
MacAran_Printed_Products	C	42.77769	-73.699294
Stir_Fry_88	B	42.710747	-73.816206
Conway_Entertainment	A	42.724525	-73.84181
Colonie_Youth_Center_Inc_Sand_Creek_School	A	42.706682	-73.799427
Albany_Family_Foot_and_Ankle_Services	A	42.722914	-73.839499
Ayelada	B	42.771558	-73.823476
Dollar_Tree	C	42.733185	-73.854475
Skin_By_ASK	B	42.770635	-73.823547
The_Works_Auto_Center	D	42.690615	-73.778868
Morra_Gregory_R_DDS	A	42.746158	-73.755655
Hand_and_Stone	B	42.717162	-73.811639
T_Mobile_Authorized_Retailer	C	42.713644	-73.813421
Eastern_Mountain_Sports	C	42.68494	-73.840214
Motel_6	B	42.759779	-73.929864
Center_For_Sports_Medicine	A	42.725791	-73.936058
Schuyler_Auto_Body	D	42.708506	-73.710054
Colonie_Mechanics	D	42.752175	-73.871666
Mobil	C	42.783579	-73.743103
Foot_Locker	C	42.710478	-73.815462
Andy_Vosburgh_Auto_Repair	C	42.743299	-73.745208
Hair_by_Cassie	B	42.766374	-73.946665
A_Pinch_or_A_Pound	C	42.708801	-73.817183
Hana_Japanese_Sushi_&_Steakhouse	B	42.684727	-73.850352
Sisters_of_St_Joseph	A	42.70361	-73.820033
Kiddie_Academy	A	42.761523	-73.750818
Just_Threading	B	42.688492	-73.84927
Chrisler_Automotive_Center	D	42.795865	-73.944528
Tri_City_Foods	C	42.71351	-73.706716
Simply_Irresistible_Hair_&_Tanning_Salon	B	42.742203	-73.74251
Albany_Psychological_Associates_PC	A	42.688641	-73.862199
Gabriels_F_Forrest_PC	A	42.672778	-73.812309
Tango_Restaurant_Bar_&_Grill	B	42.677339	-73.828235
Valero_Energy	C	42.755256	-73.944034
Westmere_Beverage_Center	C	42.688995	-73.863002
Milano_Pizza	B	42.689695	-73.865858
Tara_Kitchen	B	42.690165	-73.865332
Modern_Welding_School	A	42.779057	-73.903198
I_Love_New_York_Pizza	B	42.73108	-73.847768
Different_Drummer's_Kitchen	C	42.685162	-73.840492
Cummings_Robert_DMD	A	42.685234	-73.838627
Mobil	C	42.791331	-73.871594
Childtime_Learning_Centers	A	42.761029	-73.815847
Young_Life_Spa	B	42.706432	-73.77466
Northeast_Mobility_Center	B	42.693747	-73.773099
Monro	D	42.78931	-73.937595
Cumberland_Farms	C	42.783587	-73.912109
Twist'N_Flip_Gymnastics	B	42.789731	-73.945061
Tower_News	D	42.682884	-73.780638
Dunkin'	B	42.773881	-73.697937
Genn_Shaughnessy	B	42.691183	-73.868029
European_Wax_Center_(EWC)	B	42.735629	-73.764
The_UPS_Store	C	42.727508	-73.759818
Hooters	B	42.714561	-73.813699
Northway_Chiropractic_Ofc	A	42.74354	-73.759105
Cahill's_Automotive_Service_Center	D	42.679603	-73.834042
William_E_Sheridan	C	42.71307	-73.707136
Big_Red_Bus	E	42.676547	-73.824642
Berkley_Park	B	42.781819	-73.718636
TWB_Moving	E	42.738019	-73.854171
Lynnwood_Elementary_School	A	42.724626	-73.946482
Metroland_Appraisers_&_Adjusters	C	42.750249	-73.745592
Red_Robin_Gourmet_Burgers	B	42.754195	-73.759719
Ascend_Resort_Collection	B	42.771056	-73.752911
Grainger	C	42.703617	-73.878735
Remsen_Street_Flea_Market	C	42.775638	-73.701874
Old_Brick_Furniture_Company	C	42.703606	-73.82749
Woodlawn_True_Value_Hardware	C	42.776694	-73.900187
America's_Best_Contacts_&_Eyeglasses	A	42.71461	-73.828919
Visionworks	A	42.750717	-73.765892
Subway	B	42.728324	-73.759671
Leslie's_Pool_Supplies_Service_&_Repair	D	42.754205	-73.761223
Crunch	B	42.783942	-73.941362
Roman_Candle_Beauty_Lounge	C	42.773727	-73.891093
Marco_Crane	E	42.788311	-73.945106
Catholic_Families_of_Schenectady	A	42.802368	-73.895852
Demarco_Stephen_J_DMD	A	42.771808	-73.757442
Goldstein_Chrysler_Jeep_Dodge_Ram	C	42.768241	-73.755042
Bergman_Richard_J_DDS	A	42.666151	-73.789646
Yang's_Asian_Bistro	B	42.726624	-73.761046
Capital_Costumes_and_Vintage	C	42.708828	-73.8172
Rivelli_Christa_L_Chirprctr	A	42.6661	-73.78947
Salon_Onaj	B	42.717761	-73.808969
Boost_Mobile	C	42.798666	-73.925386
Karner_Auto_Service	C	42.723755	-73.86162
Dave's_Gourmet_&_Exotic_Burgers	B	42.700407	-73.821244
Central_Park	B	42.798631	-73.911093
Rudy_A_Ciccotti_Family_Recreation_Center	B	42.714551	-73.799758
Maplewood_Cemetery	B	42.746202	-73.711371
Flex_Dumpster	E	42.724519	-73.868965
Kimberly_Day_Valvo	B	42.763632	-73.754295
Mobil	C	42.732632	-73.850516
Coccadotts_Cake_Shop	E	42.693591	-73.805008
Trustco_Bank	C	42.780322	-73.954762
WV_Pizza	B	42.735626	-73.702109
Sun_Nails	B	42.761832	-73.750204
The_Century_House	B	42.77067	-73.752263
Bruegger's	B	42.683608	-73.838649
Hampton	B	42.72473	-73.795534
Innovations_Hair_Salon	B	42.689646	-73.865713
Agar_Auto_Parts	C	42.692333	-73.814595
Zara	C	42.688383	-73.848183
Mr_Fuji_Sushi	B	42.683549	-73.840465
Mosall's_Grove	B	42.672958	-73.847681
Penzeys_Spices	C	42.683874	-73.840621
Painting_with_a_Twist	A	42.756927	-73.757439
Berkshire_Bank	C	42.697427	-73.767541
Napoli_Don	B	42.718773	-73.835146
First_Baptist_Church_of_Schenectady	A	42.794414	-73.886616
Deacon_Blues	B	42.735722	-73.70794
New_Horizon_Stables	B	42.767318	-73.867916
Fresenius_Kidney_Care	A	42.816701	-73.888489
Starbucks	B	42.753421	-73.75705
Parsons_Early_Head_Start	A	42.795419	-73.92527
Metro_by_T_Mobile_Authorized_Dealer	C	42.789102	-73.937085
Anti_Aging_Center_at_HLCC	B	42.770473	-73.756392
Pet_Stop_Of_Eastern_New_York	B	42.784079	-73.94578
Exit_Bar_&_Lounge	B	42.799702	-73.947968
Unique_Eyebrows	B	42.719136	-73.83412
Runa_Halal_Meat_&_Supermarket	C	42.746402	-73.758474
Gabby's_Quilts	C	42.800098	-73.922999
Living_Word_Parable_Christian_Store	C	42.762237	-73.79765
Restaurant_Depot	C	42.701936	-73.826584
Radiator	C	42.692334	-73.814601
Cohoes_Community_Center_Harmony_Hill	A	42.77549	-73.720588
Sampson's_Prosthetic_&_Orthotic_Lab	A	42.782909	-73.906287
Hana_Express	B	42.68934	-73.84841
Target	C	42.775321	-73.88989
Fly_Boutique	C	42.727926	-73.761241
Ramiros_Deli	C	42.719136	-73.803455
Speedway	C	42.76331	-73.885306
Lyle's_Hoagies	B	42.771194	-73.936641
ABC_Supply	C	42.693137	-73.814267
KeyBank	C	42.764194	-73.938697
Midas	D	42.786554	-73.910189
Advanced_Laser_Hair_Removal	B	42.721582	-73.836857
Edward_Jones	A	42.725073	-73.840683
The_Image_Studio	B	42.745835	-73.754592
Speedway	C	42.765304	-73.754189
Grayscale_Barber_Lounge	B	42.712769	-73.827848
Platinum_Kutz_2	B	42.806809	-73.912175
Stanton_Joyce_Piano_Studio	C	42.676927	-73.833999
FixTeam	D	42.689407	-73.850485
Vent_Fitness	B	42.740309	-73.731537
Advance_Auto_Parts	C	42.784014	-73.945877
JD_Tire	D	42.748364	-73.868382
State_Farm	C	42.731234	-73.761433
Roto_Rooter_Plumbing_&_Drain_Services	A	42.751563	-73.794133
Capital_District_Digital	B	42.77011	-73.824248
Coulson's_News_&_Variety	C	42.727377	-73.76111
State_Farm	C	42.715515	-73.804143
Guilderland_Foot_Care	A	42.695204	-73.878772
Saint_Pauls_Conference	A	42.780611	-73.907644
United_States_Postal_Service_(USPS)	C	42.722291	-73.75695
Andrew_Wood_DDS	A	42.678292	-73.84456
New_York_State_Association_Of_Library_Boards	B	42.703482	-73.745805
Pathare_P_S_Dr_Dntst	A	42.727312	-73.779685
Nikki_P's_Pizza_Deli_Bakery	B	42.768149	-73.915891
Trinity_Lutheran_Church	A	42.799862	-73.924531
Daughters_of_Sarah_Senior_Community	B	42.698574	-73.853569
Michaels_Stores	C	42.757157	-73.769058
Tara_L_Benincasa_LMHC	A	42.725673	-73.936264
St_Pauls_Lutheran_Church	A	42.65884	-73.768862
Farmers_Insurance_Group	C	42.783657	-73.911331
Faces_By_Eve	B	42.686165	-73.868534
Certified_Allergy_&_Asthma_Consultants	A	42.683179	-73.770057
Walgreens	A	42.731572	-73.849929
General_Orthopedics	A	42.721585	-73.836553
Edward_Jones	A	42.73049	-73.761916
Big_Nic's	B	42.69345	-73.773543
iCRYO_Cryotherapy	A	42.74374	-73.749155
E_K_'s_Cibo	B	42.789119	-73.937063
Albany_Airport_Departure	C	42.745529	-73.809392
Shoe_Works	C	42.689282	-73.788546
American_Italian_Heritage_Museum	B	42.696461	-73.807665
Progressive_Insurance_Colonie	C	42.716403	-73.832998
Barnsider	B	42.71698	-73.813825
Central_Tailoring	D	42.6909	-73.801817
Platinum_Skin_Clinic	B	42.754789	-73.774732
Arch_Threading_Experts	B	42.710782	-73.81652
Honey_Gardens	B	42.735242	-73.762641
Sisters_of_St_Joseph	A	42.710631	-73.712194
WinWholesale	C	42.69944	-73.825175
Cohoes_Savings_Foundation	C	42.775301	-73.70166
Siebeneck_Aaron_DPM	A	42.75873	-73.776933
Lee's_He_&_She_Hairstyles	B	42.777428	-73.933156
Five_Star_Framing_Center	C	42.696056	-73.82408
Tom_Burdick_CFP_Empire_Financial_Advisors	A	42.753255	-73.78132
Kirvin_William_Insurance	C	42.802336	-73.900756
The_Purple_Pub	B	42.7399	-73.700789
Planet_Fitness	B	42.696782	-73.847157
Adirondack_Tire_&_Service	C	42.747937	-73.866599
Amber	B	42.743771	-73.759982
Ferrara's_Automotive	C	42.733874	-73.71074
Francesca's	C	42.71031	-73.816073
StyledbyWill	B	42.713825	-73.827985
Izzo_Family_Auto_Center	D	42.770938	-73.697942
Blacksheep_Fit	B	42.688114	-73.793912
Alternative_Living_Group_Woodlawn_Elementary	A	42.770365	-73.90472
Century_Auto_Body_Repr	D	42.686355	-73.797653
Budget_Rent_A_Car	C	42.710294	-73.816425
T_Time_Adventures_Inc	A	42.802672	-73.901606
Sweet_Willy's_Pizzeria	B	42.690534	-73.783291
Matt's_Fish_Fry_and_Seafood_Mkt	C	42.756583	-73.700595
Mathnasium	A	42.816497	-73.890539
Stewart's_Shops	C	42.729182	-73.759901
WIlliam_Busino_MD_CapitalCare_Lab	A	42.830726	-73.891061
CJ_Sabatini_Opticians	A	42.69691	-73.883706
Tramontana_Charles_H	A	42.72503	-73.823001
Dunkin'	B	42.689747	-73.849922
Merrill_Lynch	A	42.770979	-73.759021
Blatnick_Park	B	42.811689	-73.861485
Crawford_Insurance_Agency	C	42.744859	-73.753199
Pixie_Salon	B	42.698724	-73.812196
Bradley_Lise_DDS	A	42.772384	-73.821906
Denooyer_Collision_Center	D	42.717648	-73.806344
Northeast_Acura	C	42.764031	-73.756324
EmUrgentCare	A	42.774266	-73.751273
Dunkin_Donuts_Distribution_Center	B	42.67801	-73.828885
Robert_J_Califano_DPM	A	42.758313	-73.777377
Core_Pilates_of_Albany	B	42.689377	-73.774685
Kimberly_Square	C	42.708814	-73.775253
Plato's_Closet	C	42.728916	-73.846899
Raymour_and_Flanigan_Furniture	C	42.75565	-73.756064
Extreme_Molding	C	42.719163	-73.705783
Stewart's_Shops	C	42.77389	-73.936077
Bible_Church_of_Christ	A	42.794322	-73.951289
Greenbriar_Park	B	42.790073	-73.725116
Albany_Dance_&_Fitness	B	42.694562	-73.80578
Inferno_Pizzeria	B	42.761906	-73.855203
Provana_Hair_Studio	B	42.71921	-73.833708
United_States_Postal_Service_(USPS)	C	42.708409	-73.777368
JCPenney	C	42.687741	-73.847465
Market_Bistro	C	42.753641	-73.756946
Italian_Benevolent_Society_of_West_Albany	B	42.683978	-73.782145
Limited_Too	C	42.71026	-73.816537
Albany_Plastic_Surgeons	A	42.68542	-73.838932
CrossFit	B	42.743264	-73.902424
Barking_Boutique_&_Doggie_Daycare	C	42.69357	-73.774506
Animal_Hospital_of_Niskayuna	A	42.77995	-73.848454
Green's_Appliance_Direct	E	42.695629	-73.807114
Kathleen's_Designs_By_The_Flower_Girl	C	42.731635	-73.706454
The_Bowery	B	42.719178	-73.83416
Albany_Movement_&_Fitness	B	42.692191	-73.810663
Lorenzos_Italian_Cafe	B	42.791383	-73.916857
LIDS	C	42.710517	-73.81576
Bosley	B	42.716931	-73.80769
Empire_Vision_Centers	A	42.783461	-73.919445
Sportime_Schenectady	B	42.761943	-73.930978
All_Saints_Catholic_Academy	A	42.671363	-73.806038
Crosstown_Plaza	C	42.78412	-73.918526
Zaitoon_Kitchen	B	42.697045	-73.849361
Karavalli	B	42.762339	-73.7483
Mr_Subb	B	42.714914	-73.830542
51vape	C	42.734887	-73.762754
Motel_6	B	42.717705	-73.833482
Andrews_&_Holbrook_Training	A	42.758612	-73.818603
Habitat_for_Humanity_ReStore	C	42.698123	-73.822765
Loudinville_Assisted_Living_Residence	B	42.682105	-73.760325
Bank_of_America	C	42.690546	-73.866184
The_Home_Depot	C	42.684768	-73.792366
Cappy's_Auto	D	42.79121	-73.91582
Wentworth_Financial_Partners	C	42.680764	-73.763734
Gorgeous_Darling	B	42.724569	-73.841632
Wendy's	B	42.729406	-73.846901
Ryan's_Driving_School	A	42.719199	-73.932228
Tint_King	D	42.733512	-73.850528
Clean2o_Touchfree_Car_Wash	D	42.677273	-73.824546
Mosall's_Grove	B	42.666156	-73.848196
Cody's_Cozy_Pals	C	42.737523	-73.797885
University_Wine_&_Liquor	C	42.677392	-73.823052
Virjee_S_A_DMD	A	42.727013	-73.702434
Eclectic_Hair_Studio	B	42.762945	-73.799247
A_Plus	C	42.774507	-73.698016
Greyhound	E	42.74553	-73.809404
Fleurtacious_Designs	C	42.746949	-73.759942
Sport_Clips	B	42.748437	-73.763547
High_Maintenance_Hair_Studio	B	42.723336	-73.839829
Popeyes_Louisiana_Kitchen	B	42.689499	-73.850735
Scarboroughs_Restaurant_&_Tavern	B	42.76182	-73.799216
Kugler's_Red_Barn	C	42.766669	-73.869697
Progressions_Advanced_Hair_Cutting_Seminars	B	42.767232	-73.816283
American_Red_Cross	B	42.68928	-73.777657
Albany_Advanced_Imaging	A	42.688472	-73.775559
Albany_Sarang_Fellowship_Church	A	42.732688	-73.703883
Albany_Regional_Eye_Surgery_Center	A	42.761846	-73.749141
China_1	B	42.773455	-73.697185
Bashkoff_Jacqueline_A_PHD	A	42.686397	-73.841024
Evolution_All_Phase_Construction	A	42.801034	-73.957087
M&T_Bank	C	42.801845	-73.898933
McDonald's	B	42.804668	-73.903499
Upstate_CBD	C	42.805115	-73.904697
McDonald's	B	42.717062	-73.810155
Dunkin'	B	42.723293	-73.801405
Pub_On_the_Hill	B	42.772231	-73.712511
Sefcu_Niskayuna	C	42.782558	-73.893546
Toedt_Insurance_Agency	C	42.691918	-73.794348
Sherwin-Williams	C	42.784249	-73.908801
Hannaford_Supermarkets	C	42.717782	-73.812513
Eddie_Bauer	C	42.707368	-73.825888
Seoul_Korean	B	42.761874	-73.795985
Saint_Nicholas_Cemetery	B	42.779861	-73.743991
Sprint	C	42.684775	-73.794972
LWA_Works_Inc	E	42.73783	-73.70705
Catherines	C	42.684132	-73.838906
Cricket_Wireless	C	42.784825	-73.943517
Kincaid_Home_Furnishings	C	42.747033	-73.76054
Stewart's_Shops	C	42.735115	-73.700481
Inga's_Diner	B	42.700903	-73.820532
Phillips_Hardware_Schenectady	C	42.803715	-73.90108
Albany_Physical_Therapy	A	42.685406	-73.838953
Seal_Master	A	42.692424	-73.8147
Central_Market_Florist	C	42.687002	-73.86017
Adirondack_Electronics	C	42.744892	-73.86295
Target	C	42.704873	-73.824175
Waterworks_Touchfree_Car_Wash	D	42.715725	-73.84105
The_Honey_Baked_Ham_Co.	B	42.714006	-73.812607
Benson's_Pet_Center	C	42.723219	-73.79987
Holy_Cross_Playground	B	42.672473	-73.805317
Sunoco	C	42.808133	-73.912762
Sher_Aaron_E	A	42.68644	-73.841015
Stewart's_Shops	C	42.757553	-73.776091
Taj_Mahal_Beauty_Salon	B	42.72581	-73.760301
Roma_Importing_Co	C	42.756677	-73.756295
Sisters_of_Mercy	A	42.66633	-73.787492
Arian_Kabob_&_Pizza	B	42.774923	-73.89736
T_Mobile_Store	C	42.710628	-73.820527
Van_Schaick_Park	B	42.766761	-73.689367
Victra	C	42.710694	-73.816164
Wade_Nancy_A	A	42.804905	-73.916065
Top_Notch_Auto_Repair	D	42.688293	-73.801118
West_Albany_Pocket_Park	B	42.687982	-73.791329
Blessings_Jermain_Daycare_Center_Inc	A	42.713824	-73.709291
Scott_&_Son's_Moving_and_Handyman_Services	E	42.724886	-73.706237
Hudson_River_Bank	C	42.802921	-73.900521
BCBGeneration	C	42.711322	-73.814389
Rainbow_Express_Inc	A	42.78225	-73.950272
Auntie_Anne's	B	42.689354	-73.850557
Gold_Exchange	A	42.68966	-73.85085
St_Ambrose_School	A	42.758011	-73.752824
Anthem_Health_Svcs	B	42.726908	-73.854194
Kelley_Anne's_Hair_Salon_&_Boutique	B	42.760427	-73.787477
Schenectady_Jewish_Community_Center_Day_Care	A	42.83208	-73.894042
Mr_Pio_Pio	B	42.663011	-73.775809
Chico's	C	42.68423	-73.839167
Apex_Entertainment	B	42.689342	-73.848413
Niskayuna_Wines_&_Liquors	C	42.815938	-73.894059
Safelite	D	42.743363	-73.792174
Lia_Chrysler_Jeep_Dodge_Ram	C	42.754827	-73.876364
Carrier_Enterprise	C	42.735958	-73.794101
Synergy_Athletics	B	42.693836	-73.774098
Nail_Studio_&_Spa	B	42.773317	-73.891914
Finish_Line	C	42.690787	-73.852642
Shampoodle_of_Colonie	C	42.746029	-73.86385
Nott_Street_Office	E	42.81585	-73.893958
Dale_Carnegie_Training	A	42.762803	-73.749521
A_Natural_Look_Permanent_Makeup_By_Marti	B	42.684735	-73.837728
Upper_Union_Street	B	42.80519	-73.90645
Aqueduct_Animal_Hospital	A	42.840226	-73.892465
Niskayuna_Co_Op	C	42.815921	-73.893426
The_White_Apron	B	42.770853	-73.824324
Burlington	C	42.688007	-73.849271
Beer_king	C	42.776648	-73.900248
The_Center_For_Nia_&_Yoga	B	42.724615	-73.841654
United_Refrigeration	C	42.695911	-73.811738
The_Big_Body_Butcher	C	42.744298	-73.864538
S_&_G_Truck_Repair	D	42.738553	-73.791609
Ellis_Pathology_Assoc	A	42.734967	-73.79295
DiBella's_Subs	B	42.677335	-73.823188
The_Old_Brick_Furniture	C	42.703592	-73.827491
Target	C	42.756342	-73.770331
Wolf's_1_11	B	42.716912	-73.808438
Good_Shepherd_Lutheran_Church	A	42.709954	-73.781226
Interfaith_Alliance_of_Nys	A	42.752734	-73.779903
Tesla_Supercharger_Guilderland	B	42.688475	-73.849247
Lisha_Kill_Sports_Complex	B	42.757027	-73.857472
Takara	B	42.685901	-73.853824
Emil_J_Nagengast_Florist	C	42.684198	-73.84095
Lucie_Capek_MD_Plastic_Surgery	A	42.759071	-73.777148
Messing_Steven_G_DMD	A	42.684736	-73.837723
Table_41_Brewing_Co	D	42.772539	-73.754361
Pink	C	42.689906	-73.851139
Siena_Barber_Shop	B	42.735104	-73.762652
Crossgates_Food_Court	B	42.69007	-73.850404
Lucky_Garden	B	42.684594	-73.795666
Sacred_Space_Sanctuary	A	42.810806	-73.90279
Center_For_Family_Practice	A	42.77109	-73.755868
Art_Taylor's_Garage	D	42.690682	-73.778357
Texas_Roadhouse	B	42.715338	-73.809026
Chauvin_James_O_Dr_Orthdntst	A	42.827749	-73.892405
A_Taste_of_Guyana_Roti_Shop_&_Bakery	E	42.794876	-73.920789
Affordable_Dentures	A	42.714968	-73.830578
Giuseppe's_Pizzeria	B	42.711565	-73.708361
Schenectady_Municipal_Golf_Course	B	42.789296	-73.897639
One_Step_Above	B	42.748509	-73.763542
Mr_Subb	B	42.754187	-73.761219
Colonie_Alliance_Church	A	42.720379	-73.84201
Kolstad_&amp_Fiess	E	42.736058	-73.79394
Freedom_First_Psychological_Services	A	42.753289	-73.777386
VENT_Fitness_Niskayuna	B	42.777331	-73.891839
U_Mundu_E_Ca	B	42.717708	-73.81253
Inspire_Confidence_Group_Ameriprise_Financial_Services	B	42.715322	-73.812965
GNC_(General_Nutrition_Centers)	A	42.756536	-73.760449
The_Revolution	B	42.677477	-73.827208
JT_Maxies_Bar_&_Grill	B	42.726119	-73.79739
GE_Renewables_Training_Center	A	42.837699	-73.88343
Ambiance_Salon_&_Spa	B	42.756598	-73.760423
Subway	B	42.689707	-73.865857
Albany_Braces	A	42.673403	-73.814416
Z_H_Petroleum	C	42.7683	-73.938149
Scott_&_Barbieri_Family_Funeral_Homes	B	42.778541	-73.901442
Academy_Of_Rural_Veterinarians	A	42.680674	-73.837943
Kid_Central_Childcare	A	42.741395	-73.860494
Price_Chopper_New_England	C	42.776115	-73.892438
Toro_Cantina	B	42.716785	-73.808502
Aéropostale	C	42.711082	-73.816137
Daves_moving_&_Junk_Removal	E	42.794404	-73.91749
Barnes_and_Noble	C	42.710862	-73.815902
Town_of_Guilderland	B	42.717517	-73.93585
Shalimar	B	42.761899	-73.796193
Garden_Bistro_24	B	42.77251	-73.823068
Mondragon_McGrinder_Medical_Associates	A	42.803778	-73.914423
Health_Street	A	42.78278	-73.941352
Cury_Mark_D_DMD	A	42.760086	-73.78648
Celebrations_&_Gifts	C	42.754252	-73.876213
Roessleville_School	A	42.705386	-73.813218
Tabernacle_Baptist_Church	A	42.795758	-73.920708
The_Clock_Works	D	42.7832	-73.907679
St_Ann_Maronite_Catholic_Church	A	42.731059	-73.702854
St_Basil_Russian_Orthodox_Greek_Catholic_Church	A	42.742196	-73.702924
Joey's_Pizzeria	B	42.713735	-73.706555
Birchwood_Elementary_School	A	42.772823	-73.841468
The_Hot_Yoga_Zone	B	42.783046	-73.890645
Homestyle_Pizza	B	42.803387	-73.901851
Domino's_Pizza	B	42.713943	-73.828158
Occupational_Medical_Services_PC	A	42.712621	-73.873025
Stewart's_Shops	C	42.697171	-73.768856
John_Milham_DC	A	42.77106	-73.755876
Grapeville_Agency_Inc	C	42.691837	-73.802818
El_Charro_Mexican_Grill	B	42.762591	-73.798683
United_Way	B	42.758411	-73.78475
Casey_Francis_B_OD	A	42.686365	-73.854799
Bike_Barn_Cycling_&_Fitness	C	42.773878	-73.700869
Tru_Images	B	42.657931	-73.765765
Ted's_Fish_Fry	B	42.711706	-73.709099
Arvind_Salgam_RE_MAX_Capital	C	42.687071	-73.858675
Monro	D	42.714733	-73.830334
Pandora	C	42.689187	-73.848986
Latham_Family_Vision	A	42.744538	-73.75223
Family_Dog_In_Home_Dog_Training	B	42.740584	-73.784184
Gillenwalters_David_W_DDS	A	42.805885	-73.908307
Apex_Sports_Performance_NY	B	42.696039	-73.824105
Aronowitz_Eric_R	A	42.725807	-73.936039
Stewart's_Shops	C	42.697847	-73.791439
My_Fathers_House_Ministries	A	42.712919	-73.709449
Paesan's_Pizza	B	42.73352	-73.762896
St_Adalbert_Catholic_Church	A	42.803873	-73.948489
Smooth_Reflections	B	42.770595	-73.823588
Tri_City_Auto_Parts	C	42.790747	-73.915991
The_Church_Of_Pentecost	A	42.765462	-73.888864
T_Swirl_Crepe	B	42.730225	-73.761767
Smokers_Choice	C	42.661959	-73.776835
Mobil	C	42.815903	-73.892182
WFM_Coffee_Bar	B	42.710277	-73.816543
Catholic_Daughters_Of_The_Americas	A	42.714549	-73.771312
Dairy_Queen	B	42.720549	-73.836883
Speedway	C	42.721016	-73.803694
Merry_Maids	D	42.765013	-73.755729
Village_Auto_Body_Shop	D	42.723153	-73.838597
Marshalls	C	42.776139	-73.891706
Things_Remembered	C	42.688477	-73.849262
Vanessa_Saari_Monticello	C	42.736931	-73.844662
Al_Baraki	A	42.773248	-73.700727
Amanda's_Errands_and_Events	C	42.746907	-73.842344
The_Home_Depot	C	42.782	-73.918161
River_Road_Internal_Medicine	A	42.829166	-73.888855
Weight_Watchers	B	42.781071	-73.955499
Metamorphose_Salon	B	42.726362	-73.84237
Vince_Kendrick_Jewelers	C	42.774968	-73.701225
Woodlawn_True_Value_Hardware	C	42.776643	-73.90026
Dean_Auto_Sales_of_Albany	C	42.749326	-73.870176
Richard_W_Glover_DDS	A	42.814861	-73.891084
Spitzie's_Motorcycle_Center	C	42.74006	-73.859739
The_Shaker_Heritage_Society	B	42.740889	-73.811961
Truewind_Solutions	C	42.692045	-73.831759
St_Gregorys_School_For_Boys	A	42.720859	-73.768104
Chili's_Grill_&_Bar	B	42.714475	-73.814041
Niskayuna_Internal_Medicine	A	42.829136	-73.888699
Demarco_Stephen_J_DMD	A	42.683628	-73.770981
Hi_Tech_Nails	B	42.730157	-73.702388
Empire_Wine	C	42.707038	-73.825718
Millview_Assisted_Living	B	42.765817	-73.754104
Al_Aqsa_Meat_and_Grocery	C	42.739362	-73.736166
Karamsar_Inc	A	42.748761	-73.848885
Boys_&_Girls_Clubs_of_America	B	42.79914	-73.939521
Smile_Direct_Club	A	42.680979	-73.847101
Mobil	C	42.771526	-73.893648
Beff's_PWB	B	42.747013	-73.758643
Cafe_Monocle	B	42.774231	-73.700929
Adirondack_Wood_Shed	C	42.765768	-73.888447
Cocca's_Appliances	E	42.706373	-73.826759
Treviso_By_Mallozzi's	B	42.706359	-73.85914
Trinity_Health	A	42.776701	-73.87906
Albany_Curling_Club	A	42.675817	-73.845868
One_Stop_Car_Shop	C	42.7958	-73.922096
Sefcu	C	42.690539	-73.832021
House_of_Spices_India	C	42.738711	-73.762782
Cali_Nail	B	42.728257	-73.759761
Albany_NY_Fitness_&_Revolution_Fitness_NY	B	42.69846	-73.828731
Amazing_Grace_Transportation	E	42.788201	-73.912169
Suzuki	C	42.814731	-73.731807
New_York_Oncology_Hematology_PC	A	42.77215	-73.753017
7-Eleven	C	42.757817	-73.758049
McDonald's	B	42.729883	-73.847659
Hitch's_Detailing	E	42.713303	-73.829961
Northeast_Parent_&_Child_Society	A	42.791607	-73.928398
Self_Expressions_Hair_Designs	B	42.774864	-73.932494
A_Place_Called_Om	B	42.696565	-73.885432
Pizza_Hut	B	42.781546	-73.951712
Greek_On_the_Run	B	42.700442	-73.818163
Animal_House	C	42.76992	-73.701756
Golden_Krust_Bagels	B	42.762111	-73.752493
Havoc_Archery	C	42.72349	-73.84031
Route_20_Butcher_&_Deli	C	42.689831	-73.86614
Nan_Nail	B	42.695013	-73.807565
Anker's_Fish_House	B	42.792973	-73.93193
Euro_Deli_and_Market	B	42.758614	-73.767203
C_M_N_Funding	A	42.712712	-73.82788
GNG_Auto	D	42.774592	-73.707067
The_Candy_Cottage_and_Gifts	C	42.781557	-73.746312
St_Paul_The_Apostle_Church	A	42.780601	-73.90768
Equal_Vision_Records	C	42.695664	-73.82739
Clark_Clements_Klein_and_Syeda	A	42.726893	-73.759777
Shanghai_Grill	B	42.727682	-73.761134
Top_Fine_Jewelry	C	42.746927	-73.758166
The_Fresh_Market	C	42.735682	-73.76317
Keystone_Automotive	C	42.725432	-73.853535
Cap_Com_FCU	C	42.715546	-73.804398
Mill_Road_Acres_Golf_Course	B	42.766351	-73.795947
Yankee_Boating_Center	C	42.746309	-73.866073
Valente's_Restaurant	B	42.715956	-73.706158
Living_Resources	B	42.708811	-73.866561
Spectrum	C	42.773921	-73.892811
Boys_&_Girls_Clubs_of_America	B	42.673497	-73.816308
Cusack_&amp_Company_CPAs	A	42.756439	-73.820353
Tai_Chi_&_Kung_Fu_Assoc	A	42.674534	-73.834273
Pizza_Express	B	42.676518	-73.824085
Dragon_City	B	42.676454	-73.82392
Discount_Dumpsters	E	42.772754	-73.715815
Frederick_J_Marra_DMD	A	42.769628	-73.700693
Panera_Bread	B	42.713352	-73.813801
Kidz_Korner	A	42.743247	-73.790291
Denny's	B	42.756078	-73.77488
Body_&_Skin_Spa	B	42.781362	-73.905998
Dunkin'	B	42.685549	-73.796902
Alternative_Health_Services	A	42.745073	-73.753813
Tullio_Hair_Studio	B	42.689503	-73.850733
Albany_Homecare_and_Staffing	B	42.72145	-73.801563
Citizens_Bank	C	42.78315	-73.891602
DSW_(Designer_Shoe_Warehouse)	C	42.688054	-73.84819
Kids_Express_And_Achievements_At_Maplewood_School	A	42.743105	-73.701547
Firefly_Firearms	C	42.826185	-73.911496
Letteriello_Denise_DO	A	42.695183	-73.878744
Northwestern_Mutual	C	42.68845	-73.775511
M&T_Bank	C	42.717253	-73.807692
Brittany_Jewelers	C	42.719177	-73.834116
Albany_Dental_Care	A	42.692498	-73.774237
Krazh_Productions	A	42.68292	-73.800354
Cifarelli_Joni_Csw	A	42.738959	-73.841272
Heavy_Duty_Plumbing_&_Heating	A	42.794051	-73.918936
Greater_Faith_Christian_Center_Inc	A	42.797609	-73.91782
Best_Western	B	42.725134	-73.799959
The_Barber_Parlor	B	42.690282	-73.80116
Mont_Pleasant_Middle_School	A	42.797689	-73.940089
The_College_of_Saint_Rose	B	42.664087	-73.785649
Family_Dollar_Stores	C	42.79177	-73.915957
Skyloft	B	42.689255	-73.849854
Sunoco	C	42.7578	-73.758038
Cosimo's_Pizza_II	B	42.710487	-73.816306
Subway	B	42.720716	-73.801966
Karl_Meehan_Goosehead_Insurance_Agent	C	42.692382	-73.872367
Geoffrey_B_Edmunds_DDS	A	42.696331	-73.884515
Sutters_Mill_and_Mining	B	42.677338	-73.826424
China_Star	B	42.783382	-73.94421
New_Loudon_Chiropractic	B	42.726867	-73.761864
Comfort_Inn	B	42.769309	-73.753054
Wallwork_Group_Albany	C	42.694321	-73.813238
KeyBank	C	42.734693	-73.852817
Pizza_Stop	B	42.773928	-73.703342
Mohawk_Army_Navy	C	42.757181	-73.757012
Sunoco	C	42.67661	-73.822606
Dialysis_Clinic_Inc	A	42.699176	-73.851836
Gerard's_Auto_Stop_Inc	D	42.772072	-73.713883
St_Peter's_Health_Care_Services	A	42.721348	-73.801414
aerie	C	42.688501	-73.849279
Capitol_Steaks_&_Seafood	C	42.723224	-73.814673
American_Red_Cross_Rensselaer_County_Chapter	B	42.689324	-73.777664
Maurice's_Sandwich_Shops	B	42.776428	-73.899058
Courtyard_by_Marriott	B	42.725857	-73.795512
Field_Realty	C	42.742917	-73.742204
CVS	A	42.790275	-73.938484
Boomer_McLoud_At_Car_Essentials	C	42.788806	-73.936501
Capital_Region_Orthopaedics	A	42.758936	-73.776967
True_Value_Hardware	C	42.693136	-73.817695
The_Nurse_Connection_Staffing_Inc	B	42.720071	-73.808785
Ed's_Barber_Shop	B	42.804269	-73.904025
Makarachi_Ahad_MD	A	42.758068	-73.777338
Lcs_&_Z_Llp	A	42.773105	-73.75845
Williams-Sonoma	C	42.688258	-73.847824
Massage_Envy	B	42.773274	-73.892829
Smiles_Unlimited	A	42.706901	-73.766816
Kreative_Ink	B	42.663391	-73.77532
Hertz	C	42.828875	-73.875699
New_Apostolic_Church_Of_Schenectady_Ny	A	42.7302	-73.922401
T_Shirt_Spot	C	42.688494	-73.849251
Chris'_Coffee_Service	B	42.702174	-73.880172
Design_Nail_Salon	B	42.782555	-73.955168
Kingdom_Wealth_Management	C	42.659702	-73.773928
Ehrlich_Edward_A_Optmtrst	A	42.710388	-73.816291
Capitaland_Dental_Associates	A	42.742988	-73.742509
Stewart's_Shops	C	42.815854	-73.892003
Woodlawn_School	A	42.770343	-73.90472
Leslie's_Swimming_Pool_Supplies	C	42.757337	-73.76164
Bangkok_Thai_Restaurant	B	42.709453	-73.821807
Natural_Image_Electrolysis	C	42.767892	-73.817476
J_K_Kenpo_Cardio_Kickboxing_&_Tanning	A	42.751908	-73.907032
Cornerstone_Christian_Church	A	42.672897	-73.849298
Valvoline	D	42.743039	-73.761494
205_on_Wolf	B	42.723575	-73.797366
Almas_Misioneras	A	42.679875	-73.842535
Patio_Enclosures	C	42.726049	-73.856118
M&T_Bank	C	42.747305	-73.923049
Albany_Chinese_Christian_Church_Inc	A	42.726997	-73.744902
Nori_Japan	B	42.710755	-73.816207
Sadudee_Thai_Food	B	42.724499	-73.700499
Cumberland_Farms	C	42.692659	-73.803394
Hardy_Anton_G_PHD	A	42.665431	-73.789113
Stewart's_Shops	C	42.674113	-73.8166
Mr_Subb	B	42.707591	-73.778429
Walmart_Pharmacy_10_2264	A	42.785279	-73.941683
Jean_Paul_Day_Spa_&_Hair_Salons	B	42.684966	-73.84066
The_LASIK_Vision_Institute	A	42.683213	-73.770136
Cortnee_Whipple_DC	A	42.698001	-73.768635
Hoffman_Development_Corp	D	42.727409	-73.842802
Pickles_Deli	B	42.757949	-73.81908
The_W_Salon	B	42.73865	-73.728883
Celadon_Thai_Bistro	B	42.824831	-73.911306
La_Famiglia	B	42.728445	-73.846824
Frank's_Ice_Cream	B	42.707604	-73.778442
Alina_Dellanzo_DDS	A	42.68548	-73.839057
LUKOIL_North_America	C	42.807075	-73.914047
Awaken_Church	A	42.794185	-73.89393
Dipace_Charles_J_Dr_Chirprctr	A	42.751407	-73.759378
Colonie_Youth_Center_Inc_Veeder_School	A	42.754628	-73.864305
Salon_Cristina	B	42.783342	-73.944152
J's_Kitchen_Chinese	B	42.74094	-73.762567
Sublime_Hair_Studio_Inc	B	42.701871	-73.818325
Berdar's_Auto_Service	D	42.7732	-73.69809
Motion_Industries	C	42.716177	-73.841782
Brown_Bag_Sub_Shoppe_3	B	42.804929	-73.904402
St_Kateri_Parish_School	A	42.801294	-73.896583
Ezria_Brown_Rijo_Realty_Group	C	42.728677	-73.743134
Rafani_Leather	C	42.688471	-73.849252
Carrier_Enterprise	C	42.695136	-73.815659
Side_Door_Cafe	B	42.686142	-73.854247
FUCCILLO_NISSAN_OF_LATHAM	C	42.769272	-73.754788
TownePlace_Suites_by_Marriott	B	42.756746	-73.773084
Speedway	C	42.754046	-73.700201
LeafFilter_Gutter_Protection	D	42.715663	-73.842652
Malo's_Barber_Shop	B	42.769662	-73.702762
Graham's_Coffee_Parlor	B	42.773228	-73.896317
Dennis_Holzman_Antiques	C	42.773989	-73.700888
LY_Nails	B	42.689851	-73.85183
Fantastic_Sams	B	42.78332	-73.944107
Grill_&_Wraps	B	42.710219	-73.816184
Safelite_AutoGlass_Albany	D	42.695944	-73.8817
Moore's_Wholesale_Tire_Sales	C	42.693702	-73.818652
Accent_Furniture	C	42.702444	-73.830758
LIA_NISSAN	C	42.764415	-73.885283
Medozas_Auto	D	42.782123	-73.706322
Andaaz_Boutique	C	42.712728	-73.828007
State_Farm	C	42.723432	-73.936249
Regional_Emergency_Medical_Organization	A	42.721462	-73.83613
O'Reilly_Auto_Parts	C	42.704651	-73.819134
Harmony_House_Marketplace	C	42.771533	-73.700914
Shear_Beauty	B	42.746403	-73.700842
Dunn_Elizabeth_Csw	A	42.79947	-73.904297
Yonder_Farms_Cider_Mill_&_Bake_Shoppe	B	42.728063	-73.857808
Burger_King	B	42.696355	-73.882363
Elite_Marble_And_Stone	A	42.751216	-73.760655
St_Peter's_Bender_Laboratory	A	42.70243	-73.825112
Pinebush_Kennels	B	42.723383	-73.86409
Albany_Pizza	B	42.71029	-73.816539
Hamilton_Elementary_School	A	42.796382	-73.949178
Calvary_Cemetery	B	42.759565	-73.701053
Hearing_Health_LLC	A	42.694874	-73.847147
Melissa_Johnson_LMT	B	42.71582	-73.831428
Chams_Consulting_&_Translation	A	42.783659	-73.911358
Moe's_Southwest_Grill	B	42.729114	-73.847161
Jaeda_Beauty_Supply	A	42.800134	-73.927102
Dmv	A	42.775515	-73.897615
St_Pius_X_Church	A	42.695569	-73.761512
Silhouettes_Hair_Design	B	42.690925	-73.869337
Fiorello_Importing_&_Luigi's_Deli	B	42.676587	-73.82462
Capital_Smiles	A	42.807017	-73.909778
7_Cleaners	E	42.761844	-73.796151
Hot_Harry's_Fresh_Burritos	B	42.804789	-73.904111
LT's_Grill	B	42.816728	-73.891488
Cricket_Wireless	C	42.688467	-73.849259
Bishop's_Tractor_Trailer_Training_School	A	42.754773	-73.903456
Fms_Capital_District_Dialysis_Center	A	42.802891	-73.915882
Colonie_Town_Court	A	42.736604	-73.792727
Colonie_Youth_Center_Inc_Blue_Creek_School	A	42.741357	-73.753112
Berry_&_Berry	B	42.689543	-73.849824
D_&_L_Hospitality	E	42.774182	-73.69991
Walgreens	A	42.763011	-73.754694
Prudential_Financial	C	42.760251	-73.819237
Lab_Corporation	A	42.72764	-73.75981
Albany_Marine_Svce_Marina	B	42.819378	-73.728358
Penguin_Premium_Frozen_Yogurt	B	42.754208	-73.761192
Good_Dog_Training_Center	B	42.691054	-73.807764
Marotta's_Pizza_&_Catering	B	42.783445	-73.912157
Pet_Supplies_Plus	C	42.677354	-73.823185
Christopher_Myers_RE_MAX	C	42.687076	-73.858664
LUKOIL_North_America	C	42.728858	-73.701278
Sunoco	C	42.685773	-73.78275
Primerica	A	42.754876	-73.774929
Smith's_Beauty_Supply_Stores	A	42.737821	-73.724066
Pub_Laurent	B	42.77221	-73.712482
Goodyear_Auto_Service_Centers	D	42.712735	-73.816592
Lemondrop_Frozen_Yogurt	B	42.713788	-73.813378
American_Eagle_Outfitters	C	42.710592	-73.815133
Dealzzz_Discount_Outlet_Clothing_&_Thrift	C	42.783431	-73.946352
Executive_Woods_Childcare_Inc	A	42.689045	-73.776977
The_Shop	B	42.759459	-73.786554
DENOOYER_CHEVROLET_INC	C	42.717792	-73.80659
Danjen_Computers	C	42.78726	-73.936231
Excelsior_Credit_Union	C	42.728497	-73.85493
Capital_Care_Medical_Group	A	42.829137	-73.88867
Capital_Area_Speech_Center	A	42.693193	-73.873258
The_Pet_Zone	C	42.689236	-73.849818
St_Madeleine_Sophie_School	A	42.741253	-73.94363
Pilgrim_Holiness_Church	A	42.774692	-73.951874
Beck_Gerald_J_DDS	A	42.771859	-73.757462
AutoZone	C	42.689933	-73.864074
Seagroatt_Riccardi_LTD	C	42.751131	-73.778118
Vintage_Pizza	B	42.738056	-73.762976
Advance_Auto_Parts	C	42.776714	-73.906494
Xtramart	C	42.715022	-73.931725
Maggie_McFly's	B	42.689311	-73.851121
Bryant_&_Stratton_College_Albany	A	42.698644	-73.809191
Simon's_Men's_Wear	C	42.804757	-73.903744
Mark_Thomas_Men's_Apparel	C	42.719524	-73.801962
Amtech_Insurance_Brokers_Inc	C	42.752534	-73.776678
Our_Lady_Of_Fatima_Church	A	42.828154	-73.90569
Forts_Ferry_Elementary_School	D	42.764533	-73.777912
Capital_Gate_Insurance_Group	C	42.732339	-73.848583
Pan_Dermatology_PC	A	42.693045	-73.774224
Pioneer_Bank	C	42.693229	-73.874839
Jeanette_Perkins	A	42.693232	-73.873233
Cdy_Albany_Pine_Hills	A	42.667271	-73.790488
Ronco_Communications	C	42.73485	-73.793077
Mr_Subb	B	42.764688	-73.746705
SCP_Distributors	C	42.741318	-73.792735
Holiday_Inn_Express_Albany_Western_Ave_University	B	42.679105	-73.836356
Juvederm_Permanent	A	42.67839	-73.83032
Uptown_Beverage	C	42.780883	-73.953621
Dunkin'	B	42.783738	-73.912807
CAP_COM_Federal_Credit_Union	C	42.728492	-73.854948
Niskayuna_Farmers_Market	C	42.819047	-73.885499
Dianetics_Foudation	A	42.697366	-73.885537
Dunkin'	B	42.803978	-73.903208
Fantasy_Floral_Designs	C	42.777235	-73.934079
Rickard_Insurance_Agency	C	42.774515	-73.952975
MTM_Pharmacy_Services	A	42.738084	-73.842255
Omlins_Auto_Sales_&_Service	D	42.768121	-73.910109
Trustco_Bank	C	42.728394	-73.760929
Sergo_Auto	D	42.664101	-73.777061
Yo_D_Sert	B	42.689413	-73.850691
Mansion_Square	C	42.774992	-73.89393
Micho's_Hair_Salon	B	42.706821	-73.777785
Cohoes_Fire_Department_Station_1	A	42.768815	-73.704154
Cohoes_Music_Hall	A	42.775679	-73.701671
Decker's_Pondscapes	C	42.789158	-73.737591
Bob's_Car_Cleaning	D	42.778771	-73.902632
Goldfish_Swim_School	A	42.717733	-73.803134
Garden_Grille	B	42.74637	-73.818746
Light_Of_The_World_Christian_Church_Inc	A	42.767863	-73.77707
Dillman_Randall_L	D	42.8214	-73.8988
Tala_An_American_Bistro	B	42.73167	-73.762547
Stadium_Golf_Club	B	42.778719	-73.918313
Jenny_Craig	B	42.735623	-73.763835
Flores_Family_Restaurant	B	42.794515	-73.919447
The_Men's_Wearhouse	C	42.710713	-73.82039
The_Fresh_Market_Commons	C	42.736036	-73.763854
LKQ	C	42.725402	-73.853532
Linda's_Nails_&_Spa	B	42.76972	-73.892691
Old_State_Road_Motorcar	C	42.724708	-73.934199
Church_of_Christ	A	42.823749	-73.891694
Meyer_Carl_W_DDS	A	42.672157	-73.790321
McDonald's	B	42.684213	-73.848562
Wallwork	E	42.691023	-73.807759
Super_Mario_Salon	B	42.68949	-73.850731
A_Frame_Imperial_Pools	C	42.730574	-73.760722
Staybridge_Suites	B	42.713013	-73.811481
Keilens_Body_Shop	D	42.738222	-73.763978
Sprint	C	42.713641	-73.813423
Edward_Jones	A	42.695218	-73.878831
Thoughts_&_Best_Wishes	C	42.73768	-73.761735
OneMain_Financial	A	42.743644	-73.749293
Walmart_Supercenter	C	42.746527	-73.764228
Perazzelli_Michael_E	A	42.716007	-73.809997
Frederick's_Landscaping	C	42.778605	-73.886993
Sally_Beauty_Supply	A	42.782597	-73.94277
Delma's_Diner_&_Restaurant	B	42.703107	-73.815464
Trinity_Health	A	42.777173	-73.878467
DiBella's_Subs	B	42.755284	-73.776576
City_Nail_&_Spa	B	42.752836	-73.76266
MyHotTub	C	42.689328	-73.848421
Bimbo_Bakeries	B	42.777814	-73.901521
Siena_College_Book_Store	C	42.717715	-73.752461
The_Crossings_Of_Colonie	B	42.717241	-73.792536
DeSanti_Family_Dentistry	A	42.723738	-73.821905
Rite_Aid	A	42.73325	-73.849853
Holistic_Counseling	A	42.674981	-73.849611
Loudon_Travel	B	42.706439	-73.77467
Samurai_Japanese_Restaurant	B	42.721692	-73.803266
Nail_7	B	42.763573	-73.798688
Stepping_Stone_Massage	B	42.781973	-73.953118
State_Farm	C	42.769712	-73.892676
Seventh_Day_Adventist_Church_Greater_Albany	A	42.766984	-73.732528
Northeast_Information_Systems	C	42.738602	-73.820835
Moroccan_Tajine	B	42.770904	-73.82434
Staples	C	42.707695	-73.822603
Casa_Flora	C	42.727454	-73.761132
A_A_Mazzone's_Auction_Svce	C	42.755708	-73.943329
Forts_Ferry_School	A	42.764527	-73.777552
School_Street	E	42.784011	-73.707647
Innovo_Kitchen	B	42.771334	-73.824173
Rascals	B	42.689472	-73.850743
Schenectady_Pediatric_Dentistry	A	42.805361	-73.904397
George_Street_Park	B	42.765479	-73.702654
Hannaford_Plaza	C	42.783036	-73.94369
Landmark_Health_Albany	B	42.773166	-73.821785
You're_Perfect_Threading_&_Hair_Design_Salon	B	42.701728	-73.818422
Metro_by_T_Mobile_Authorized_Dealer	C	42.800002	-73.925666
Hidden_Treasures	C	42.777263	-73.900029
Express_Factory_Outlet	C	42.710622	-73.815164
Recovrey_For_Addiction	B	42.69518	-73.878757
Ballston_Spa_National_Bank_(BSNB)	C	42.695061	-73.879511
The_Great_Escape_Room	B	42.692449	-73.774191
Crave_Burgers_Frozen_Yogurt	B	42.662149	-73.777447
Kohl'S_Plaza_Shopping_Center	C	42.729388	-73.848974
Anixter	C	42.710041	-73.865466
Midas	D	42.724839	-73.841694
Albany_FIT_Strength_&_Conditioning	B	42.710939	-73.843606
BARE_Juice_Bar	B	42.685392	-73.840245
Uncle_Sam's_Candy	C	42.782744	-73.910442
East_Coast_Tire_&_Service_Centers	C	42.729524	-73.701843
Soccer_Unlimited	C	42.698513	-73.812051
Dot_Peyron_Amedore_Homes	C	42.692725	-73.875954
Adirondack_Paddle_N_Pole	C	42.755082	-73.875058
Buffalo_Wagon	B	42.720115	-73.801203
Old_Navy	C	42.688398	-73.847837
Sweet_Bacon_Therapy	E	42.693683	-73.773323
1_Esthetic	B	42.805291	-73.905106
Chroma_Salon_and_Spa	B	42.692191	-73.871314
Priority_Sewer_And_Drain_Service	A	42.786807	-73.944374
Airgas	C	42.724427	-73.854717
Pathology_Assoc_of_Albany_PC	A	42.734938	-73.792952
Wall_Street_Dental_PC	A	42.761297	-73.940899
Albany_County_Correctional_Facility	A	42.751276	-73.816535
Shoss_Donna_LCSW	A	42.671166	-73.807366
Elevation_Ten_Thousand	C	42.771987	-73.755309
Provence_Restaurant_&_Wine_Bar	B	42.68474	-73.839677
LUSH	A	42.688507	-73.849242
Steven_N_Barr_DC	A	42.68958	-73.866237
Dream_Autos	D	42.789761	-73.938254
Lozman_Orthodontics	A	42.762799	-73.746007
Holiday_Inn_Express	B	42.76179	-73.75453
Colonie_Youth_Center_Inc_Saddlewood_School	A	42.732873	-73.838734
Smokers_Choice	C	42.804185	-73.902353
Health_Street	A	42.684745	-73.837752
Barbosium_Fitness	B	42.75955	-73.878768
CBRE_Albany	C	42.683406	-73.846914
Ritual_518	B	42.6896	-73.866211
Outback_Steakhouse	B	42.718374	-73.805118
Albany_Family_Dentistry	A	42.72744	-73.761851
Na	B	42.83291	-73.905828
Raymour_and_Flanigan_Furniture	C	42.777195	-73.890471
Jay_Allen_Barber_Studio	B	42.731668	-73.847601
Vito's_Italian_Cafe	B	42.742628	-73.838382
Amazing_Wok	B	42.732851	-73.854856
John's_Body_Shop	D	42.787047	-73.934322
Love_of_the_Craft_Barbershop	B	42.69136	-73.802419
John_V_Bucher_DDS	A	42.693443	-73.873836
Chemung_Canal_Trust_Company	C	42.713715	-73.813332
Bruegger's	B	42.717302	-73.81287
Gallagher_Insurance_Risk_Management_&amp_Consulting	C	42.772222	-73.75938
Service_Tire_Truck_Center	C	42.697692	-73.826828
Jarvis_Virginia_R_DVM	A	42.681858	-73.841866
Trustco_Bank	C	42.739384	-73.733967
Cumberland_Farms	C	42.740233	-73.735449
Ryan_J_Hoffman	C	42.761921	-73.796372
Endoscopy_and_Surgical_Care_Suite	A	42.758727	-73.776899
Stewart's_Shops	C	42.742909	-73.837527
Colonie_Plaza	C	42.732675	-73.854422
Duniya_Supermarket_and_Grille	C	42.738071	-73.762586
Scoups_Homemade_Ice_Cream	B	42.716912	-73.786519
Sweet_Temptations	E	42.707431	-73.777083
Burger_Studio	B	42.663953	-73.787089
LT's_Mexican_Grill	B	42.81674	-73.891413
New_York_Style_Pizza	B	42.762119	-73.752702
Grosso_Jeanne_J_DMD	A	42.827771	-73.892435
State_St_&_Mansion_Blvd	C	42.774184	-73.89623
Health_Street	A	42.72729	-73.844928
Phoenician_Mediterranean_Palace	B	42.699138	-73.824891
The_Rusty_Anchor	B	42.729694	-73.697578
Abrunchabrunch	B	42.68946	-73.850746
Golden_Phoenix	B	42.816523	-73.890751
Shaker_Park	B	42.677492	-73.760718
Health_Street	A	42.774345	-73.750986
Sun_Nails	B	42.784564	-73.742833
Sand_Dollar_Associates	B	42.720172	-73.808824
House_of_Dogs	C	42.7393	-73.736142
Buchakjian_Leonard_M_PC	A	42.806529	-73.909932
Spencer_Gifts	C	42.709905	-73.816957
Lena_Nail_Spa	B	42.714641	-73.828964
Roman_Jewels	C	42.688638	-73.860518
Family_Theater_Ministries_Inc	A	42.694822	-73.887361
Jason_Solghan_Mortgage_Loan_Officer	C	42.770828	-73.821014
Recovery_Sports_Grill	B	42.779898	-73.955365
Chabad_Of_Colonie_Inc	A	42.71807	-73.778747
Fresenius_Kidney_Care	A	42.700118	-73.852611
Farmers_Insurance_Group	C	42.712944	-73.828023
First_New_York_Credit_Union	C	42.742474	-73.841271
Colonie_Diner	B	42.734066	-73.852141
Moe's_Southwest_Grill	B	42.71074	-73.816506
Upstate_Podiatry_Services_Scott_Pickett_DPM	A	42.803713	-73.914627
Everything_Pets	C	42.710777	-73.816542
Dunkin'	B	42.745506	-73.809209
Staged_Nest_Real_Estate	C	42.727799	-73.761759
Carter's	C	42.709319	-73.81762
Capitaland_Auto_Service	D	42.691183	-73.80634
Mr_Subb	B	42.710523	-73.816368
Albany_Massage	B	42.696382	-73.770087
rue21	C	42.709992	-73.816297
Family_Bible_Church	A	42.773201	-73.93572
Northeast_Wealth_Management	A	42.685427	-73.838955
Harmony_Hill_School	A	42.775032	-73.718936
J_P_Gas_&_Mart	C	42.795104	-73.929779
Anthony's_Chocolate_Dipped_Fruit	C	42.723342	-73.838898
Macaroni_Grill	B	42.720212	-73.802765
GottaVape	C	42.780884	-73.953758
WKA_Marketing	C	42.665595	-73.80639
Comfort_Family_Dentistry	A	42.776225	-73.699952
Top_Notch_Barber_Shop	B	42.804553	-73.918998
Jewish_Community_Center_Of_Schenectady_Craig_Elementary	A	42.832089	-73.894032
Mechelle's_Way_Tae_Kwondo_&_Cardio_Kickboxing	A	42.784033	-73.9191
Montessori_Magnet_School	A	42.683388	-73.799405
Bruegger's	B	42.727214	-73.761105
Tirella_Michael_H_Dr_Chirprctr	A	42.743531	-73.759101
Boys_&_Girls_Clubs_of_America	B	42.795635	-73.950111
Christmas_Tree_Shops	C	42.709343	-73.817157
Mr_Dealz	C	42.73198	-73.848377
Pep_Boys	C	42.729813	-73.845221
Holy_Trinity_Church	A	42.777508	-73.712903
Bel_Cibo	C	42.803158	-73.901162
Bryant_&_Stratton_College	A	42.697977	-73.80957
Davco_Masonry	A	42.731637	-73.704018
Tsl_Adventures_Llc_Clc	A	42.681617	-73.841119
Yarong_Wang	B	42.709633	-73.863421
Taco_Bell	B	42.737446	-73.762813
Subway	B	42.773378	-73.6973
Hewitt's_Guilderland	C	42.694635	-73.877588
99_Cents_City	C	42.70769	-73.822721
Sephora	A	42.710086	-73.816971
Wendy's	B	42.689226	-73.850406
More_Bread_and_Jam_Cafe	B	42.773274	-73.701325
CVS	A	42.705483	-73.823731
Allegiant_Air	E	42.746708	-73.808249
Destination_XL	C	42.711496	-73.820475
Hanna_Commercial_Albany	C	42.714967	-73.803829
Bryans_&_Gramuglia	A	42.709549	-73.864287
Marino's_Flying_Pizza_&_Restaurant	B	42.79754	-73.922843
Marble_and_Granite	A	42.733143	-73.85749
Glennpeter_Jewelers	C	42.714467	-73.829852
Sunoco	C	40.695309	-73.424546
Panache_Spa	B	42.692205	-73.871338
A_True_North_Massage	B	42.685187	-73.868458
Ardene	C	42.69002	-73.852535
Chase	C	42.675913	-73.824044
Mavis_Discount_Tire	D	42.682723	-73.79235
Verilife_Albany	C	42.687212	-73.842258
North_Country_Financial_Group	A	42.734249	-73.793188
Eastern_Parkway_United_Methodist_Church	A	42.802662	-73.901567
Pathways_Nursing_And_Rehabilitation_Center	B	42.830152	-73.896269
Best_Fitness	B	42.698162	-73.825803
Sharon_Fellowship_Church_Of_Albany	A	42.690151	-73.865008
Lancaster's_Automotive	D	42.796052	-73.923144
Pinnacle_Behavioral_Health	A	42.678309	-73.836483
Cornwell_Appliance	D	42.70399	-73.816791
iLoveKickboxing	B	42.719524	-73.801926
Drome_Sound_Music_Store	C	42.778148	-73.900887
All_in_Adventures	B	42.688205	-73.848131
River_Road_Park	B	42.802178	-73.864269
Northrup_Dennis_E_Insurance	C	42.69349	-73.878192
Maywood_Pocket_Park	B	42.745233	-73.856875
Subway	B	42.804563	-73.902858
Akullian_Creative	A	42.681833	-73.848582
Zales	C	42.710492	-73.816302
Applebee's	B	42.783266	-73.91538
Stewart's_Shops	C	42.737866	-73.732134
Yuan_Nail_&_Spa	B	42.772718	-73.701201
McLaughlin_Judd_Physical_Therapy	A	42.746269	-73.943081
Hair_Razors_Salon_Spa_&_Boutique	B	42.802538	-73.900132
United_States_Postal_Service_(USPS)	C	42.793803	-73.932297
Pearl_of_the_Orient	B	42.707414	-73.776911
Beauty_&_Bliss	B	42.751298	-73.871872
Harness_Horse_Breeders_of_New_York_State	B	42.744539	-73.752268
Skin_Deep	B	42.746797	-73.757713
The_Lewis_M_Fowler_Camp_&_Retreat_Center_Regional_Synod_Of_Albany_Re	A	42.814893	-73.905415
CarMax	C	42.732136	-73.852942
Alden_March_Care_Pathology_Group	A	42.734967	-73.79297
Party_City	C	42.774872	-73.889594
Trustco_Bank	C	42.762204	-73.751126
The_Zone_Fitness_Center	B	42.782976	-73.890708
Schenectady_Surgical_Care_Associates_PC	A	42.803694	-73.91461
Farer_&_Schwartz_PC	C	42.770423	-73.756898
Cheryl_Frye_PHD	A	42.665409	-73.789128
Ace_Hardware	C	42.737729	-73.764677
Shiny_Nail_&_Spa	B	42.738427	-73.76253
Good_Ground_Family_Church	A	42.775989	-73.70708
Bradley_Agency	C	42.696584	-73.885407
Boston_Market	B	42.743667	-73.761276
Stepping_Stone_Preschool_&_Day_Care_Center	A	42.772828	-73.751886
Albany_Park_Ride_&_Fly	B	42.730473	-73.794419
Pine_Hills_Elementary_School	A	42.667289	-73.790635
A_Perfect_Setting	B	42.723389	-73.801334
Lowe's	C	42.773448	-73.88969
Phibbs_Power_Sports	C	42.703456	-73.775973
Capital_District_Massage	B	42.724309	-73.841252
Acute_Care_Gases	B	42.713428	-73.845409
SiteOne_Landscape_Supply	C	42.748412	-73.735074
GameStop	C	42.748508	-73.763573
Excelsior_College	A	42.705024	-73.863241
Apicella_Edward_Dr	A	42.6855	-73.765634
Sleep_Number	C	42.688954	-73.848592
China_Max	B	42.689205	-73.849919
Bumble_Beads	C	42.730135	-73.761668
Sushi_Tei	B	42.689579	-73.866211
Triumph_Auto_Glass	D	42.695929	-73.881697
MiaMaria_Beauty_Boutique	B	42.777596	-73.934043
Capital_Region_Orthopaedics	A	42.758717	-73.776914
Total_Ryder_In_Motion	B	42.698479	-73.828763
WellNest_Studios_Fitness_and_Wellness	B	42.762411	-73.798248
Sefcu_A_Federal_Credit_Union	C	42.764063	-73.75471
Maple_Leaf_Day_Care_Center	A	42.741323	-73.942218
Roman_Pizza	B	42.739427	-73.736289
Arlene's_Artist_Materials	C	42.700274	-73.821522
CrossFit	B	42.688108	-73.793722
Penseys	C	42.683769	-73.8408
Pine_Hills_Market	C	42.661843	-73.780605
Crispy_Basil_Artisan_Pizza_Albany	B	42.687136	-73.855534
Central_Market_Florist	C	42.753448	-73.757043
New_York_Epilepsy_Medicine_PC	A	42.753166	-73.781373
Miller_Patricia_PHD	A	42.710232	-73.864099
Computer_Renaissance	D	42.727772	-73.759805
Hari's_Service_Center	D	42.791377	-73.871481
Blessing_Isiguzo_DNP	A	42.794638	-73.737774
Christ_Church_of_Watervliet	A	42.726102	-73.701308
Brassard_Christopher_A_Insurance	C	42.693496	-73.878207
National_Credit_Union_Administration	C	42.711698	-73.868104
Swifty's_Restaurant_&_Pub_Albany	B	42.692344	-73.775297
Empire_Financial_Advisors	C	42.753286	-73.78133
Nite_Moves_Gentleman's_Club	C	42.737465	-73.761732
O'brien's_Gift_Baskets	C	42.713444	-73.712295
Empire_Health_&_Wellness_Center	B	42.771082	-73.755869
Jewish_Community_Center_Birchwood_Elementary	A	42.767867	-73.841123
Claire's	C	42.689436	-73.849623
Daughter_for_Hire	B	42.74793	-73.765541
Justice_John_Agency	C	42.769733	-73.754464
Monograms_Plus	C	42.77995	-73.903118
Beer_Universe	C	42.804621	-73.902809
Trustco_Bank	C	42.785103	-73.94395
Kumon_Institute_of_Education	A	42.749117	-73.76165
Steinmetz_Park	B	42.827192	-73.914107
Supercuts	B	42.758905	-73.766858
Alamo_Rent_A_Car	C	42.74602	-73.810001
CAP_COM_Federal_Credit_Union	C	42.672446	-73.809176
The_College_Of_Saint_Rose	A	42.664213	-73.786081
St_Peters_Health_Partners	A	42.769573	-73.822378
Lash_Blvd	B	42.712758	-73.828043
Shaker_Place_Rehabilitation_And_Nursing_Center	B	42.74336	-73.814994
Logomotive_Promotions	E	42.690691	-73.808678
Northeastern_Fine_Jewelry	C	42.684902	-73.848016
Team_Goewey_What_a_Guy	C	42.770352	-73.820235
Stewart's_Shops	C	42.769518	-73.704183
Jackson_Hewitt_Tax_Service	A	42.746573	-73.763183
Trustco_Bank	C	42.798891	-73.947445
Iglesia_Pentecostal_Dios_Proveera	A	42.796781	-73.922876
PepsiCo	C	42.756384	-73.795612
The_Church_of_Jesus_Christ_of_Latter_day_Saints	A	42.702215	-73.752082
Price_Chopper_New_England	C	42.68719	-73.860441
A_Art's_Beverage	C	42.697313	-73.781674
Possin_Carol_PHD	A	42.793745	-73.867798
Catholic_Monument_Design_Center	A	42.705567	-73.818566
DHL	C	42.717223	-73.831845
Dunkin'	B	42.769885	-73.892817
Fancy_Threading	B	42.735066	-73.76266
Music_To_My_Hair_Salon_&_Advanced_Academy	B	42.771203	-73.824175
Bargain_Furniture	C	42.713709	-73.827805
Quality_Vehicle_Sales	C	42.775671	-73.914904
XPO	C	42.704293	-73.825752
The_Battery_Store	D	42.767524	-73.889133
Silver_Screen_Coworks	E	42.770615	-73.823529
Watervliet_Elementary_School	A	42.737206	-73.710774
Marshalls	C	42.706708	-73.825231
Northway_Shopping_Center	C	42.705672	-73.823365
CVS	A	42.716425	-73.811809
Electronic_Business_Products	C	42.757681	-73.817713
Sears_Home_Services	C	42.710276	-73.816526
Health_Street	A	42.733786	-73.847596
Goldwell_of_New_York	A	42.714656	-73.829072
The_Good_Feet_Store	C	42.718435	-73.807645
Boomer_McLoud	C	42.685893	-73.796359
Empire_Visionworks	A	42.774886	-73.892885
Chapel_Of_Praise	A	42.748043	-73.758962
Fiorello_Bakery_&_Deli	E	42.676572	-73.824316
Scrubbles_Laundromat	E	42.713638	-73.706639
Valerie_Hair_Studio_For_Men_&_Women	B	42.757931	-73.780114
Our_World_Montessori	A	42.810239	-73.893077
Purshe_Kaplan_Sterling_Investments	C	42.680754	-73.763691
O'connor_Wb_Church_Goods	A	42.756684	-73.757571
Superior_Business_Products	C	42.763796	-73.940207
American_Wrecker_&_Car_Carrir_Sls_&_Srvce_Incrprtd	C	42.7217	-73.863086
Vella_Hair_Design	B	42.792569	-73.933354
Simpson's	B	42.728186	-73.798845
Krause's_Homemade_Candy	C	42.718169	-73.832857
iGrill	B	42.689497	-73.850732
Baby's_Debut_3D_4D_Imaging_Albany	A	42.720047	-73.807779
LIA_INFINITI	C	42.767846	-73.752982
Thomas_Nicolla_Physical_Therapy_of_Latham	A	42.758334	-73.777465
Tru_Fit_Custom_Clubs	C	42.763527	-73.798706
Taft_Furniture	C	42.737642	-73.861941
Twilight_Park	B	42.773814	-73.710918
Nini's_Gourmet_Panini's	B	42.770839	-73.824317
Khushru_&_Farzana_Irani_Dr	A	42.792557	-73.878992
Elations_Salon_&_Spa	B	42.75946	-73.69734
Kingsway_Manor_Assisted_Living	B	42.775664	-73.914904
Ollie's_Bargain_Outlet	C	42.697156	-73.84742
Wheelers	B	42.691684	-73.802689
Ministry_Of_Christ_Church	A	42.801863	-73.949124
United_States_Postal_Service_(USPS)	C	42.683727	-73.840742
Marriott_Hotels	B	42.720705	-73.799843
Maestro_Dental_Wellness	A	42.681886	-73.8486
Pioneer_Bank	C	42.730777	-73.700822
Military_Cafe	B	42.742891	-73.796645
Center_Stage_Deli	C	42.777154	-73.934199
Blue_Creek_School	A	42.741384	-73.753102
Hanger_Prosthetics_&_Orthotics	C	42.701415	-73.813371
King_Mini_Mart	C	42.771987	-73.912671
Colonie_Gospel_Chapel	A	42.720351	-73.841992
Our_Lady_of_the_Assumption_Church	A	42.733085	-73.755794
ALDI	C	42.735312	-73.851939
Reliable_Auto_Repair	D	42.788718	-73.929386
Adirondack_Tire_&_Service	C	42.684518	-73.849422
Spirit_And_Truth_Church	A	42.801065	-73.947612
Cella_Bistro	B	42.824821	-73.911317
The_Bonadio_Group	A	42.740078	-73.84485
Off_Broadway_Shoes	C	42.689893	-73.852223
Nut_Zez_Gourmet_Almond_Butter	C	42.775634	-73.701662
Hear_For_You	B	42.686534	-73.782234
Redwood_Diner	B	42.776654	-73.934382
Weekend_MBA_Executive_Education_Center	A	42.718923	-73.811689
J_Mclaughlin	C	42.727633	-73.761136
AT&T	C	42.72736	-73.844818
Campus_Convenient	C	42.661126	-73.774257
Red_Roof_Inn	B	42.723775	-73.801818
Capital_Area_Council_of_Churches	A	42.662008	-73.775379
Mystery_Rooter_Plumbing_&_Heating	A	42.790245	-73.940373
Community_Resource_Federal_Credit_Union	C	42.752044	-73.779246
Dvorak_Nancy	A	42.683651	-73.869125
Howe_Early_Childhood_Educational_Center	A	42.807148	-73.905357
Congregation_Gates_of_Heaven	A	42.801494	-73.900963
CapitalCare_Center_for_Preventative_Medicine	A	42.742442	-73.838489
Northwoods_Rehabilitation	A	42.830165	-73.896264
Lanthier's_Grove	B	42.772535	-73.754344
Orlop_Farm_&_Greenhouse	C	42.771471	-73.816139
Joe_G's	B	42.758079	-73.777248
Conroy's_Bait_Supply	C	42.731807	-73.706938
Praxair	C	42.702377	-73.83071
Seasons_Catering	E	42.716087	-73.840441
Albany_High_School	A	42.666905	-73.78306
Vivi_Nails_&amp_Spa	B	42.753414	-73.759964
Sally_Beauty_Supply	A	42.75719	-73.761307
Gillespie_Commercial_Furnishings	C	42.701677	-73.876406
Regional_Food_Bank_of_Northeastern_New_York	B	42.763972	-73.81309
Pai's_Tae_Kwon_Do	A	42.689052	-73.863455
Rotterdam_Martial_Arts	A	42.775515	-73.935267
Occupational_Medical_Services_PC	A	42.700942	-73.815916
AGL_Auto_Experts	C	42.811269	-73.732653
Kay_Jewelers	C	42.710683	-73.816067
Travelodge	B	42.713353	-73.818238
Capital_Care_Pediatrics_Albany	A	42.68642	-73.841015
Sport_Clips	B	42.728786	-73.847094
Magical_Vacation_Planner_with_Jenn_Lashway	B	42.779399	-73.856683
Adult_World	C	42.788307	-73.938944
Relationship_Healing_and_Wellness_Lorrie_Golden_LCSW	A	42.678291	-73.836466
Blaze_Pizza	B	42.683398	-73.840446
Tendercare_Child_Center_Inc	A	42.686975	-73.861269
St_Peters_Health_Partners_Medical_Associates	A	42.758109	-73.777248
United_States_Postal_Service_(USPS)	C	42.709566	-73.816196
1506_Altamont_Avenue	C	42.784008	-73.946279
Envy_Nails_&_Spa	B	42.742528	-73.838393
On_the_Farm	B	42.742574	-73.741231
Colonie_Youth_Center_Inc_Southgate_School	A	42.721157	-73.775669
Sephora	A	42.687875	-73.847267
De_Lima_Paul_Coffee_Co	B	42.714497	-73.845098
Hampton	B	42.76832	-73.820286
Everything_Pets_and_Supplies	C	42.784062	-73.945751
The_Costumer	C	42.745187	-73.863613
CVS	A	42.676227	-73.823715
Sports_Zone	C	42.70883	-73.817204
Maria_Mencarelli_RE_MAX_CAPITAL	C	42.687078	-73.858652
Beer_Universe	C	42.705673	-73.819696
Kuma_Ani_Express	B	42.689343	-73.848391
Price_Chopper_New_England	C	42.708764	-73.77579
H&M_(Hennes_&_Mauritz)	C	42.689144	-73.849841
IMAX	A	42.646256	-73.754892
Tesoros_Cafe	B	42.803749	-73.902601
Kidz_Korner_After_School	A	42.723208	-73.936152
Physicians_Office	A	42.803697	-73.914636
Hobby_Lobby_Stores	C	42.712504	-73.819085
7Th_Street_Park	B	42.7146	-73.705346
CVS	A	42.742757	-73.762628
Fuccillo_KIA	C	42.767189	-73.88975
Just_Threading	B	42.688168	-73.860461
Emperor's	B	42.709642	-73.82155
OrthoNY	A	42.693911	-73.771915
Branch_Auto_Parts	C	42.694383	-73.801155
Bagels_&_Bakes	B	42.779	-73.954993
American_Freight	C	42.695489	-73.847097
Allstate_Insurance	C	42.803474	-73.900192
J_&_J_Service	C	42.792005	-73.729041
Pet_Lodge	B	42.73289	-73.79544
Stack_Kenneth_L_Dr_Optmtrst	A	42.672308	-73.804741
American_Institute_of_Japanese_Karate	A	42.686912	-73.785158
Christian_Brothers_Academy	A	42.732011	-73.821134
Adult_Medicine_PC	A	42.678311	-73.836512
Marys_Beauty_and_Lash	B	42.771177	-73.754924
Philadelphia_Church_Inc	A	42.664223	-73.845519
Pebbles_Asian_Fusion	B	42.770606	-73.822115
Colonie_Youth_Center_Inc_Roessleville_School	A	42.705276	-73.813031
Latham_Circle_Mall	C	42.746527	-73.764228
Keeler_Honda	C	42.767304	-73.814447
Dunkin'	B	42.733647	-73.848991
Capital_Timing	A	42.705774	-73.862216
Watervliet_Arsenal_Fire_And_Emergency_Services_Dod	A	42.719398	-73.707838
Spruce_Computer_Systems	D	42.758206	-73.824451
Roman_Catholic_Diocese_of_Albany	A	42.666993	-73.786755
Lighthouse_Baptist_Church	A	42.754638	-73.951606
J.D._Byrider	C	42.748587	-73.867002
Mia_Lucci's_Pizzeria	B	42.72044	-73.835655
BJ's_Optical	A	42.704648	-73.830214
Wildwood_School	A	42.735177	-73.895516
The_Corner_Deli	B	42.717646	-73.813286
Exscape_Smoke_Shop_&_Vapor_Lounge	C	42.677328	-73.826782
Jeff_Miller_Ameriprise_Financial_Services	B	42.688099	-73.77314
J&D_Automotive	D	42.766382	-73.700576
Jersey_Mike's	B	42.716697	-73.808994
Subway	B	42.772509	-73.894071
New_York_State_Retired_Teachers_Assn	B	42.755524	-73.819027
Mayron_Charles	A	42.762275	-73.748277
GNC_(General_Nutrition_Centers)	A	42.689198	-73.850466
Capital_Dist_Juvenile_Secure_Det_Fclty_Albany_New_York	A	42.753056	-73.818646
Capitaland_Animal_Hospital	A	42.761016	-73.791757
Trumpet_Hill_Fine_Yarn_and_Accents	C	42.742494	-73.838499
Peelz_On_Wheelz_Studio	B	42.689884	-73.864517
Neil_Hellman_Library	B	42.663784	-73.784857
Liquidsun	C	42.782956	-73.94755
Harvard_Business_Group	B	42.714937	-73.822029
Nora's_Grocery	C	42.737834	-73.724044
CapitalCare_Internal_Medicine_Balltown_Road	A	42.796757	-73.892816
Oligan_Distilling	D	42.760279	-73.814701
Your_CBD_Store_Loudonville	A	42.708223	-73.776312
Advance_Auto_Parts	C	42.784396	-73.907944
Spindles_Wine_Bar	B	42.770295	-73.700122
Ploughman's_Saddlery_&amp_Belts	C	42.660052	-73.779469
Boys_&_Girls_Club_Eagle_Point_School	A	42.673602	-73.816222
Ten_Eyck_Group	C	42.693499	-73.878172
Pure_Elements	B	42.688212	-73.86049
Life_Kids_Guilderland	A	42.666573	-73.85339
Capital_Region_Upright_Mri	A	42.761988	-73.749857
Trustco_Bank	C	42.7115	-73.81849
Five_Below	C	42.689228	-73.849798
Mattress_Firm	C	42.773461	-73.894149
PacSun	C	42.689353	-73.849317
Niskayuna_High_School	A	42.817834	-73.889988
Mr_Ding_A_Ling_Ice_Cream	B	42.742024	-73.793101
Capitalcare	A	42.830795	-73.891226
New_Covenant_Presbyterian_Church	A	42.671949	-73.810576
Trustco_Bank	C	42.716038	-73.932412
Touched_By_Love_Hair_Studio	B	42.781326	-73.905964
St_Peter_Armenian_Apostolic_Church	A	42.73354	-73.717955
Capital_District_Protective_Coatings_LLC	A	42.737188	-73.855921
KFC	B	42.696904	-73.808498
Zoom_Tan	B	42.684082	-73.838483
Schuyler_Flatts	B	42.706033	-73.711164
Jang_Tuh_Asian_Grocery_Store	C	42.740686	-73.762525
Family_Foot_Care	A	42.701372	-73.813339
Three_Buckets_Wealth_Management_Ameriprise_Financial_Services	A	42.773171	-73.821822
Albany_Public_Library_Pine_Hills_Branch	B	42.666722	-73.790919
United_States_Postal_Service_(USPS)	C	42.728242	-73.701464
Planet_Fitness	B	42.708394	-73.775473
Van_Schaick_Island_School	A	42.768266	-73.687431
Anytime_Fitness	B	42.756395	-73.760554
Weinstein_David_DDS	A	42.689293	-73.77461
Metro_Mattress	C	42.772441	-73.891879
New_York_State_Public_Employees_Federation_Afl_CIO	B	42.769581	-73.820774
Warren_Tire_Service_Center	D	42.757257	-73.778304
Limited_Too	C	42.69024	-73.851756
Bank_of_America	C	42.708175	-73.777941
Peaches_Cafe	B	42.682978	-73.838436
Town_of_Niskayuna	B	42.841492	-73.9051
Jersey_Mike's	B	42.783102	-73.943773
Suburban_Propane	A	42.697232	-73.825951
New_Country_Lexus_of_Latham	C	42.771767	-73.752389
Cheesesteak_Heaven	B	42.78624	-73.943781
Orangetheory_Fitness	B	42.782845	-73.890544
Dance_Me_Boutique	C	42.804979	-73.904427
Hansen_Farm_&_Nursery	C	42.747457	-73.866149
Jeffrey_R_Moran_DDS	A	42.685436	-73.838957
Abram_Lansing_School	A	42.76877	-73.70869
KeyBank	C	42.715545	-73.810544
Johnny_Rockets	B	42.688498	-73.849255
Green_Papas_Premium_Cbd	A	42.689559	-73.850329
Hair_Club	B	42.74071	-73.842938
Kelly_Services	B	42.716894	-73.807674
Wendy's	B	42.742196	-73.761382
Westney_Clarissa_Dr	A	42.792546	-73.878899
Famous_Footwear	C	42.775862	-73.889791
Weight_Watchers	B	42.686929	-73.858698
CNY_Fertility_Center	A	42.75984	-73.759728
Ferguson	C	42.691048	-73.807776
Jj's_Cycle	C	42.724186	-73.700937
Kazan_BBQ_Ramen_&_Bar	B	42.688485	-73.84925
F_L_Falvo_Insurance_Agency	C	42.805542	-73.907419
Jacob_&_Anthony's_Italian	B	42.682064	-73.839162
Sportsman's_Bowl	B	42.789111	-73.945679
WellNow_Urgent_Care	A	42.782259	-73.950249
Barnard_Paul_L_Csw	A	42.708783	-73.831545
GNC_(General_Nutrition_Centers)	A	42.774801	-73.893021
United_Methodist_Church	A	42.724784	-73.701739
Companion_Animal_Medical_Center	A	42.775508	-73.935261
Southgate_School	A	42.721017	-73.775506
Lennon's_Flowers	C	42.761213	-73.79232
Schenectady_Full_Gospel_Outreach	A	42.779134	-73.940886
Apria	B	42.712271	-73.844696
H&R_Block	A	42.757351	-73.761788
St_Paul's_Evangelical_Lutheran_Church	A	42.658833	-73.76885
Next_Level_Auto	D	42.794202	-73.930004
Le_Page's_Garage	D	42.767613	-73.690302
Cohoes_Community_Center_Van_Schaick_School	A	42.768265	-73.687354
Christine_Serafini_Miranda_Real_Estate_Group	C	42.782073	-73.951885
The_Albany_Center_For_Pain_Management	A	42.694954	-73.772558
Goldman_Mark_DDS	A	42.772385	-73.821917
Harbor_Freight_Tools	C	42.728654	-73.847052
Pinky_Nails	B	42.696395	-73.768925
Affiliate_Of_The_Alliance_Of_Divine_Love	A	42.774588	-73.915598
Wonder_Nail_&_Spa	B	42.729996	-73.849835
The_Locker_Room_78	C	42.762988	-73.701136
India_Bazaar	C	42.70191	-73.814185
3_Brothers_Pizzeria	B	42.729243	-73.700797
Lubbe_&_Hosey_Cpa's_PC	A	42.742406	-73.838491
Blush_Salon	B	42.747894	-73.758467
Royal_Fried_Chicken	B	42.800086	-73.928302
Fudoshin_Karate_School	A	42.738718	-73.76287
Mr_Subb	B	42.696838	-73.883834
Wendy's	B	42.783029	-73.948365
Cetera_Investors	A	42.767944	-73.821464
Capital_Region_Otolaryngology_Head_&_Neck_Group	A	42.686613	-73.841355
Ceramic_Decor_&_More	C	42.745909	-73.864002
Vans	C	42.689207	-73.849938
Simply_Smooth_Skin	B	42.689325	-73.86417
Fly_To_Fit_Bungee_Fitness_Studio	B	42.729838	-73.850278
Beijing_Hair_Salon	B	42.713694	-73.82781
Immanuel_Lutheran_Church	A	42.797246	-73.891595
Lia_Hyundai	C	42.683185	-73.79269
Paradise_Natural_Foods	A	42.691243	-73.868607
Kuma_Ani	B	42.71664	-73.808846
Maurice's_Central_Delicatessen	B	42.729944	-73.850022
Citizens_Bank	C	42.682244	-73.842735
Atomic_Customs	C	42.77637	-73.899865
Community_Bank	C	42.757962	-73.782335
Yummy_Yummy	B	42.773687	-73.93493
Party_City	C	42.695475	-73.847257
EMCOR_Group	A	42.757732	-73.817678
Shreyas_Exclusive	C	42.800293	-73.948207
McCrea_Angela_LMHC	A	42.678362	-73.83647
Skechers	C	42.689917	-73.852237
St_Gabriel's_Roman_Catholic_Church	A	42.766606	-73.938888
Check_Debra_J	A	42.746119	-73.755627
Taco_Bell	B	42.684245	-73.79541
Albany_Medical_Center	A	42.697219	-73.823025
CVS	A	42.774503	-73.896782
Copart	C	42.735651	-73.854414
Uncle_Sam's_Health_Food	A	42.734801	-73.762798
Inferno_Pizzeria	B	42.689925	-73.86654
Mobil	C	42.70565	-73.776955
Diner_Time	B	42.748555	-73.760202
A_Williams_Auto_Parts	C	42.848633	-73.892511
Mammone's_Italian_Deli	B	42.742493	-73.838463
Sunoco	C	42.779609	-73.932496
The_Tavern	B	42.728403	-73.798589
CAP_COM_Federal_Credit_Union	C	42.720062	-73.796006
Carbonic_Sales_&_Services	C	42.691241	-73.802435
The_Body_Spot	B	42.762058	-73.74883
Agency_Foster	A	42.805189	-73.904865
The_Body_Shop	A	42.710519	-73.816183
Kim's_Asian_Market	C	42.720733	-73.835691
Cleopatra's	B	42.724683	-73.84146
As_Seen_On_TV	D	42.689754	-73.851197
The_Hot_Yoga_Spot	B	42.685426	-73.840305
Fade_&amp_Beard_Barber_Store	B	42.723797	-73.840349
Exit5_Auto_Group	C	42.737987	-73.767852
Vaughn_Vision	A	42.723029	-73.936204
Capital_Region_Integrative_Health	A	42.771065	-73.755877
Browjour	B	42.690629	-73.868474
Avalon_Kitchen	C	42.712769	-73.828038
Adtek_Enterprises	D	42.725255	-73.839873
Sunglass_Hut_International	A	42.689752	-73.850969
Corner_Ice_Cream_Store	B	42.723414	-73.936253
Mahabeer's_Convenience_Store	C	42.801087	-73.923812
Christian_And_Missionary_Alliance_Church_Of_Albany_New_York	A	42.704174	-73.8552
China_Dragon_Chinese_Take_Out_Restaurant	B	42.732946	-73.701279
Holiday_Inn_Express	B	42.710117	-73.821245
Allstate_Insurance	C	42.790455	-73.936746
Albany_Boces_Adult_Practical_Nursing_Program	A	42.73794	-73.823241
Ck_Cycles	C	42.703959	-73.817718
Stewart's_Shops	C	42.795631	-73.943483
Smokers_Choice	C	42.714233	-73.810285
Airport_Parking_by_AAA_Albany_Park_&_Fly	B	42.730504	-73.794409
Luounello_Sunset_Park	B	42.672778	-73.81574
Aspen_Dental	A	42.684359	-73.794062
Caroline_E_Caputo_Integrative_Health_&_Venus_Legacy	A	42.751016	-73.758551
Cardiology_Associates_of_Schenectady	A	42.830745	-73.891035
Xeno_Athletics	B	42.737964	-73.724486
Rite_Aid	A	42.677288	-73.822722
Plaza_Fitness_Performance	B	42.730456	-73.761912
Cricket_Wireless	C	42.791812	-73.916263
Bountiful_Blessings_Church	A	42.795993	-73.93313
Calvary_United_Methodist_Church	A	42.751848	-73.753067
Prancin'pretty	C	42.794439	-73.930553
Patrick's_Pub	B	42.713195	-73.70699
Ensign_Autobody_and_Restoration_Services	D	42.750888	-73.760638
AT&T	C	42.710604	-73.816436
Maggie's_Cafe	B	42.676813	-73.82493
Capital_Dist_Comm_Rsdntl_Home_Albany_New_York	A	42.675652	-73.822535
A_Plus_MediTrans	B	42.692689	-73.812789
Azalea_Boutique	C	42.72292	-73.936191
Northeast_Institute_of_Gymnastics	B	42.697229	-73.808495
Talbots	C	42.683134	-73.838379
SmartStyle_Family_Hair_Salons	B	42.746601	-73.764037
Boght_Montessori	A	42.788586	-73.741042
Community_Care_General_Surgery_Latham	C	42.758709	-73.776912
Timothy_R_Esmay_DDS	A	42.672295	-73.808584
Days_Inn	B	42.71785	-73.83422
Palazzo_Nail_Spa	B	42.758882	-73.766887
Hot_Dog_Charlie's	B	42.751938	-73.700609
JN_Phillips_Auto_Glass	D	42.732297	-73.849104
Hooked_Seafood	C	42.770654	-73.824382
Sbarro	B	42.710529	-73.816115
Newton_Wine_&_Spirits	C	42.726988	-73.761063
Salon_39	B	42.77152	-73.946709
Lam's_Kitchen	B	42.689637	-73.866173
Saddlewood_Elementary_School	A	42.731435	-73.838353
Loudonville_School	A	42.706028	-73.756511
GoWireless	C	42.726094	-73.760431
Daltile	E	42.726445	-73.855674
Polson_Place	C	42.81674	-73.889893
Carman_Body_Works	D	42.788632	-73.92917
Gold_N_Diamonds	C	42.689576	-73.851071
American_Red_Cross_of_Northeastern	B	42.689321	-73.777669
Tech_Valley_Office_Interiors	C	42.691069	-73.807785
Julia_Cerny_DMD_PLLC	A	42.76966	-73.822369
Monroe_Wheelchair	B	42.751559	-73.794294
Skin_Deep	B	42.734002	-73.762807
BJ's_Restaurants	B	42.708485	-73.821354
Smith's_Beauty_Supply_Stores	A	42.782232	-73.906413
Avis_Rent_A_Car	C	42.746016	-73.810094
Komatsu	C	42.759295	-73.815337
Audio_Obsessions	C	42.716835	-73.837762
Albany_Insurance_Claims	C	42.804659	-73.90385
Piercing_Pagoda	C	42.70992	-73.816807
Machs_Treasures_Antiques_Collectibles	C	42.69876	-73.812189
Catherines_Plus_Sizes	C	42.683863	-73.840902
Stuyvesant_Plaza	C	42.683441	-73.839357
Combined_Life_Insurance_Company_of_New_York	C	42.761293	-73.817247
Five_Guys	B	42.710904	-73.816326
Howard_Johnson_(HoJo)	B	42.718604	-73.835239
Lexington_Vacuum	D	42.684982	-73.794734
Danea_the_L_E	B	42.702417	-73.81324
St_Margaret_Mary's_Church	A	42.675964	-73.822408
Bimbo_Bakeries	B	42.700883	-73.819602
Albany_Honda	C	42.733432	-73.849294
Subway	B	42.728915	-73.846921
Nysut	A	42.758477	-73.784735
Jessica_Stone's	B	42.74224	-73.762303
Fouad_A_Sattar_MD_PC	A	42.804347	-73.914963
Celadon_Thai	B	42.753333	-73.760012
J_C_Beauty_Bar_and_Salon	B	42.76653	-73.754214
The_Pasta_Factory	B	42.762628	-73.798577
Pumpkin_Patch_Early_Learning_Center	A	42.702565	-73.881027
Lindt	C	42.688484	-73.849268
Shatter_And_Case	D	42.689476	-73.849895
Advanced_Therapy	A	42.698334	-73.85115
Hudson_River_Coffee_House	B	42.661082	-73.77861
Beltone	A	42.687771	-73.860669
Kemp's_Hockey_Shop	C	42.746016	-73.761136
United_Church_of_Cohoes	A	42.773533	-73.69954
New_Yorker_Pizzeria	B	42.717711	-73.812719
First_New_York_Federal_Credit_Union	C	42.781128	-73.955497
Niskayuna_Square	C	42.783435	-73.891343
Upstate_Veterinary_Specialties	A	42.759401	-73.761898
Ryan_P_Lambert_Ameriprise_Financial_Services	B	42.773188	-73.821792
David_B_Brown_Jr_LCSW	A	42.807026	-73.909804
Tullio_Hair_Studio	B	42.722942	-73.936181
Fitzgerald_Funeral_Home_Ltd	B	42.778319	-73.71153
Forest_Park_Elementary_School	A	42.720268	-73.823058
Forever_21	C	42.688314	-73.849191
Cinderella_Nail	B	42.746355	-73.758453
Northeast_Eye_Center	A	42.758729	-73.776918
Scott_Miller_Ameriprise_Financial_Services	A	42.688082	-73.773163
RO's_Pizza_&_Fried_Chicken	B	42.781389	-73.905888
Bilinski_Sausage_Mfg	C	42.758354	-73.704475
Gillette_Creamery	B	42.69519	-73.811648
Advance_Auto_Parts	C	42.728233	-73.846634
Wills_Motors	C	42.686056	-73.796098
OT_for_Developing_Kids	A	42.736942	-73.793872
Jade's_Hair_Envy	B	42.731577	-73.847528
The_Original_Two_Cousins	C	42.727512	-73.761129
Dunkin'	B	42.770322	-73.821507
SKS_Bottle_&_Packaging_Inc	C	42.737764	-73.703141
Spicy_Mint_Albany	C	42.717629	-73.804434
1st_Advantage_Dental_Albany	A	42.721402	-73.837742
Alexandria's_Beauty_Salon	B	42.746939	-73.759934
Sunoco	C	42.695863	-73.881401
City_Of_Albany_Department_Of_Fire_Emergency_Medical_Services_And_Code_Enforcement_Engine_One	A	42.65937	-73.768666
Zoom_Tan	B	42.731816	-73.847765
Lowe's	C	42.74446	-73.7637
The_Boat_House	C	42.848577	-73.889921
Menchie's	B	42.71082	-73.816686
Professor_Java's_Coffee_Sanctuary	B	42.725179	-73.797514
Arsenal_City_Tavern	B	42.715591	-73.704413
Kate's_Kakes	E	42.714023	-73.809911
Lundy_Industrial_Arts_Ltd	E	42.708392	-73.771573
United_States_Postal_Service_(USPS)	C	42.774182	-73.699796
Audi_Albany	C	42.740603	-73.760927
Gail_King_Electrolysis	B	42.815911	-73.893925
Auto_Shop	D	42.722259	-73.701341
The_Home_Depot	C	42.754452	-73.761413
Macy's	C	42.691436	-73.853859
Starbucks	B	42.683268	-73.840308
Micheal_John_Hairstyling_Barber_Lounge	B	42.689898	-73.864523
Belden_Jewelers_1029	C	42.689378	-73.850058
Bruegger's	B	42.804181	-73.903825
Cocolo_Spa	B	42.706402	-73.774675
Ka_Of_Albany	A	42.702875	-73.860865
M&T_Bank	C	42.775152	-73.916968
Famiglia_Salon	B	42.805093	-73.904979
Dollar_Power	C	42.729814	-73.850237
Community_Care_Urgent_Care_Center_of_Niskayuna	A	42.829161	-73.888582
Jade's_Hair_Envy	B	42.700865	-73.814363
Nemer_Volkswagen	C	42.75004	-73.765016
Applebee's	B	42.751409	-73.765027
Williams_Center_Plastic_Surgery_Specialists	A	42.764729	-73.811165
SOS_Auto_Collision	D	42.714615	-73.841547
Renew	A	42.742262	-73.855801
Cee_Lo's_Pub	B	42.761602	-73.882594
Build_A_Burger_Pub	B	42.745052	-73.864672
Jiffy_Lube	D	42.726871	-73.842818
Paesan's_Pizza_&_Restaurant	B	42.661144	-73.781813
Westlawn_Lanes	B	42.695438	-73.880048
Joe's_Tavern	B	42.780932	-73.71027
Capital_Bauer_Gallagher	C	42.74307	-73.840379
Osvaldo_Hair_Salon	B	42.676533	-73.824492
Charley's	B	42.710192	-73.820659
Less_EMF	B	42.738608	-73.794035
Walmart_Pharmacy_10_1997	A	42.745716	-73.763251
John_Valentis_Ph_D	A	42.67827	-73.83649
Heroes_Hideout	C	42.710304	-73.816339
Gentlemen's_Corner_Barbershop_&_Shave	B	42.730746	-73.70313
Price_Chopper_New_England	C	42.782563	-73.955081
Boys_&_Girls_Clubs_of_America	B	42.79657	-73.924713
The_Rejuva_Center_at_Williams	A	42.76466	-73.811228
Burger_Debra_Msw	B	42.736983	-73.84311
Dominic's_Barbershop	B	42.706838	-73.777755
Rent-A-Center	C	42.728619	-73.700459
Colonie_Youth_Center_Inc_Forts_Ferry_School	A	42.764552	-73.777884
J.Crew	C	42.709898	-73.816118
New_York_State_School_Boards_Association	A	42.770196	-73.759379
Supercuts	B	42.706165	-73.82147
Rotterdam_Housing_Development_Fund_Company_Inc	A	42.761149	-73.938298
Sahr's_Food_Service	C	42.775141	-73.953478
Christ_the_King_Church	A	42.682533	-73.779967
Colonie_LFGTE_Facility	E	42.807572	-73.731727
Midas	D	42.763467	-73.801795
Pomato_Anthony_D_Dr	A	42.805377	-73.907032
Jcc_Hillside_Elementary_School	A	42.806743	-73.894062
Kid's_Care_Thomas_Nicolla_P_T_Assocs	A	42.771763	-73.757453
Twin_Bridges_Insurance_Agency	C	42.693648	-73.873795
Orange_Mango	B	42.718728	-73.835277
Lit_Hookah_Lounge_&_Cafe	B	42.713428	-73.828631
VCA_Animal_Hospitals	A	42.728491	-73.786761
Pretty_Nail_&_Spa	B	42.761875	-73.796186
NY_Nail_&_Spa	B	42.789078	-73.936881
Quiltbug_com	C	42.733608	-73.938653
Tropics_Tanning_Salon	B	42.816489	-73.890523
Amtrak	E	42.745531	-73.809369
Jammin'_Ink_Tattoos_&_Piercing	B	42.697677	-73.824775
Lilac_Blossom_Gourmet_Asian_Cuisine	B	42.691132	-73.86823
The_Little_Gym	B	42.707377	-73.777244
Action_Of_Grace_Tabernacle	A	42.787141	-73.92932
Hershey's_Ice_Cream	B	42.798396	-73.926497
Panera_Bread	B	42.77417	-73.892854
Starbucks	B	42.664133	-73.785468
S_&_S_Video_&_Variety_Store	C	42.801022	-73.923352
Hummer_of_Albany	D	42.724134	-73.84397
Bellezza_Hair_Salon	B	42.700866	-73.820606
Rent-A-Center	C	42.773355	-73.697302
Acess_Auto_Sales_&_Service	C	42.698982	-73.822295
Guilderland_Travel_Plaza	C	42.744475	-73.919554
CAPITALCARE_Mcdical_Group	A	42.803996	-73.916158
Little_Anthony's	B	42.688416	-73.799088
Pioneer_Bank	C	42.727862	-73.845498
Holiday_Liquors	C	42.805527	-73.905916
Carpet_One_Floor_&_Home	C	42.751242	-73.7666
Parsons_Child_&_Family_Guidance_Clinic	A	42.73378	-73.847579
NAPA_Auto_Parts	C	42.694207	-73.805327
Enterprise_Truck_Rental	C	42.756975	-73.807812
Home_Evolution_Windows	A	42.81104	-73.734776
Kathleen_M_Morris_PHD	A	42.689122	-73.777035
Central_Market_Florist	C	42.805583	-73.913541
Subway	B	42.707222	-73.775966
Hair_2000	B	42.746554	-73.763183
Jojo's_Auto_Boutique	C	42.792986	-73.917355
On_the_Hill_Cafe	B	42.737885	-73.724209
CITGO	C	42.784119	-73.911932
Starbucks	B	42.756046	-73.770771
Evergreen_Bank	C	42.697511	-73.81073
David's_Beauty_Salon	B	42.815925	-73.894212
Starbucks	B	42.75099	-73.76442
IHOP	B	42.710179	-73.820649
Frank_Gallo_&_Son_Florist	C	42.786369	-73.909976
Sheer_Pleasure_Lingerie	C	42.758918	-73.879355
Albany_Fashions	C	42.714518	-73.77102
Amazon_4-Star	C	42.68996	-73.850194
Dover_Saddlery	C	42.759044	-73.766723
Skyview_Plaza	C	42.76215	-73.752707
Mack_X_Barber	B	42.737666	-73.761718
Campus_Barber	B	42.678112	-73.830281
Unicell_Body	D	42.753084	-73.906143
Kabinoff_Jay_DDS_Stuyvesant_Dental_Care	A	42.68158	-73.838201
Khalina's_Closet	C	42.767504	-73.889157
The_Murray_Group_Insurance_Services_Inc	C	42.690828	-73.867332
Islamic_Shia_Ithna_Asheri_Jamaat_of_Albany	A	42.734283	-73.825688
JT's_Tavern	B	42.772755	-73.701489
Cumberland_Farms	C	42.692247	-73.873948
Bellini's_Counter	B	42.730927	-73.762102
Therese_Assalian_Walton_Realty_Group	C	42.765581	-73.815964
St_Andrew's_Episcopal_Church	A	42.664578	-73.788312
Graceway_Ministries	A	42.798039	-73.898452
Polsinello_Mark_J	A	42.679024	-73.832206
Diana_Kathleen_Beauty_&_Lash_Artistry	B	42.771214	-73.755126
Hockey_Store_N_More	C	42.723563	-73.840179
New_Aeon_Church_International_Inc	A	42.688481	-73.755473
Blessed_Virgin_Mary_of_Czestochowa_Parish	A	42.727081	-73.790212
Living_Word_Tabernacle_Inc	A	42.669893	-73.818875
TD_Bank	C	42.733977	-73.761768
Newcomer_Funeral_Home_&_Cremation_Services	B	42.738486	-73.729637
Diva_Nails	B	42.742252	-73.742327
Central_Market_Florist	C	42.775915	-73.892732
Robert_Kennedy_MD_Kennedy_Optical	A	42.830032	-73.903437
Top_Dog_Detailing	D	42.688314	-73.801087
Intuitive_Medium_Christine	C	42.691166	-73.868022
Healthcare_Professionals_Insurance_Company	C	42.681913	-73.848593
Glen_Eddy	B	42.776371	-73.879134
Total_Image	B	42.783609	-73.906834
Tangles	B	42.769561	-73.892282
Douglas_Larsen_DO	A	42.683312	-73.846751
Danceland	B	42.762102	-73.752794
Guilderland_Family_Dentistry	A	42.726378	-73.937901
Victory_Child_Care_Inc_Pine_Bush_Elementary	A	42.745866	-73.940667
Pro_Image_Sports	C	42.690499	-73.852455
Nussbaum_Chiropractic	A	42.696391	-73.770105
Lane_Bryant	C	42.689935	-73.851218
Old_Navy	C	42.771579	-73.892715
Universidad_Autonoma_De_Guadalajara	A	42.679933	-73.76487
Mobil	C	42.735635	-73.939415
Dunkin'	B	42.79901	-73.925605
Fairfield_Inn_&_Suites_by_Marriott	B	42.722125	-73.804063
Starbucks	B	42.678385	-73.830341
Midway_Fire_Department_Station_2	A	42.748887	-73.852164
Rutgers_Park	B	42.796872	-73.933182
Jiffy_Lube	D	42.757001	-73.777645
Anthony's_Italian_Restaurant	B	42.770803	-73.70076
Thinkgeek	C	42.689432	-73.84968
MobilityWorks	B	42.733469	-73.854809
Marshall_Price_DDS	A	42.726377	-73.937926
A_R_C_Electronics	C	42.750046	-73.854762
All_Star_Wine_&_Spirits	C	42.754174	-73.761187
Albany_Certified_Electrolysis	B	42.680009	-73.832132
Proforma_Lee's	C	42.789673	-73.944911
Adp	A	42.70899	-73.86324
Lash_and_Skin_Studio	B	42.701965	-73.814253
What's_Poppin	C	42.730024	-73.849799
P.F._Chang's_China_Bistro	B	42.710635	-73.816884
Sand_Creek_Wine_&_Liquor	C	42.717216	-73.811173
China_King_Kitchen	B	42.773263	-73.89191
Ralph's_Tavern	B	42.701529	-73.815068
Douglas_A_Neil_Nationwide_Insurance	C	42.762232	-73.797669
CVS	A	42.715462	-73.932779
The_Albany_Lift	B	42.759566	-73.787273
M_Cafe	B	42.781485	-73.905796
Gracie's	C	42.726907	-73.761049
Red_Kap	C	42.686791	-73.854469
Elite_Nutrition	B	42.737849	-73.724118
Salon_Harmony_West	B	42.780372	-73.704819
Sports_&_Spinal_Wellness_Center	A	42.697364	-73.885551
Hebrew_Academy_of_the_Capital_Dist	A	42.688998	-73.782648
Tracy_Fluty_Psychic_Medium	C	42.76214	-73.797515
Nuttings_General_Store	C	42.725459	-73.706485
Riverrun_Community_Montessori	A	42.795259	-73.883986
Steve_Duggan_RE_MAX	C	42.687088	-73.858675
Bank_of_America	C	42.680653	-73.837978
Lynnwood_Reformed_Church	A	42.728113	-73.939073
7-Eleven	C	42.685714	-73.782747
Family_Care_Massage	B	42.771223	-73.755139
Kurtis_Parde_Ameriprise_Financial_Services	B	42.687987	-73.773001
ShopRite	C	42.724138	-73.843986
Van_Schaick_Island_Country_Club	B	42.762583	-73.689789
Metro_Mattress	C	42.755381	-73.776759
St_Gregory's_Summer_Camp	C	42.720685	-73.768777
Citizens_Bank	C	42.70647	-73.823653
Concord_Pools	C	42.758971	-73.759647
Guilderland_Orthodontics	A	42.695198	-73.878728
Giordano_Chiropractic	A	42.807814	-73.91177
Advanced_Bodyworks_Wellness_Center	B	42.721489	-73.863574
Mayfair_Jewelers	C	42.750905	-73.764311
Discount_Wine_Liquor_Giant	C	42.816557	-73.889153
Olde_Saratoga_Coin	C	42.717037	-73.831657
Best_Foot_Spa	B	42.735163	-73.762624
Guilderland_Music_Academy	C	42.691118	-73.868126
Elegant_Fashion	C	42.743211	-73.744346
Rotterdam_Wine_&_Liquor	C	42.782597	-73.942677
Shaker_Road_Elementary_School	A	42.709804	-73.783233
Ellis_Sleep_Disorder_Center	A	42.804201	-73.916119
Niskayuna_Town_Police_Department_Niskayuna_New_York	A	42.819225	-73.885416
Merabec_Market	B	42.772427	-73.82294
Kids_Foot_Locker	C	42.68921	-73.849811
Parkway_Liquor	C	42.782995	-73.890811
Trustco_Bank	C	42.682811	-73.838452
Burke_Edmund_J_PHD	A	42.738958	-73.84127
Splash_Nail_Spa	B	42.816359	-73.890861
Pil_Sung_Kumdo	A	42.688434	-73.799085
Reena_Boutique	C	42.793141	-73.917907
Orangetheory_Fitness	B	42.687141	-73.858615
Earthbound_Trading_Co.	C	42.688465	-73.849281
The_Stuffed_Rooster	C	42.770345	-73.823871
Beauty_Works_Supply	B	42.791929	-73.91772
2001_Central_Insurance_Agency	C	42.755563	-73.87534
Hillside_School	A	42.806711	-73.894113
Dr_Detail_Auto_Spa	D	42.695577	-73.79412
Steven_Green_Weichert_Realtor_Expert_Advisors	C	42.770603	-73.823575
Acupuncture_Health_Care_Center	A	42.714387	-73.804504
PriceRite	C	42.783889	-73.920468
Christ_Lutheran_Church	A	42.681589	-73.84104
25_Silver_Boutique	C	42.71107	-73.816142
First_Baptist_Church	A	42.78895	-73.912718
Jewish_Community_Center_of_Schenectady	B	42.832093	-73.894009
Nicholas_A_Morra_Latham_Dental_Group	A	42.758726	-73.776918
Pioneer_Bank	C	42.725854	-73.793712
T_Mobile_Authorized_Retailer	C	42.689349	-73.85103
Across_The_Street_Pub	B	42.678156	-73.829468
Burger's_Market_Garden	C	42.774497	-73.830388
The_Roadhouse_Sports_Bar_and_Grill	B	42.702126	-73.81873
Starbucks	B	42.775185	-73.889375
Cohoes_House_of_Pizza	B	42.773378	-73.700818
ADA_Nail_Spa	B	42.71465	-73.82894
Yardboro_Auto_Care	D	42.688278	-73.801089
Skechers	C	42.748223	-73.763778
Schenectady_Curling_Club	A	42.805314	-73.892285
ULTA_Beauty	A	42.709635	-73.818295
Gabriels_Eye_MDs	A	42.672767	-73.81234
Capital_Church_Inc	A	42.733053	-73.845017
Drue_Sanders_Custom_Jewelers	C	42.687323	-73.856185
ExamOne	A	42.765015	-73.75569
AlterNative	C	42.689262	-73.849632
iDeal_Furniture_Albany	C	42.773007	-73.700755
Sun_Fung_Chinese_Kitchen	B	42.786292	-73.912838
Citizens_Bank	C	42.782452	-73.951217
Nathan's_Family_Deli	B	42.688468	-73.849244
Saint_Joseph_Cemetery	B	42.778368	-73.907205
Ellis_Hospital_McClelland_Cafeteria	B	42.804658	-73.916152
Rejuvenation_Massage	B	42.721123	-73.808914
Colonie_Town_Park	B	42.798504	-73.741461
DogWatch_by_TopDog_Pet_Fence	C	42.745013	-73.753797
Capital_Care_Family_Practice_River_Road	A	42.829147	-73.888684
Mavis_Discount_Tire	D	42.772557	-73.895676
Cajun_Cafe	B	42.689204	-73.849816
Short_and_Stout_Tea	B	42.689897	-73.849907
Bender_Lane_Advisory	A	42.686056	-73.842436
ALDO	C	42.689083	-73.849
SparkShoppe	B	42.705862	-73.860976
Boost_Mobile	C	42.772857	-73.700785
Hertz	C	42.740572	-73.807429
Watervliet_Junior_Senior_High_School	A	42.730791	-73.7164
Jay_Dee_Systems	C	42.718111	-73.719554
Cohoes_Judo_Club	A	42.772741	-73.700782
CVS	A	42.683458	-73.838482
Five_Guys	B	42.682208	-73.842194
Aesthetic_Science_Institute	A	42.761877	-73.794685
Crackerbarrel_Restraunt	B	42.861748	-73.769629
Creative_Edge_Salon	B	42.739343	-73.856668
Bazar_Gary_Auto_Body	D	42.777642	-73.713674
John_D_Marcella_Appliances	E	42.800416	-73.948792
Sweet_Frog	B	42.772509	-73.893912
Chef's_Grill	B	42.753598	-73.75701
The_Protestant_Reformed_Dutch_Church_Of_Niscayuna_In_The_County	A	42.776074	-73.831486
Zeba_Furniture	C	42.785535	-73.910473
Canine_Clippers_&_Boutique	B	42.731957	-73.701484
Comdoc	C	42.761036	-73.821502
Lane_Bryant	C	42.710525	-73.816166
Congregation_Beth_Israel	A	42.800397	-73.897061
Jules_House	D	42.700014	-73.808887
Sake_Japanese_Steakhouse	B	42.754567	-73.771034
Southwest_Airlines	E	42.742009	-73.80846
Lyons_Christopher_DMD	A	42.705104	-73.776707
Faust_Robert_R_Jr_Dr	A	42.668011	-73.797559
Rimma's_Unisex_Hair_Salon	B	42.735599	-73.701453
Hair_Designs_by_Amber_and_Tiffany	B	42.742469	-73.743786
The_Ice_Cream_Shop	B	42.754389	-73.874192
Sunoco	C	42.764868	-73.93813
Ann_Lee_Pond_Nature_And_Historic_Preserve	B	42.732336	-73.807749
Days_Inn	B	42.677696	-73.828882
ASE_Metal_Recovery_Inc	C	42.756002	-73.757904
Hidden_Pet_Fence_of_Albany	B	42.784098	-73.945782
Catholic_Family_&_Community_Svces_of_Albany	A	42.666384	-73.786234
Parker_Scientific_Dental_Labs	A	42.791481	-73.914679
Smile_SPA	B	42.777221	-73.934106
Health_Street	A	42.753854	-73.76154
Goldstein_Chrysler_Jeep_Dodge	C	42.768256	-73.755914
WellNow_Urgent_Care	A	42.746542	-73.763198
Rock_&amp_Soul_Reiki	A	42.696559	-73.88543
Evo_Salon_&_Spa	B	42.732172	-73.761678
KeyBank	C	42.782172	-73.89046
Illusions_Hair_Salon	B	42.696419	-73.768928
St_Josephs_Church	A	42.770846	-73.702674
Dunkin'	B	42.759994	-73.941855
Advanced_Hearing_Aid_Centers	B	42.714096	-73.829324
Christopher_Michael_Gareau_Licensed_Real_Estate_Salesperson	C	42.737635	-73.843722
Refined_Financial	A	42.771806	-73.757556
Colonie_Central_High_School	A	42.70893	-73.808293
212_Marketplace	B	42.661186	-73.777712
New_Day_Christian_Empowerment_Center_Inc	A	42.794933	-73.942668
King_Of_The_Hill	D	42.699195	-73.825285
Albany_Fusion_Martial_Arts	A	42.689594	-73.866211
Loudonville_Christian_School	A	42.695788	-73.754605
True_Images	B	42.657958	-73.765772
Smith's_Automotive	D	42.84888	-73.889212
Starbucks	B	42.771407	-73.823282
Dick's_Sporting_Goods	C	42.752838	-73.764096
Goodyear_Auto_Service_Centers	D	42.769033	-73.89051
Trinity_Health	A	42.774812	-73.725008
Carleen's_A_Hair_Retreat	A	42.74377	-73.759987
Cohoes_Fire_Department_Station_2	A	42.779788	-73.721988
Wellness_Foot_Spa	B	42.71383	-73.827964
Best_Friends_Good_Buddy	B	42.760991	-73.781874
Victoria's_Secret	C	42.710727	-73.816166
Lam_Research	A	42.690826	-73.833479
Paper_Shop	C	42.694394	-73.819523
Early_Childhood_Education_Center	A	42.704191	-73.855228
Aspen_Dental	A	42.781866	-73.950575
Charlie's_StreetFood	B	42.771001	-73.82427
Pet_Spas_&_Suites	C	42.720716	-73.804981
Via_Roma	C	42.708827	-73.817206
Run_&_Tell_Auto_Sales	C	42.779056	-73.90185
Becker_Grocery	C	42.799954	-73.921478
Xin_Fu	B	42.71762	-73.803599
Northeastern_Tire_Retreaders	C	42.682878	-73.775515
Econo_Lodge	B	42.718947	-73.835977
St_Stephens_Church	A	42.810576	-73.90407
PMR_Newkirk	C	42.691245	-73.811308
Aquatic_Development_Group	A	42.800297	-73.723337
Avid_Insurance_Agency	C	42.737498	-73.844227
Albany_Urologic_Surgeons_PC	A	42.685478	-73.839067
Ramesh_West_Indian_American_Grocery_Store	C	42.800184	-73.948747
Weight_Watchers	B	42.761543	-73.750201
Algaithi_Grocery	C	42.791591	-73.925015
Casa_Di_Vino_Spirits	C	42.781132	-73.95548
Fidens_Brewing_Company	D	42.716847	-73.837731
The_Bull_&_Barrel_Smokehouse_Grill	B	42.74576	-73.790474
Sam's_Club	C	42.7579	-73.762739
Nys_Capital_District_Homes	A	42.714977	-73.803828
William_C_Keane_Elementary_School	A	42.796566	-73.92471
Capital_City_Diner	B	42.68852	-73.859655
Nikos	B	42.70384	-73.775865
Empire_Chiropractic_Centre	A	42.72441	-73.840002
Newbury_Plaza	C	42.713237	-73.813612
GameStop	C	42.774043	-73.892864
Kingsway_Village	B	42.774968	-73.916905
Price_Chopper_New_England	C	42.765203	-73.700505
Niskayuna_Fire_District_1	A	42.828948	-73.887758
Calvary_Tabernacle_Assembly_Of_God	A	42.787318	-73.916594
Super_Taco	B	42.700417	-73.821267
GameStop	C	42.782599	-73.942692
Bumble_B_Boutique	C	42.727786	-73.761191
Spauldings_Tattoo_World	B	42.717179	-73.831828
T_Mobile_Authorized_Retailer	C	42.748327	-73.763573
Sprint_Store_By_Nexgen_Wireless_&_Communications	C	42.688625	-73.860287
College_Of_Nanoscale_Science_&_Engineering	A	42.690536	-73.832231
Budget_Rent_A_Car	C	42.745694	-73.809963
Wave_Length_Salon_&_Spa	B	42.746623	-73.757175
North_Bethlehem_Park	B	42.665035	-73.84076
Malta_Community_Church	A	42.723341	-73.79597
Capital_District_Veterinary_Referral_Hospital	A	42.739998	-73.738119
Pizza_Mare_&_Delicatessen	B	42.731916	-73.848028
Al's_House_of_Sportscards	C	42.804317	-73.904027
River_Road_Animal_Hospital	A	42.829007	-73.890163
Bank_of_America	C	42.802653	-73.899225
Barry_Smokes_&_Things	C	42.696301	-73.809039
Christine_Cappello_Hair	B	42.766604	-73.937982
Hot_Dog_Charlie's	B	42.766294	-73.814596
CapitalCare	A	42.796776	-73.892788
Thelma_Costello_MS_LMHC	A	42.71693	-73.807698
Ophthalmic_Consultants_Of_The_Capital_Region	A	42.688446	-73.776329
Westland_Hills_Park	B	42.682746	-73.79672
Berkshire_Bank	C	42.779645	-73.955188
Parivar_Spices_and_Food	C	42.699104	-73.811043
Aumillers_Pharmacy_Inc	A	42.795588	-73.921619
Salt_Box_Estate_Sales	C	42.776894	-73.865969
New_York_State_Society_of_Opticians	A	42.696543	-73.769717
Nina_and_Kristen_At_Haven_Hair_Studio	B	42.701929	-73.81416
Dos_Hermanos	B	42.770986	-73.824246
Platinum_Skin_Clinic	A	42.753266	-73.777377
Western_Turnpike_Rescue_Squad	B	42.689958	-73.861871
Bob_Daubney's_Bowling_and_Billiards	C	42.745335	-73.752282
TSS_Printing	E	42.691354	-73.802223
Easy_Bein_Cheesy	B	42.730814	-73.703552
Home_Flipping_Workshop	B	42.78222	-73.95144
Community_Care_Podiatry_Latham	A	42.758703	-73.776905
Tesla_Service_Center	D	42.742504	-73.793909
Schuyler_Heights_Fire_Department	C	42.70896	-73.715862
Center_For_Natural_Wellness_School_Of_Massage_Therapy	A	42.720931	-73.805621
Lisha_Kill_Nature_Preserve	B	42.796486	-73.859382
Colonial_Car_Wash	D	42.689766	-73.863606
Rainbow_Nail_Spa	B	42.692577	-73.80492
YMCA	B	42.694652	-73.814026
Eu4ia_CBD	C	42.711072	-73.816108
Ellis_Hospital_Social_Club	A	42.795905	-73.922251
Colonie_Star_Beverage	C	42.730689	-73.847198
Beck_Furs	C	42.684754	-73.839813
Golden_Corral	B	42.736149	-73.853293
Stephanie_Gray_Electrolysis_Studio	B	42.772203	-73.836255
Most_Holy_Redeemer_Cemetery	B	42.788692	-73.861272
Cdy_Guilderland_Westmere_Elementary	A	42.685919	-73.86114
Trustco_Bank	C	42.804622	-73.904941
CVS	A	42.697015	-73.887659
W_Daniel_Billington_DMD_MS	A	42.684716	-73.83775
Life_Kids	A	42.733025	-73.844965
Martel's	B	42.764358	-73.869238
Via_Fresca	B	42.686523	-73.855414
Hilton_Music_Center	C	42.710955	-73.815553
Labombard's_Pizza_and_Italian_Resturant	B	42.730821	-73.703559
Uncommon_Grounds	B	42.677409	-73.823463
Chris's_Clean_Out's_Odd_Job's	A	42.774182	-73.712058
Albany_Massage_Professionals	B	42.71251	-73.827746
The_Vascular_Group	A	42.683858	-73.771375
Albany_Medical_Center	A	42.738521	-73.787368
Head_To_Tail	C	42.804912	-73.905781
Edward_Jones	A	42.827787	-73.892445
Last_Vestige_Music_Shop	C	42.662724	-73.77661
Strategic_Pension_Services	B	42.693516	-73.76433
David_Delaney	A	42.705112	-73.776824
T_Mobile_Authorized_Retailer	C	42.710513	-73.816155
Route_7_Diner	B	42.765636	-73.813181
Adirondack_Trust_Company	C	42.720162	-73.81001
Windsor	C	42.688867	-73.848698
Bank_of_America	C	42.784252	-73.94448
Pai's_Tae_Kwon_DO	A	42.805117	-73.904687
NBT_Bank	C	42.715162	-73.812896
DeNooyer_Direct_Insurance_Services	C	42.748818	-73.867743
ImageCare_Niskayuna	A	42.829153	-73.888678
Macy's	C	42.711307	-73.814461
Holy_Name_of_Jesus_National_Catholic_Church_PNCC	A	42.793552	-73.943645
Neal's_Auto_Enhancing	D	42.755416	-73.875167
Lovesac	C	42.690105	-73.852028
PCA_Allstars_Home_of_Premier_Cheer_Athletics	E	42.728378	-73.78842
Our_Lady_of_Angels_Cemetery	B	42.706485	-73.81678
Albany_Calvary_Presbyterian_Church	A	42.776068	-73.831456
Five_Below	C	42.754943	-73.756315
Cilantro_Mex	B	42.689228	-73.848955
Gina_Camaj_Salon_&_Spa	B	42.737206	-73.763606
Artist_Pianos	C	42.737789	-73.764668
Zaber_Pamela_Dvm	A	42.760983	-73.791721
Community_Maternity_Services	A	42.666308	-73.787503
Empire_Region_Insurance_Agency	C	42.753293	-73.777344
Sweetly	C	42.689458	-73.850723
Dan's_Place_Two	B	42.66294	-73.774454
Little_Tokyo	B	42.689235	-73.849815
Fiternity	B	42.775536	-73.750573
Uncle_Maddio's_Pizza	B	42.748729	-73.763397
Namco_Pool	C	42.728895	-73.847077
Latham_Fire_Department_Station_2	A	42.733028	-73.75025
Strut_Spalontique	B	42.719474	-73.801729
Mohawk_Valley_Church_Of_Christ	A	42.712394	-73.827842
Schanz_Beverage	C	42.710329	-73.710015
New_York_State_Council_Of_Churches	A	42.716007	-73.832173
Pier_1_Imports	C	42.720476	-73.80468
Best_Western_Sovereign_Hotel_Albany	B	42.677292	-73.828334
Master_Yang's_Martial_Arts_Center	A	42.752457	-73.758388
Immaculate_Heart_Of_Mary_Parish	A	42.735455	-73.705719
Super_8	B	42.755846	-73.774217
Visiting_Angels	B	42.712776	-73.82794
Felthousen's_Florist_&_Greenhouse	C	42.772159	-73.71568
Delightful_Foot_Spa	B	42.71706	-73.831688
Mobil	C	42.677295	-73.82431
O'Toole's_Restaurant_Pub	B	42.730165	-73.849452
Omilin_Auto_Svce	C	42.768095	-73.910109
Choice_Connections_of_NY	B	42.723874	-73.914512
All_Kids_Smile	A	42.685466	-73.839041
Sunoco	C	42.727449	-73.795532
Danielle_Ohrin	C	42.763611	-73.754221
Harley_Davidson	C	42.740202	-73.859615
Moe's_Southwest_Grill	B	42.784812	-73.943764
Capital_District_Family_Medicine_Assocs	A	42.772592	-73.752226
Bonanno_Michael_Cfp	B	42.705702	-73.777427
State_Farm	C	42.816415	-73.89286
Tip_To_Toe_Nails	B	42.686147	-73.854268
La_Fiesta_Mexican_Restaurant	B	42.718279	-73.834088
Capital_Pilates	B	42.686423	-73.782441
Mr_Meyer's_Bakery	E	42.793262	-73.944842
Center_of_Excellence_For_Hair_Restoration	A	42.753292	-73.777352
Van_Geest_Nursery	C	42.707037	-73.807552
Mosu	B	42.716895	-73.80846
Acuity_Therapeutic_Massage	B	42.727257	-73.761847
Cohoes_Middle_School	A	42.770443	-73.710564
Albany_MRI_Transfer_Station	E	42.746926	-73.786805
Accent_on_Skin	B	42.728144	-73.759791
Marjorie_Doyle_Rockwell_Center	A	42.775765	-73.725676
Maharaja_Indian_Restaurant	B	42.709661	-73.821585
Community_Vein_Care	A	42.758083	-73.777251
Northwestern_Mutual	C	42.772323	-73.822036
Chipotle_Mexican_Grill	B	42.773264	-73.893978
The_Black_Bear_Inn	B	42.730332	-73.703089
Fms_Niskayuna_Dialysis_Center	A	42.816663	-73.888477
Bap_Geon_Import_Auto_Parts	C	42.700026	-73.822027
Danielle's_Restaurant	B	42.725047	-73.80015
St_Peter's_Health_Care_Services	A	42.702811	-73.825275
Cohoes_City_Police_Department_Cohoes_New_York	A	42.774575	-73.699612
Cohoes_Falls_Park	B	42.785337	-73.710877
Monro	D	42.68939	-73.862579
Fidelity	A	42.712971	-73.814308
Plaza_Deli_of_Albany	B	42.704814	-73.86074
Bon_Appetit_Cafe	B	42.71532	-73.812924
Pig_Pit_BBQ	B	42.760251	-73.697947
Empire_Pizza	B	42.783191	-73.910895
The_Parent_&_Teacher_Store	C	42.749128	-73.761655
Rosendale_School	A	42.798603	-73.866657
KeyBank	C	42.802937	-73.900564
White_Barn	C	42.709008	-73.816826
Vic_DeVito_Agency_Nationwide_Insurance	C	42.746911	-73.75969
Citizens_Bank	C	42.717933	-73.812651
Eagle_Point_Y's_Time	A	42.673629	-73.816244
Get_Air	B	42.689334	-73.848415
Marshalls	C	42.754621	-73.756357
Village_Square_Shopping_Center	C	42.728833	-73.84619
Off_the_Hook_Fish_Fry	B	42.805532	-73.906023
CapitalCare	A	42.726869	-73.93813
Hertz	C	42.786552	-73.911351
Taco_Bell	B	42.785064	-73.945644
Stanford_Heights_Fire_Department_Station_2	A	42.744571	-73.902084
Congregation_Agudat_Achim	A	42.795213	-73.884033
Golden_Grain_Gourmet_Pizza	B	42.717395	-73.813001
Starbucks	B	42.708678	-73.775701
E_P_Nevins_Insurance_Agency	C	42.725252	-73.839879
Allstate_Insurance	C	42.717713	-73.806687
Catholic_Charities_Of_Diocese_Of_Albany	A	42.666364	-73.786251
Life_Church	A	42.741521	-73.778478
Choi's_Taekwondo	A	42.707156	-73.775681
Athos_Restaurant	B	42.690079	-73.867062
LensCrafters	A	42.710948	-73.815484
Goodcoff_David_J_DDS	A	42.770401	-73.756927
Family_Pet_Center	C	42.690037	-73.851763
Panther_Dragon	C	42.727367	-73.706297
Eddy_Memory_Care	B	42.775382	-73.725396
Crossgates_Commons	C	42.695812	-73.84723
Natalya_Tafen_Wandji_CPA	A	42.716924	-73.807675
Walmart_Pharmacy_10_2152	A	42.695324	-73.84611
Johar_A_Paul_DMD	A	42.687993	-73.773034
Langan_Chrysler_Jeep	C	42.764469	-73.886834
Colonie_Youth_Center_Inc_Shaker_Road_School	A	42.709741	-73.782646
Trustco_Bank	C	42.768841	-73.819497
Executive_Cuts	B	42.737229	-73.763589
G_&_M_Auto_Tech	D	42.791222	-73.91582
Monro	D	42.683229	-73.794315
JC's_Central_Deli	B	42.729965	-73.850066
Journeys	C	42.689647	-73.849856
Homewood_Suites_by_Hilton	B	42.725589	-73.798677
Hodge_Katherine_Pt	A	42.758312	-73.777438
Subway	B	42.755425	-73.7735
Collins_Michael_K_Chiropractor	A	42.783757	-73.916772
JC_Beauty_Bar_Salon	B	42.766561	-73.754188
Orange_Julius	B	42.689465	-73.850735
Yogibo	C	42.690094	-73.852034
Ronald_A_Scharf_DVM	A	42.779921	-73.848441
Quants_Painting_&amp_Remodeling	D	42.78376	-73.934934
Mr._Tire	C	42.705075	-73.819058
Living_Recovery_12_Step_Books_&_Gifts	C	42.784569	-73.742804
Infinity_Athletics_Health_Cafe	B	42.742464	-73.838542
STS_Trailer_&amp_Truck_Equipment	C	42.735351	-73.853674
D_DB_School_Of_Dance	A	42.751633	-73.761462
Tsl_Daycare_Services_Inc	A	42.673095	-73.849342
Popeyes_Louisiana_Kitchen	B	42.800047	-73.927203
Cachet_Salon	B	42.689313	-73.864132
Michael's_Shoe_Service	D	42.803371	-73.901582
City_Line_Bar_and_Grill	B	42.677241	-73.82651
China_Dragon	B	42.788869	-73.93666
Franklin_Delano_Roosevelt_Elementary_School	A	42.803414	-73.948348
Berkshire_Bank	C	42.716683	-73.810444
Capital_Thai	B	42.684908	-73.794793
Dermatology_for_Animals	A	42.740032	-73.738252
Consaul_Auto_Care	D	42.752371	-73.855974
Union_Tandoori_Grill	B	42.805548	-73.905993
Accent_On_Skin	B	42.730387	-73.76194
Verizon_Wireless	C	42.715708	-73.829776
The_Horses_Lounge	B	42.807497	-73.913531
Classic_Cuts	B	42.762335	-73.885553
Moe's_Southwest_Grill	B	42.726748	-73.795123
Brescia_Jerry	A	42.80242	-73.8999
Fleur_De_Lis	B	42.757791	-73.779892
Guptill's_Roller_Skating_Arena	A	42.78134	-73.745011
Mazadar_Mediterranean_Kitchen	B	42.731831	-73.847787
Mobil	C	42.686847	-73.854436
Jackson_Hewitt_Tax_Service	A	42.771964	-73.701007
Guitar_Center	C	42.717675	-73.803877
Johnson_Controls	C	42.701344	-73.8302
HomeGoods	C	42.736102	-73.764399
Buena_Comida_Food	B	42.689956	-73.866612
Price_Darin_M_DO	A	42.726884	-73.938158
Sears_Outlet_Store	C	42.695523	-73.847106
Hannaford_Supermarkets	C	42.755792	-73.760612
Amore_Clothing	C	42.727556	-73.75983
Capital_Region_Complete_Dental_Care_&_Implants	A	42.769627	-73.700704
Upstate_Chiropractic_and_Wellness	A	42.703589	-73.859793
The_Local_ALB	B	42.745783	-73.809611
Roessleville_Presbyterian_Church	A	42.695123	-73.805951
Wilsons	C	42.689576	-73.849782
Loyal_Nutrition	A	42.777596	-73.934039
Healing_Meals	A	42.693677	-73.773276
Annur_Islamic_School	A	42.762098	-73.881093
Albany_Med_Community_Division_Pediatrics	A	42.683263	-73.846759
GP_North_East_Clippers	B	42.772471	-73.701351
Jay_Street_Body_Works	D	42.688997	-73.796704
Prime_Eyebrows_Threading	B	42.67646	-73.824067
Dollar_N_Things	C	42.708811	-73.817191
Citizens_Bank	C	42.755455	-73.759297
Frank_Adams_Jewelers	C	42.684353	-73.839335
Enhanced_Glam	B	42.726812	-73.854178
Teas_n'_Tapas	B	42.770946	-73.824288
Sal_Singh_DDS	A	42.805369	-73.907028
Gage_Hl_Sales	C	42.693404	-73.845769
Sherwin-Williams	C	42.71904	-73.80738
Baymont_Inn_&_Suites	B	42.754229	-73.816283
Hilton_Music_Center	C	42.710964	-73.815432
Mohawk_Valley_Railroad	C	42.786661	-73.929672
Schenectady_JCC_Snack_Bar	B	42.832105	-73.894039
Squirts_Car_Wash	D	42.789109	-73.936008
Firestone_Complete_Auto_Care	C	42.714898	-73.811533
Romaine_Robert_McDonough_Dr	A	42.76626	-73.730867
Sisters_of_St_Joseph	A	42.733282	-73.782052
Harold_Finkle_Your_Jeweler	B	42.716794	-73.831292
McDonald's	B	42.755108	-73.759415
Heart_Lotus_Qigong	B	42.776757	-73.683691
Sorbero_Orthodontics	A	42.685428	-73.838928
SaraBella_Pizza	B	42.710722	-73.805298
Inferno_Pizzeria	B	42.772674	-73.687646
Niskayuna_Barber_Shop	B	42.815939	-73.894195
Wired_Coffee_and_Bagel	B	42.725893	-73.793933
Circles	C	42.684869	-73.840906
Solartech_Window_Tinting	E	42.792076	-73.917889
Muddy's_40	B	42.717226	-73.71789
Right_Way_Driving_Center	A	42.709809	-73.816213
Comprehensive_Neuropsychological_Services	A	42.665436	-73.789093
Hilltop_Pizzeria	B	42.737829	-73.724098
The_Acupuncture_Office	A	42.772683	-73.757839
PPG_Pittsburgh_Paints	C	42.752683	-73.778723
Page_Lincoln_E_Podiatrist	A	42.727983	-73.772921
Health_Street	A	42.802157	-73.898309
Tia_Tucciarone	C	42.76358	-73.754218
Inferno_Pizzeria	B	42.738198	-73.727922
Expertsland	A	42.722193	-73.80065
Schuyler_Meadows_Club	B	42.721169	-73.741334
Hiit_By_Hilts	A	42.716227	-73.838959
The_Di_Bella_Financial_Group_LLC	A	42.703091	-73.858777
One_Huge_Shop_For_You	C	42.8037	-73.902473
Window_World	C	42.696473	-73.810133
Build_A_Bear_Workshop	C	42.689425	-73.849447
Dee_Dee's_Tavern	B	42.73778	-73.771991
OfficeMax	C	42.730406	-73.849149
Beach_Body_Tanning	B	42.684083	-73.838508
Darul_Taqwah	A	42.798558	-73.924937
Boost_Mobile	C	42.731917	-73.707215
The_Market	B	42.720935	-73.799326
Bed_Bath_&_Beyond	C	42.711972	-73.819682
Capital_District_Internal_Medicine	A	42.679827	-73.83494
Deitz_Family_Dental	A	42.694247	-73.773504
Bell_Samuel_D_Dr_Podiatrist	A	42.807841	-73.868569
Sanitary_Barber_Shop	B	42.726535	-73.705734
Guardian_Life_Insurance_Co_of_America_Group_Sales	C	42.762812	-73.820463
Reach_Out_Fellowship	A	42.703026	-73.782441
Sunset_Park	B	42.780978	-73.708971
Walgreens	A	42.730893	-73.702068
Immaculate_Conception_Cemetery	B	42.734222	-73.734697
Simply_Grille	B	42.730627	-73.848301
Cass_Hill_Development_Cos	C	42.770388	-73.756921
McGinnis_Women's_Medical_Care_PC	A	42.72196	-73.807473
The_Heritage_Group	C	42.768854	-73.82324
Hoffman_Car_Wash	D	42.707949	-73.778814
Scott_Soule_DDS_Scott_Soule_Dentistry	A	42.77836	-73.932987
Brian_Beaury_Basketball_Camp	A	42.664008	-73.785563
Childtime_Childcare_Inc	A	42.733386	-73.846078
Capital_City_Church	A	42.74821	-73.779157
Colorful_Nails	B	42.67686	-73.825324
Ania_Hair_Studio_&_Spa	B	42.687287	-73.858413
Aerotek	B	42.772513	-73.823043
Aspen_Dental	A	42.773316	-73.892766
Albany_County_Opportunity_Inc_Ogden_Mill_Head_Start	A	42.774416	-73.702181
Beverage_Baron	C	42.707348	-73.774717
Hair_By_BobbyJo	B	42.760091	-73.943395
Broadway_Choppers	C	42.771196	-73.914691
Albany_RV	C	42.750718	-73.774019
Watervliet_Civic_Center_Before_&_After_School_Program	A	42.73727	-73.710893
Empire_State_Stone	C	42.750814	-73.868708
Pruyn_House	B	42.731992	-73.778143
Bourbon_Street_Bar_&_Grill	B	42.762414	-73.883425
Carrie_Myatt_CPE_Electrolysis	B	42.767243	-73.816219
Fox_Vision_Development_Center	A	42.770572	-73.823581
Planet_Fitness	B	42.754204	-73.761211
Symetry_Hair_Design_Studio	B	42.766611	-73.937963
LOFT	C	42.683336	-73.838423
AT&T	C	42.684121	-73.840776
45_Restoration_Co	C	42.694542	-73.807604
Phil's_Body_Shop	D	42.802402	-73.955766
FasTrax_Raceway	A	42.695119	-73.847815
Pad_Thai_Noodle	B	42.693692	-73.773311
Paul's_Garage	D	42.662932	-73.779353
Associates_In_Occupational_Medicine_PC	A	42.701164	-73.849477
51_Vape	C	42.701946	-73.814124
Autopart_International	C	42.786208	-73.912589
Subrata_Mukherjee_DDS	A	42.685419	-73.838967
DHL	C	42.733169	-73.793407
Buerker_Chiropractic_Office	A	42.781793	-73.954027
Schuyler_Barber_Shop	B	42.714453	-73.705955
American_Racing_Equipt	C	42.72622	-73.852952
Dom's_Pizza_Subs_&_Wings	B	42.783866	-73.743557
Hair_Razors_Salon_Spa_&_Boutique_G	B	42.802549	-73.900125
Mr_Wasabi	B	42.804778	-73.903818
Coco_Spa_Nails_Salon	B	42.783385	-73.890982
Dunkin'	B	42.783597	-73.742879
The_Merzig_Arthritis_&_Osteoporosis_Clinic	A	42.688469	-73.775387
Nemeth's_Auto_Repair	D	42.795857	-73.944541
Vireo_Health_Albany	C	42.701002	-73.819428
DeLollo's_Hardware	C	42.732175	-73.706835
First_Niagara	C	42.695026	-73.879491
Eastern_Mountain_Sports_Inc	C	42.77388	-73.892841
Hilton_Garden_Inn	B	42.746499	-73.818826
Foot_Locker	C	42.688507	-73.848011
Grandma's_Pies_&_Restaurant	B	42.698927	-73.810796
Smashburger	B	42.714689	-73.812066
MassMututal	A	42.770314	-73.75943
Ethan_Allen	C	42.708578	-73.821023
Shoppes_At_Newton_Plaza	C	42.727541	-73.761318
Apropos_Prom_and_Bridal	C	42.690382	-73.865571
Touching_Hearts_at_Home	A	42.72141	-73.863629
Noor_Mart	C	42.732826	-73.711851
Chrisler_Laundromat	E	42.795633	-73.943413
Capurso_Rose_J_PHD	A	42.710336	-73.864108
Attentive_Care	B	42.719555	-73.808959
Nikks_R_Us	A	42.730807	-73.705789
First_Fuel_&amp_Propane	C	42.781873	-73.705226
World_of_Beer	B	42.690559	-73.853153
McDonald's	B	42.74414	-73.919427
Petco	C	42.706246	-73.821089
Starcite_Nails	B	42.815952	-73.893773
Watervliet_Plaza	C	42.729113	-73.700696
Healthy_Pet_Center	C	42.745462	-73.760606
PoolCorp	C	42.741349	-73.792774
Lucky_Strike_Social_Albany	B	42.689487	-73.850746
Cohoes_Downtown_Market_place	C	42.774066	-73.700901
ABunchABrunch	B	42.689479	-73.850733
Kerstin_Medwin_DC	A	42.697963	-73.768608
RetinaCare_Consultants	A	42.751637	-73.761441
John's_Auto_Repr	D	42.765146	-73.940002
The_Boil_Shack	B	42.712954	-73.814352
Nail_Works	B	42.735233	-73.762582
Lee_Nails	B	42.689825	-73.851837
Wealth_Advisory_Group	C	42.772494	-73.823027
Panera_Bread	B	42.695616	-73.847325
Bova_Health_and_Wellness	A	42.762899	-73.799204
Starbucks	B	42.783617	-73.91365
SALON_Noir	B	42.763638	-73.754309
Lansing_Farm_Market_&_Greenhouses	C	42.763288	-73.85458
J_J_Rafferty's	B	42.752241	-73.759118
West_Marine	C	42.754399	-73.766667
CosmoProf	C	42.782031	-73.950527
4_Corners_Pizza	B	42.787319	-73.940841
Monro	D	42.738033	-73.761505
Xtramart_Watervliet	C	42.707488	-73.712385
1st_Advantage_Dental_Latham	A	42.77245	-73.822873
Healing_Arts_&_Chiropractic_Center	A	42.718689	-73.808149
MezzaNotte_Ristorante	B	42.696813	-73.886328
Schcnectady_Mobile_Drug_Testing	A	42.695228	-73.878846
TL_Bodywork_Massage	B	42.731268	-73.776535
NAPA_Auto_Parts	C	42.734053	-73.791498
Say_it_With_Shirts	E	42.789684	-73.944942
Charley's	B	42.689363	-73.850217
Pellegrino_M_Importing	C	42.694446	-73.80565
CapitalCare_Family_Practice_Great_Oaks	A	42.683415	-73.846878
Hertz	C	42.743934	-73.749744
Capital_Region_Obgyn	A	42.75831	-73.777453
Heather_Clark_LMT	B	42.701611	-73.81977
Anchor_Agency	C	42.725789	-73.793734
Regency_Jewelers_Fine_Jewelry	C	42.783502	-73.947359
Fiqh_Institute_&_Dawah_Center_of_America	A	42.733463	-73.708309
Albany_Jcc_Montessori_Magnet_School	A	42.683463	-73.799161
Stephen_A_Harris_DMD	A	42.72595	-73.841715
Subway	B	42.677283	-73.824231
Metabolic_Meltdown	B	42.714626	-73.841737
Brotherhood_Park	B	42.734681	-73.704599
The_Children's_Place	C	42.710436	-73.816552
Boys_&_Girls_Clubs_of_America	B	42.801765	-73.916837
Dunkin'	B	42.764138	-73.801702
Trader_Joe's	C	42.714277	-73.812002
MK_Beauty_&_Barber_Lounge	B	42.742384	-73.838504
Express_Employment_Professionals	B	42.742381	-73.83851
Latham_Community_Baptist_Church	A	42.765978	-73.780149
Dawson's_Body_Shop	C	42.706863	-73.711413
New_York_State_Optometric_Association	A	42.70408	-73.85865
Eblens	C	42.688495	-73.849236
Rotterdam_Dental_Arts	A	42.786926	-73.942191
Grace_Baptist_Church_Of_Guilde	A	42.780156	-73.893908
Albany_Multi_Medicine_Group	A	42.723092	-73.839745
Sake_Bon	B	42.789098	-73.937053
The_Poke_Bar	B	42.708354	-73.775411
Comis_Michael_J_DDS	A	42.807502	-73.912333
Star_Liquors_&_Wines	C	42.799379	-73.925853
Camila's_to_go	B	42.696852	-73.768007
TC_Nails	B	42.781211	-73.905898
United_Rentals	C	42.71322	-73.839421
Valero_Energy	C	42.795144	-73.929756
Aflac_Kari_Cook	C	42.716722	-73.804756
All_Stars_Academy	A	42.738837	-73.735138
The_Language_Learning_Institute	A	42.748978	-73.765209
Dollar_Tree	C	42.816405	-73.891045
New_Covenant_Farmers_Market	C	42.671958	-73.810609
Just_Threading_Eyebrowz	B	42.749235	-73.761829
HRS_Hair_Replacement_Services	B	42.724099	-73.841144
Christ_Community_Church_Of_Carman_Inc	A	42.773352	-73.935421
Michael's_Barber_Shop	B	42.786446	-73.943479
Gig_Computers	C	42.700711	-73.814188
Bob's_Discount_Furniture	C	42.747405	-73.7637
Tim_Peek_&amp_Son_Fuel_Oil_Services	C	42.758491	-73.928004
Hot_Cuts	B	42.710257	-73.817021
Luciano_Wine_&_Liquor	C	42.692714	-73.872962
Cummins_Northeast	D	42.700815	-73.828802
St_Matthews_Episcopal_Church	A	42.742823	-73.75904
HockeyTown_Pro_Shop_&_Skate_Sharpening	C	42.748058	-73.759603
SKECHERS_Warehouse_Albany	C	42.683777	-73.777482
Firefighter_Memorial	B	42.715172	-73.78514
EmUrgentCare	A	42.716918	-73.810806
Colonial_Car_Wash	D	42.787426	-73.91149
Ellis_Hospital	A	42.761949	-73.815234
Tugboat_Tavern	B	42.767987	-73.693652
DeJoseph_Hair	B	42.736885	-73.844792
Home_Outlet	C	42.783562	-73.921789
Liberty_Tax_Service	A	42.732933	-73.7108
Hair_By_Taryn_L	B	42.782279	-73.745694
Hrt_Ministries_Inc	A	42.757126	-73.745621
Moe's_Southwest_Grill	B	42.748725	-73.763476
US_Nails	B	42.691078	-73.868147
Kohl's	C	42.728852	-73.850985
Grassland_Equipment_Irrigation	C	42.76102	-73.793499
Central_Park_International_Magnet_School	A	42.801751	-73.916751
Metro_by_T_Mobile_Authorized_Dealer	C	42.771164	-73.700787
Orchids_Jamaican_American_Restaurant	B	42.800838	-73.926626
St_Ambrose_Church	A	42.758057	-73.752822
China_Wok	B	42.691131	-73.868195
Generation_Axe_Throwing	B	42.697749	-73.824148
A_A_U_Taekwondo_National_Headquarters	A	42.78813	-73.867459
Dunkin'	B	42.705393	-73.775306
Perlman's_Towing_&_Recovery	C	42.689222	-73.80108
Duck_Donuts	C	42.754199	-73.761196
Mavis_Discount_Tire	D	42.74262	-73.7614
Nicky_P's	B	42.769918	-73.915224
American_Red_Cross_Fulton_Co_Chapter	B	42.689311	-73.77766
Scotti's_Restaurant_&_Pizzeria	B	42.803307	-73.901474
Pretzel_Time_2	B	42.688653	-73.849068
tru_by_Hilton	B	42.687027	-73.852669
SriSiam_Thai_Restaurant	B	42.740966	-73.762574
Health_Street	A	42.686477	-73.78228
The_Lazy_Axe	B	42.733619	-73.850361
Albany_Associates_In_Cardiology	A	42.690274	-73.776588
USA_Gasoline	C	42.717586	-73.832441
Stewart's_Shops	C	42.702527	-73.882126
Edelweiss_Veal_Co	C	42.691414	-73.782612
Newtonville_United_Methodist_Church	A	42.724442	-73.759681
Subway	B	42.729287	-73.700583
Lemons_Lorraine_DO	A	42.686447	-73.841023
Evergreen_Memorial_Cemetery	B	42.757891	-73.881049
New_Apostolic_Church_Of_Plattsburgh_Ny	A	42.742531	-73.93387
Capital_Kitchen_&_Granite	C	42.716648	-73.831121
Brown_School	A	42.783466	-73.900579
Albany_Total_Wellness	A	42.696369	-73.770096
Sitar	B	42.737989	-73.855393
Spiritualist_Church_Of_Love_And_Light	A	42.802345	-73.90073
Home_Style_Caterers	E	42.803454	-73.901818
Automatic_Data_Processing	A	42.768699	-73.822393
Grace_Fellowship	A	42.736151	-73.730809
Carmen_Rau_RE_MAX	C	42.687231	-73.858547
O'Reilly_Auto_Parts	C	42.737948	-73.85535
Todd_Vaccaro_DDS	A	42.802135	-73.897875
Mobil	C	42.747475	-73.759532
AAA	C	42.72785	-73.7598
DeNooyer_Group	C	42.749108	-73.867427
Precision_Volvo_Repair	D	42.75953	-73.897373
Lashed_Out	B	42.770589	-73.823584
Quality_Inn	B	42.772475	-73.937528
Wilson_Jeffrey_J_PC	A	42.806563	-73.909955
Nordstrom_Rack	C	42.709608	-73.817891
New_Dragon_Garden_Restaurant	B	42.744669	-73.838122
Schenectady_Urological_Associates	A	42.82721	-73.90671
Kristel_Mechanical	C	42.774507	-73.952973
Tengu_Asian_Bistro	B	42.703176	-73.815418
Emily_K_Modan	C	42.791664	-73.872123
Namia_Salon_&_Spa	B	42.701211	-73.820244
Complexions_Spa_For_Beauty_&_Wellness	B	42.725694	-73.796489
Dairy_Queen	B	42.690165	-73.852257
In_Harmony_Yoga	B	42.773163	-73.700834
Zumiez	C	42.689252	-73.849209
Albany_County_Jail_Albany_New_York	A	42.751161	-73.815792
Health_Street	A	42.71691	-73.810828
Black_and_Blue_Steak_and_Crab	B	42.680821	-73.83858
Alternative_Approach_Massage_Therapy	A	42.692996	-73.804264
Stiletto_Salon	B	42.70153	-73.813498
Empire_Christian_Center	B	42.701727	-73.85024
New_York_State_Credit_Union_League	C	42.743739	-73.836724
Street_Corner_News	C	42.689504	-73.850764
Gia_Bella_Hair_Salon	B	42.793065	-73.931825
The_Vitamin_Shoppe	A	42.772513	-73.893827
The_Original_Soupman	B	42.710486	-73.816353
Sprint	C	42.684537	-73.839476
Pizza_Hut	B	42.756178	-73.770498
Community_Hospice_Albany	A	42.740001	-73.840747
Brasch_Robert_C	A	42.75814	-73.777384
City_Of_Albany_Department_Of_Fire_Emergency_Medical_Services_And_Code_Enforcement_Pine_Bush	A	42.701382	-73.851306
Rent-A-Center	C	42.791642	-73.916353
New_York_Army_National_Guard	B	40.741329	-73.984233
Klim_Susan_L_PHD	A	42.738943	-73.841259
Muslim_Community_Of_Troy_Inc	A	42.742171	-73.748474
Mattress_Xpress	C	42.77947	-73.903611
Firestone_Complete_Auto_Care	C	42.736438	-73.761397
Christopher_J_Maestro_DMD	A	42.681897	-73.848589
Pretzelmaker	C	42.688657	-73.849043
Price_Chopper_New_England	C	42.753198	-73.757139
State_Farm	C	42.685404	-73.838913
Airdrenaline_Adventure_Park	A	42.724444	-73.851716
Surya_Immediate_Medical_Care	A	42.769505	-73.822378
Siena_College	A	42.718202	-73.752392
LR_Nail	B	42.689808	-73.866102
Tuesday_Morning	C	42.696775	-73.847426
Albany_Diocesan_School_Board	A	42.666368	-73.786138
Sand_Creek_Middle_School	A	42.706762	-73.799562
Gary_Harlan	C	42.781047	-73.905239
Dewey's_Diner	B	42.700804	-73.820945
Physical_Therapy_Assocs_Of_Schenectady	A	42.769618	-73.822374
Cash_King	C	42.734248	-73.851406
Beef_Jerky_Outlet	C	42.73404	-73.762788
Robert_Half_International	A	42.679923	-73.764784
Dollar_Tree	C	42.785598	-73.945359
All_Good_Things	B	42.708786	-73.775287
Pursue_the_Clue	B	42.712637	-73.827697
Field_&_Stream	C	42.752828	-73.764097
Colonie_Youth_Center_Inc_Forest_Park_School	A	42.720243	-73.823525
Carmen_United_Methodist_Church	A	42.781697	-73.932067
Blossoming_Bakery	E	42.773468	-73.684707
Junk_King_Capital_District	E	42.714853	-73.839566
Smoke_More	C	42.803143	-73.901121
Long_Energy	C	42.748344	-73.910531
Albany_Beverage_Center	C	42.716302	-73.9316
Pure_Barre	B	42.774189	-73.892849
BiggLash_Eyelash_Extensions	B	42.771512	-73.946713
AA_Insurance	C	42.743188	-73.743645
H&R_Block	A	42.718194	-73.805109
LasikPlus_Vision_Center	A	42.685513	-73.765651
Eric_Panichi	B	42.724713	-73.700486
Dunkin'	B	42.730133	-73.761657
Our_Original_Pizzeria	B	42.795488	-73.946083
Dough_Life	E	42.689477	-73.850717
Habana_Premium_Cigar_Shoppe	C	42.720164	-73.835165
Mutual_of_Omaha_Insurance	C	42.711523	-73.868143
The_Breakfast_Spot	B	42.773242	-73.700743
I_Love_NY_Pizza_of_Schenectady	B	42.804295	-73.902684
Lucky_House	B	42.77421	-73.701423
Edible_Arrangements	C	42.720767	-73.802026
Clarks	C	42.689914	-73.84988
Finish_Line	C	42.711435	-73.814195
Fantastic_Sams	B	42.757338	-73.761695
Amethyst_Springs	B	42.762151	-73.797517
Suzuki	C	42.783846	-73.92942
All_You_Are	B	42.787532	-73.740373
Farmer_Boy_Diner_&_Restaurant	B	42.742529	-73.86045
St_Croix_Tan	B	42.728276	-73.7597
Sprint	C	42.6885	-73.849251
Madison_&_Saratoga_Hearing_Center	B	42.703674	-73.860131
Pepper_Palace	C	42.689513	-73.8507
Big_Blue_Bus	B	42.676619	-73.824632
Johnny_Bladez	B	42.712741	-73.827823
Johnny_C's_Pizzeria_and_Family_Restaurant	B	42.781676	-73.952841
Albany_Ketamine_Infusions	A	42.66673	-73.791496
Next_Level_Detailing	D	42.751789	-73.870236
Ellen_Sweet_Realty_USA	C	42.714948	-73.803842
Northern_Nurseries	C	42.760415	-73.901203
Liberty_Mutual	A	42.753262	-73.781355
Boomer_McLoud	C	42.788817	-73.936524
Chipotle_Mexican_Grill	B	42.755725	-73.775969
Lola_Saratoga	C	42.684139	-73.839146
Anna's_Wood_Fired_Pizza	B	42.770971	-73.824261
Cellos_2_Go	C	42.793081	-73.931834
St_Michael_Church_Hall	A	42.774542	-73.692122
Cdt_Automotive	D	42.756097	-73.700616
Stewart's_Shops	C	42.771725	-73.727568
Bank_of_America	C	42.718604	-73.805499
Boomer_Fitness_Delivered	B	42.72381	-73.929831
TIAA_Financial_Services	A	42.772237	-73.759359
United_States_Postal_Service_(USPS)	C	42.738527	-73.777758
FedEx	C	42.717549	-73.809431
New_York_State_Council_of_Catholic_Schl_Sprntndnts	A	42.658537	-73.768454
Guido's_Frozen_Desserts	B	42.663	-73.775735
Dollar_Tree	C	42.773785	-73.702808
Genesis_Hair_Studio	B	42.721064	-73.83728
Oyishi_Japan	B	42.710608	-73.815971
Tom_Morrissey_OD	A	42.784848	-73.944733
Massage_by_Tera	B	42.686786	-73.856095
Stephen_Hepp's_Auto_Service	C	42.773002	-73.689698
Evolve_Psychiatry	A	42.693042	-73.873354
Mamone's_Auto_Body_Repair	D	42.722258	-73.701369
Adams_Frank_Jewelers	C	42.684361	-73.839334
Eric_Mitchell_Salon	B	42.777651	-73.901264
Niskayuna_Electrolysis	B	42.811666	-73.88544
Rijo_Realty_Group	C	42.728678	-73.743164
maurices	C	42.776053	-73.889731
Our_Daily_Eats	C	42.682463	-73.774915
Adirondack_Tire_&_Service	D	42.804257	-73.902172
A.C._Moore	C	42.754113	-73.756515
Buff's_Auto_Service	D	42.690072	-73.782808
PurpleSale_com	A	42.747427	-73.749413
Turn_Key_Construction_&amp_Property_Management	A	42.70546	-73.771682
Touch_of_Class_Window_Tinting	D	42.789852	-73.94099
Michael_Kors	C	42.688778	-73.848788
Auntie_Anne's	B	42.710499	-73.816176
John_Paolo's_Xtreme_Beauty_Institute_Goldwell_Product_Artistry	A	42.762117	-73.752352
Spascape_Beauty_and_Wellness	B	42.696555	-73.885417
Milan_Laser_Hair_Removal	B	42.713536	-73.813493
Holland_Nursery_Ghses_&_Flower_Shop	C	42.725493	-73.82367
Van_Antwerp_Middle_School	A	42.808928	-73.895027
Stromboli's_Pizza_and_Pasta	B	42.703847	-73.775884
David_Walraed_Howard_Hanna_Real_Estate_Services	C	42.714963	-73.803821
Pharmaceutic_Labs	A	42.716393	-73.840116
Olszewski_Peter_NP	A	42.758078	-73.777217
Runway_Express	C	42.786114	-73.943671
Carter's	C	42.775986	-73.889754
Bob's_Diner	B	42.732689	-73.709891
Brown_Bag_Sub_Shoppe	C	42.77418	-73.934982
Trustco_Bank	C	42.772053	-73.893928
195_Troy_Schenectady_Rd	C	42.740463	-73.731381
Union_Cafe	B	42.803805	-73.901435
Primeau_Auto_Body_Inc	D	42.773031	-73.705159
Subway	B	42.77055	-73.822177
Arby's	B	42.718412	-73.805806
Mottolese_&_Mottolese_DDS_PC	A	42.688416	-73.775588
St_Michaels_Episcopal_Church	A	42.726572	-73.834254
Tanpopo_Ramen_and_Sake_Bar	B	42.804882	-73.904051
Nothing_Bundt_Cakes	E	42.717397	-73.809374
Appliance_Man	E	42.706434	-73.826436
Dixon_David_J	A	42.693898	-73.771922
Fox_Patricia_A_PC	A	42.804478	-73.915976
Trans_World_Entertainment	C	42.705946	-73.876253
Jo-Ann_Fabric_and_Craft_Stores	C	42.705843	-73.82473
Pizza_Central	B	42.690513	-73.801539
The_UPS_Store	C	42.732208	-73.8487
Our_Savior's_Lutheran_School	A	42.705368	-73.8085
Lisha_Kill_Middle_School	A	42.748666	-73.857889
Newcomer_Funeral_Home_&_Cremation_Services	B	42.729021	-73.854319
State_Street_Car_Wash	D	42.798417	-73.925668
Capital_City_Church_Inc	A	42.73244	-73.848572
McDonald's	B	42.727616	-73.700797
Lipo_Spa_Albany	B	42.773185	-73.821836
Spencer's	C	42.689391	-73.85103
Pizza_Hut	B	42.804067	-73.903671
Walmart	C	42.785279	-73.94172
Bright_Horizons	A	42.683319	-73.765867
Scrumptious	B	42.758307	-73.77743
Renzo_Gracie_Academy	A	42.750911	-73.76095
Medical_Liability_Mutual_Insurance	C	42.75919	-73.822773
Ellis_Residential_&_Rehabilitation_Center	B	42.804497	-73.915962
GameStop	C	42.68969	-73.84999
Embellish_Hair_Studio	B	42.744583	-73.837704
Starbucks	B	42.745909	-73.809297
Plv_International	D	42.79274	-73.917503
Dance_Me	A	42.804974	-73.904446
Colose_Chiropractic	A	42.796806	-73.89413
Pearl_Carroll_&_Associates	C	42.75718	-73.821181
English_Language_Study_Center	A	42.664123	-73.785664
Hudson_Shores_Medical_Group	C	42.726422	-73.701562
Terminix	D	42.71755	-73.83833
United_Buffet	B	42.783784	-73.916956
Martinelli_Michael_J_MD_Facc	A	42.690329	-73.776664
The_New_York_Catholic_Choral_Inc	A	42.76964	-73.827155
State_Farm	C	42.690492	-73.868057
Safelite_AutoGlass	D	42.75734	-73.813847
Latham_Internal_Medicine	A	42.758103	-73.77726
Kay_Jewelers	C	42.689417	-73.850118
Mike's_Diner	B	42.724894	-73.936179
IAA	C	42.74078	-73.887029
IMAX	A	42.690931	-73.852446
Jim_Birdsall_Yankee_Realty	C	42.724766	-73.840562
Cider_Belly	B	42.700372	-73.821246
The_Capital_Living_Nursing_&_Rehabilitation_Centre	B	42.791202	-73.93241
The_Exchange	C	42.709819	-73.707216
Dish_Network_Sales	C	42.724582	-73.726508
Chuckrow_Joe_Sales	C	42.769883	-73.841397
Dave's_Tire_Warehouse	C	42.748357	-73.868371
Capital_District_Oral_&_Maxillofacial_Surgeons	A	42.771856	-73.757461
Pasquali_Michael_J_DDS	A	42.684723	-73.837744
Teresian_House_Nursing_Home_Co_Inc	B	42.702029	-73.856163
Richard_T_Bauer_III_DPM_AACFAS_Summit_Foot_&_Ankle	A	42.764646	-73.811245
Pioneer_Bank	C	42.781103	-73.952712
Allstate_Insurance	C	42.69041	-73.865562
Cross_The_Dmz_Christian_Assembly	A	42.763687	-73.892711
Crisp	B	42.72751	-73.761133
Latham_Bowl	B	42.745271	-73.750841
Smokey_Bones	B	42.71547	-73.829243
General_Nutrition_Cntr	A	42.816601	-73.890137
Shaker_Ridge_County_Club	B	42.750155	-73.824205
Great_American_Cookies	C	42.689496	-73.850635
Interim_HealthCare	B	42.725929	-73.841718
Beverwyck_Park	B	42.664738	-73.779086
The_Cat's_Meow	B	42.700114	-73.886182
Clinton_Park	B	42.730998	-73.708089
The_Desmond_Hotel_Albany	B	42.728266	-73.798736
Latham_Center	C	42.757238	-73.769073
KeyBank	C	42.744822	-73.761241
Saint_Marys_Cemetery	B	42.805992	-73.914929
New_York_Life_Insurance	A	42.770955	-73.759044
Gloria's_Creative_Hair_&_Nail_Care	B	42.796096	-73.933064
CVS	A	42.726383	-73.761123
Sunoco	C	42.774447	-73.697997
Friedman_Mark_DPM_PLLC	A	42.686404	-73.840992
State_Street_Convenience	C	42.795938	-73.921073
Famous_Footwear	C	42.69028	-73.851786
Core_Physical_Therapy	A	42.695232	-73.878844
Chowfun_Express	B	42.68691	-73.85885
American_Design_and_Contracting	A	42.722561	-73.859605
To_The_Point_Tattoo	B	42.774502	-73.701482
Ario's_Pizza_&_Barbeque	B	42.770709	-73.820633
The_Good_Karma_Studio	B	42.716524	-73.838269
State_Farm	C	42.726488	-73.842508
Charming_Charlie	C	42.711065	-73.81613
Pioneer_Savings_Bank	C	42.730754	-73.700858
Fuccillo_Volkswagen_of_Schenectady	C	42.764594	-73.886952
Jeffrey_Ryan_Family_Medicine	A	42.736083	-73.845707
St_Pius_X_Catholic_School	A	42.696758	-73.761679
Calvary_Baptist_Church	A	42.696391	-73.800951
Karma_Bistro	B	42.816562	-73.890581
The_UPS_Store	C	42.695383	-73.879046
Hair_By_Penny_Williams	B	42.802527	-73.900119
T_Mobile_Store	C	42.684522	-73.839473
Prime_Storage	E	42.736415	-73.787665
Cummins_Sales_and_Service	A	42.700823	-73.82884
John_R_Zongrone_Agency_Inc	C	42.788418	-73.913476
Fritze_Jeweler	C	42.721559	-73.836699
Lisuzzo_Insurance_Agency_Inc	C	42.712944	-73.828035
PharmaCannis_Albany	A	42.687214	-73.842256
K_Plastic_Surgery	A	42.757814	-73.776786
Glenn's_Auto_Body	D	42.787968	-73.940929
Maplewood_Pathology	A	42.761055	-73.818488
Subway	B	42.715799	-73.812334
Finish_Line	C	42.690783	-73.85265
Dressbarn	C	42.706482	-73.823642
Wholesale_Tire	C	42.748366	-73.868389
Clas_Carol_DC	A	42.686292	-73.842058
Salon_Pure	B	42.742462	-73.743795
Hoffman_Car_Wash	D	42.743957	-73.761243
Burger_King	B	42.680994	-73.83903
Banana_Republic	C	42.688226	-73.848434
Dnipro	C	42.75723	-73.758594
Alvarez_Oscar_DDS	A	42.773629	-73.934986
Latham_Farms_Shopping_Center	C	42.75567	-73.762022
Mouse_Trap_Bar_&_Restaurant	B	42.756114	-73.757845
Ryan's_Farmers_Market	C	42.700748	-73.829878
Amica_Mutual_Insurance_Company	C	42.7158	-73.81448
Howard_Health_Coaching	A	42.668257	-73.785408
Lighthouse_Insurance_Agency	C	42.753264	-73.777339
Freedom_Center_of_Westmere	A	42.699909	-73.852324
Dunkin'	B	42.684721	-73.847799
American_Eagle_Outfitters	C	42.688881	-73.849393
ACME_Auto_Radiator_Service	D	42.731104	-73.70424
Kimberley's_A_Day_Spa	B	42.770361	-73.754541
Happy_Pets_Pet_Sitting_Services	B	42.7924	-73.907232
brick_house_TAVERN_+_TAP	B	42.754197	-73.761186
Ten_Thousand_Villages	C	42.684211	-73.839283
Brazilian_Steakhouse	B	42.720477	-73.83565
Albany_NY_Fitness_&_Revolution_Fitness_NY	B	42.69607	-73.824081
Labor_Ready	B	42.696939	-73.810516
Buckle	C	42.689741	-73.851811
Family_Dollar_Stores	C	42.80712	-73.912362
Precise_Tax	A	42.796255	-73.939878
Steven_J_Oshins_DDS_Oshins_Of_Smiles	A	42.715619	-73.931677
Islamic_Center_of_the_Capital_District	A	42.762302	-73.878913
Action_Transportation	E	42.777486	-73.933272
Cameron_Dental	A	42.780311	-73.747183
Moffett_S_V_Co	C	42.798715	-73.729118
The_Gathered_Remnant_Ministries_Inc	A	42.792833	-73.95001
Caliber_Collision	D	42.77344	-73.698505
Sound_The_Trumpet_International_Inc	A	42.695041	-73.861533
Hoffman_Car_Wash	D	42.727295	-73.84296
Billy_Beez	B	42.690004	-73.85025
Cohoes_Eye_Associates	A	42.774773	-73.699744
PK_at_Haven_Hair_Studio	B	42.701943	-73.814143
H&R_Block	A	42.783452	-73.944311
ProSource_Wholesale_Flooring	C	42.696605	-73.824228
Rumors_Salon_and_Spa	B	42.731539	-73.762502
Tina_King's_Hair_Studio	B	42.766169	-73.938055
Dance_Fire_Studio_&_Fitness	B	42.816585	-73.888748
Valvoline	D	42.768679	-73.891357
Today's_Dental_Care	A	42.814865	-73.891113
Rose_Dental_Associates	A	42.707549	-73.861059
Starbucks	B	42.728145	-73.761156
Time_&_Time_Again	C	42.710192	-73.816508
Original_Soundz	C	42.750442	-73.869789
Members_United	C	42.743433	-73.836861
BCBG	C	42.689645	-73.850703
Catholic_Charities_Housing_Office	A	42.666392	-73.786273
rue21	C	42.688221	-73.847602
Enterprise_Rent-A-Car	C	42.745901	-73.809797
Brass_Eye_Center	A	42.758736	-73.776916
Edleez_Tobacco	C	42.683693	-73.838669
Brits_R_US	C	42.717169	-73.831853
Cumberland_Farms	C	42.797567	-73.92373
Blue_Rose_Cheesecake_&_Bake_Shop	E	42.780378	-73.903328
Thoroughbred_Advisors	C	42.770579	-73.823582
Hixny	A	42.715297	-73.812967
Izumi_Spa_&_Nail	B	42.783036	-73.890628
Jk_Physical_Therapy_of_Albany	A	42.689049	-73.86343
Cole's_Collision	D	42.713638	-73.827115
East_Wok_Chinese_Restaurant	B	42.717554	-73.813145
Kay_Jewelers	C	42.773892	-73.893995
Inferno_Pizzeria	B	42.725956	-73.84168
Fresenius_Kidney_Care	A	42.772245	-73.759347
GARAGE	C	42.689328	-73.851045
Central_Studio	A	42.688421	-73.799079
Golden_Arrow_Car_Wash_&_Detailing	D	42.685648	-73.795881
Margarita_City	B	42.689734	-73.80172
Carman_Road_Alliance_Church	A	42.754821	-73.942832
T.J._Maxx	C	42.757835	-73.767898
AppleOne_Employment_Services	B	42.722357	-73.798885
Uncle_Sam's_All_American_Chocolate_Factory	C	42.727389	-73.761111
Tree_of_Life_Christian_Acadamy	A	42.787633	-73.916174
Futon_Galleria_Mattress_mart	C	42.738393	-73.762764
Miller_Robert_A	A	42.823127	-73.881482
Patrick's_of_Union_Street	B	42.803268	-73.901342
Paesan's_Pizza	B	42.73347	-73.854814
Delmar_Bootery	C	42.684023	-73.838906
Five_Guys	B	42.775009	-73.892997
Insight_Physical_Therapy	A	42.668077	-73.797903
Atria_Senior_Living	B	42.695	-73.851008
Full_Circle_Beauty	B	42.708982	-73.710441
Vireo_Health_of_New_York	C	42.700971	-73.819442
Angela_Croteau_Licensed_Massage_Therapist	B	42.74854	-73.941396
Interstate_Batteries	D	42.696402	-73.810769
Capital_Foot_Care	A	42.725605	-73.936258
Williams_Auto_Service	D	42.797766	-73.952934
Draper_Middle_School	A	42.77057	-73.956493
Casa_Real_Mexican_Restaurant	B	42.677408	-73.828289
Pineview_Community_Church_Pre_School	A	42.704203	-73.85521
Barcelona	B	42.676952	-73.82553
Pottery_Barn	C	42.688006	-73.848156
Sunoco	C	42.751058	-73.870445
Lazare_Collision_Center	D	42.719931	-73.805703
TCBY	B	42.682228	-73.842256
Regal_Nails_Salon_&_Spa	B	42.746457	-73.764401
The_Doll_Factory	B	42.702092	-73.817904
CrossFit	B	42.694551	-73.818146
Amerivape_Smoke_Shop	C	42.774422	-73.701597
Allstate_Insurance	C	42.743544	-73.862917
Pig_Out_BBQ	B	42.805541	-73.905989
Miracle-Ear	A	42.723107	-73.799296
GameStop	C	42.689707	-73.849982
Jackson_Hewitt_Tax_Service	A	42.732087	-73.848729
The_Woodward_Co	A	42.683388	-73.77435
Creative_Pension_Consultants	B	42.738967	-73.842577
Super_Taco	B	42.710744	-73.816502
Domino's_Pizza	B	42.786613	-73.911421
Fastenal	C	42.692416	-73.811994
Optum_Infusion_Services_Albany	A	42.723137	-73.853067
Cone_Zone	B	42.696967	-73.886736
Boys_&_Girls_Clubs_of_America	B	42.791831	-73.922136
350_East_Salon_&_Spa	B	42.727962	-73.734922
Westmere_Barber_Shop	B	42.691199	-73.868609
Jean_Paul_Spa	B	42.684971	-73.840671
T_Mobile_Store	C	42.773065	-73.892753
Cosimo'S_Plaza	C	42.68948	-73.866232
Cumberland_Farms	C	42.769399	-73.818752
City_Squire_Ale_House	B	42.805058	-73.903958
Community_Reformed_Church_Of_Colonie_At_Colonie_Comm_Dcc	A	42.738246	-73.825683
Flowers_By_Randolph	C	42.793581	-73.936926
OshKosh_B'gosh	C	42.709295	-73.817274
ULTA_Beauty	A	42.757408	-73.768523
Holy_Name_of_Jesus_Cemetery	B	42.791628	-73.908605
Hibachi_X	B	42.735761	-73.852608
Cohoes_Community_Center_Inc	A	42.77627	-73.702021
SpringHill_Suites_by_Marriott	B	42.704066	-73.815466
Hearts_Ablaze_Ministries	A	42.734686	-73.715734
Liberty_Tax_Service	A	42.800627	-73.926337
Cumberland_Farms	C	42.765097	-73.939501
J_smitty_automotive	D	42.788977	-73.913202
Prime_Care_Physicians_PC	A	42.679952	-73.836251
Mohawk_Commons	C	42.77157	-73.8927
Pet_Spas_of_America	B	42.732646	-73.761761
The_Body_Spot	B	42.685439	-73.840316
Renaissance_Floral_Design	C	42.684117	-73.846082
Sicilian_Pizzeria	B	42.799519	-73.92603
Kar_Rvs	C	42.788955	-73.913104
Dandelion_Energy	C	42.757592	-73.817785
DCs_Pizza_&_Catering	B	42.676615	-73.824606
Mark's_News_&_Variety	C	42.713609	-73.815547
Chopped_&_Topped_Salads	B	42.71025	-73.81653
A_Perfect_Pet_Salon_&_Boutique	C	42.738712	-73.762781
CarmA'lis_Salon	B	42.732199	-73.848643
Islamic_Center_School_Bldg	A	42.761932	-73.881192
Latham_Christian_Academy	A	42.73551	-73.752987
Brown_Financial_Management_Group	A	42.705106	-73.857399
Good_Sheperd_Lutheran_Church	A	42.709932	-73.781192
The_Daisy	B	42.771697	-73.700979
Fresenius_Kidney_Care	A	42.802887	-73.915879
Sensational_Hair_Designs	B	42.704779	-73.816947
Putting_On_the_Dog	B	42.764246	-73.814886
Christopher_R_Walsh_DDS	A	42.691449	-73.869346
Cusato's_Pizzeria_&_Deli	B	42.782608	-73.949159
Andex_Auto_Service_Station	D	42.792481	-73.940696
Mobil	C	42.786727	-73.941567
Schuyler_Bakery_Inc	B	42.714046	-73.706923
PetSmart	C	42.771841	-73.892201
The_Tailored_Tea	B	42.763316	-73.802501
Dunkin'	B	42.720167	-73.836505
Joe's_Grill	B	42.685773	-73.797034
Supercuts	B	42.714147	-73.812455
Zombie_Planet	C	42.69647	-73.809221
Saint_Francis_Chapel	A	42.717903	-73.804745
Safelite_AutoGlass	D	42.69598	-73.881697
Beacon_Health_Options	A	42.759434	-73.824496
La_Cucina_Pizzeria	B	42.805552	-73.905998
Prowess_Test_Prep	A	42.680796	-73.763717
Dursos_Liquor_Store	C	42.769622	-73.701919
Douglas_Schenk_RE_MAX_CAPITAL	C	42.687235	-73.858559
AutoZone	C	42.729419	-73.701281
Pioneer_Bank	C	42.750126	-73.763504
Lee_Nails	B	42.709892	-73.818293
St_Peter's_Family_Medicine	A	42.67995	-73.836257
Mohawk_Army_Navy	C	42.770757	-73.893581
California_Closets	E	42.762181	-73.797505
Matador_Insurance_Agency	C	42.730702	-73.703165
KR_Dominican_cousirne	B	42.786439	-73.943492
Panera_Bread	B	42.754662	-73.766672
State_Farm	C	42.697298	-73.885616
D_and_S_Auto_Body_and_Collision	D	42.768787	-73.730259
Latham_Biryani_Restaurant	B	42.733719	-73.762758
Victoria_Secret	C	42.689901	-73.851109
New_Dragon_Garden_Restaurant	B	42.744662	-73.83813
Steven_M_Showers_CPA	A	42.777147	-73.843798
Retreat_&_Renew	B	42.686794	-73.856081
Studio_2020_Fitness	B	42.71624	-73.80549
Hobby_Lobby_Stores	C	42.754281	-73.756505
Watervliet_City_Police_Department_Watervliet_New_York	A	42.725494	-73.700299
Medical_Fiscal_Management	A	42.734952	-73.792995
Glass_America	D	42.701743	-73.815365
Exxon_Mobil	C	42.741686	-73.762367
Walter's_Autobody	D	42.793716	-73.944877
Latham_Meat_Market	C	42.73785	-73.761811
Crossgates	C	42.68924	-73.849769
Burger_21	B	42.730519	-73.761872
Spirit_Hallowen	C	42.711402	-73.820643
Sincere_Salon_and_Lounge	B	42.737343	-73.763952
Veterans_Memorial_Park	B	42.727375	-73.701535
Aromas_Indo_Chinese	B	42.718507	-73.83451
SAS_San_Antonio_Shoemakers	C	42.725937	-73.760408
Dollar_General	C	42.738531	-73.856246
Falzo's_Auto_Body	D	42.730351	-73.71052
Philly_Bar_and_Grill	B	42.736858	-73.767257
Northwestern_Mutual_Life_Insurance	C	42.688455	-73.77561
LaBarge's_Tire_&_Auto_Service	D	42.744687	-73.750158
Red_Lion_Hotels	B	42.723081	-73.796881
David's_Bridal	C	42.705306	-73.822722
Francesca's_Specialty_Bakery	E	42.771532	-73.700999
Jessica_Berman_MD_Family_Practice_Niskayuna	A	42.796776	-73.892792
CAPITALCARE_Mcdical_Group	A	42.726856	-73.938148
Physical_Therapy_&_Wellness_Solutions	A	42.702699	-73.797259
Price_Chopper_New_England	C	42.805616	-73.913551
Griffin_Motorsports	C	42.767489	-73.888944
Accutax_Income_Tax_Services	A	42.777598	-73.934029
Schenectady_County_Public_Library	B	42.798191	-73.947631
Town_of_Colonie	B	42.7194	-73.757687
Sundstrom_Roseanne_Dds	A	42.735401	-73.759324
FYE	C	42.689465	-73.849514
Stewart's_Shop	C	42.701661	-73.819656
Bamboo_Restaurant	B	42.722693	-73.936225
Starbucks	B	42.706952	-73.823278
Chemung_Canal_Trust_Company	C	42.726329	-73.759788
New_York_Dialysis_Services_Inc	A	42.772227	-73.759345
Carman_Wine_&_Liquor	C	42.732968	-73.938641
Golden_House	B	42.804332	-73.902406
Next_Level_Gaming	C	42.72462	-73.841634
Bruegger's	B	42.727832	-73.845552
Latham_Circle_Nails	B	42.75612	-73.758526
Westmere_Elementary_School	A	42.685958	-73.861223
Abbott_Energy_Inc	C	42.710173	-73.816389
William_K_Sanford_Town_Library	B	42.726227	-73.791931
Shaker_Ridge_Country_Club_Inc_Club_House	A	42.750088	-73.824224
North_Country_Academy_Of_Airport_Park_Llc	A	42.76103	-73.815818
ABC_Sports_&_Fitness	B	42.761613	-73.750789
Kiskis_Tire	D	42.766205	-73.815975
Kitchen_and_Bath_World_Inc	C	42.742154	-73.861324
The_New_Black_Cat_Ale_House	B	42.772745	-73.701487
Fatima_Hussain_Brow_Studio	B	42.701921	-73.814052
National_Car_Rental	C	42.746146	-73.810319
Staples	C	42.753698	-73.766963
Saint_Johns_Lutheran_Cemetery	B	42.704232	-73.798835
Zenek's_Auto_Sales	C	42.731012	-73.705772
Dobkin_Tile	A	42.694368	-73.818269
XLR8_Machine_Shop	E	42.769018	-73.72997
Auto_Doctor	D	42.788316	-73.94509
Cafe_Calabria	B	42.688502	-73.861653
Capitol_Mattress_and_Waterbed_Warehouse	C	42.745494	-73.760656
Dunkin'	B	42.756522	-73.758525
J_P's_Trains_&_Hobbies	C	42.742933	-73.74187
Shoe_Dept_Encore	C	42.709791	-73.817414
Rizzo's_House_of_Flowers	C	42.770574	-73.700151
Gialanella_Gaetano	A	42.666726	-73.791483
Fluffalicious	E	42.723323	-73.838916
LeafGuard_of_Albany	D	42.727124	-73.851976
Japan_Star_Motor	C	42.688224	-73.794664
Fallon_Wellness_Pharmacy	A	42.765471	-73.808529
Applied_Materials	A	42.690968	-73.833275
Herzog_Home_&_Paint_Centers	C	42.757336	-73.758604
Beacon_Building_Products	C	42.691838	-73.812742
Colonie_Center	C	42.708712	-73.817358
Brown_Bag_Sub_Shoppe_2	B	42.781405	-73.952247
Imperial_Home_Theatre_Systems	C	42.733236	-73.706162
Shear_Image	B	42.710708	-73.805286
Executive_Woods_Ambulatory_Surgery_Center	A	42.688479	-73.775571
Schenectady_Partners_LLC	A	42.785953	-73.912669
Sunoco	C	42.702878	-73.816496
Albany_Schoharie_Schenectady_Saratoga_Boces	A	42.737628	-73.823337
Villarama_Juan_N_Jr_PC	A	42.774272	-73.705798
The_Home_Depot	C	42.697901	-73.84781
Berkshire_Bank	C	42.687229	-73.858569
CVS	A	42.810961	-73.892142
Ali_Baba's_Indian_Spices	C	42.702502	-73.817376
American_Trade_and_Goods	C	42.795482	-73.73371
Fleet_Feet_Sports	C	42.720832	-73.802107
Hallmark_Cards	C	42.736204	-73.763516
Wealth_Advisory_&_Management_Corporation_of_America	A	42.805772	-73.907989
ALDI	C	42.786008	-73.912703
45_Restoration	C	42.694519	-73.807599
Spindle_City_Market	C	42.774041	-73.701779
Guptill's_Ice_Cream	B	42.781036	-73.744934
Weck_David_Dr_DC	A	42.807253	-73.911836
Raizada_Mart	C	42.80293	-73.89968
DiCarlo's_Gentlemen's_Club	B	42.69283	-73.804092
Pizza_Hut	B	42.72395	-73.798791
Shutts_John_I_Insurance_Agency	C	42.794456	-73.935623
All_Day_Breakfast_&_Cafe	B	42.711017	-73.816226
International_Hair_Design	B	42.782284	-73.905502
Capital_Care_Family_Practice_Ravena	A	42.796783	-73.892811
Elaine_Ramundo_&_Assoc_Nationwide_Insurance	C	42.707781	-73.861641
Michael_Lanuto_Ameriprise_Financial_Services	B	42.687952	-73.772997
Herc_Rentals	C	42.752248	-73.778179
Banfield_Pet_Hospital	A	42.755195	-73.765928
Lowe's	C	42.70583	-73.82897
Good_Choice_Dog_Training	B	42.691231	-73.81059
J.Jill	C	42.688505	-73.849276
Don_Warren_Music	C	42.778129	-73.900888
Boght_Veterinary_Clinic	A	42.790338	-73.736612
Schwab_Marjorie_P_A	A	42.758335	-73.777444
Lucky_Kitchen_Chinese	B	42.792489	-73.917115
Adecco	B	42.769688	-73.822304
Kundert_Deborah	A	42.688653	-73.86222
Niskayuna_Life_Chiropractic	A	42.829839	-73.892256
Boys_&_Girls_Clubs_of_America	B	42.797873	-73.940412
Liberty_Tax_Service	A	42.788878	-73.938475
CBRE_Albany	C	42.703214	-73.856587
Diamond_Eight_Billiards	C	42.762289	-73.748287
Family_Dollar_Stores	C	42.798407	-73.947976
High_Adventure_Ski_&_Bike	C	42.764779	-73.808875
Inferno_Pizzeria	B	42.707708	-73.778672
Aveda_Classical_Concepts_Salon_&_Spa	B	42.68827	-73.84848
Casa_Visco	A	42.767989	-73.91469
Choppa_&_Son_Formal_Wear	C	42.684809	-73.795917
Atria_Crossgate	B	42.695001	-73.851036
City_Nail	B	42.717605	-73.813242
Caprice_Beauty_Bar	B	42.772309	-73.701058
Catholic_Charities_Of_The_Diocese_Of_Albany_Group_Return	A	42.666403	-73.786227
Qualters_Mary_Csw	A	42.738943	-73.841529
Christina	B	42.712781	-73.827838
AT_Nails_&_Spa	B	42.727952	-73.846293
Cajun_Cafe	B	42.710677	-73.816085
Imagecare_Latham	A	42.758324	-73.777448
Eagle_Hill_Cemetery	B	42.675052	-73.813517
Buca_di_Beppo	B	42.712585	-73.817216
Securitas	B	42.715297	-73.812937
Rhoades_Service_Center	C	42.693156	-73.876906
Ace_Hardware	C	42.692392	-73.874781
Fri_Chicks_Albany	B	42.724471	-73.700518
Heavy_Duty_Parts	C	42.696488	-73.822257
Salt_Den	C	42.737358	-73.772677
Cumberland_Farms	C	42.782832	-73.744273
Adirondack_Orthodontics	A	42.75869	-73.776928
Sandra_L_Riccio_CFP	A	42.686371	-73.842088
Citi_Trends	C	42.782663	-73.941647
Chipotle_Mexican_Grill	B	42.716029	-73.810008
FASTSIGNS	E	42.71726	-73.8319
Bella_Nail_And_Spa	B	42.782582	-73.941808
Vortex_Video_Games	C	42.73796	-73.724416
Lajeunesse_Auto_Svce	D	42.773087	-73.689732
Northway_Motor_Car_Corp	D	42.740652	-73.761849
Dental_Society_Third_District	A	42.764729	-73.756068
518_Collision	D	42.783277	-73.947742
H_L_Gage_Sales_Inc	C	42.693347	-73.846186
Carman_Service_Center	C	42.784705	-73.930724
LaBarges_Tire_&_Auto	D	42.690083	-73.80097
Right_at_Home	B	42.716886	-73.807509
Denny's	B	42.717914	-73.8085
Goldstein_Auto_Group	D	42.722701	-73.836957
Capital_Care_Family_Practice_Ravena	A	42.72686	-73.938141
Mcmahon_Family_&_Dentistry	A	42.671639	-73.809052
Quik_Stop_Convenience_Store	C	42.793701	-73.918591
Fan_Zone	C	42.689466	-73.850751
Gooding_Skin_Systems	B	42.733875	-73.793496
Days_Inn_by_Wyndham_Albany_Airport	B	42.754203	-73.816273
Office_Furniture_Express	C	42.702696	-73.824981
Atomic_Wings	B	42.687268	-73.858543
Residence_Inn_by_Marriott	B	42.725564	-73.795356
American_Residential_Mortgage	C	42.719964	-73.796034
Northeast_Urogynecology	A	42.687972	-73.772889
Whip_My_Hair_Salon	B	42.691401	-73.803556
Empire_Self_Defense_&_Fitness	A	42.718914	-73.837673
Bodywork_Professionals	B	42.725679	-73.760405
Asian_Supermarket	C	42.69757	-73.809434
Reach_Out_Fellowship	A	42.703073	-73.782547
Bedroom_Expressions	C	42.704775	-73.818928
New_School_Of_Radio_And_Television	A	42.720661	-73.809728
Caliber_Collision	D	42.782469	-73.905808
BJ's_Wine_&_Liquor	C	42.704618	-73.830241
Dean_Street_Park	B	42.825271	-73.898131
T_Mobile_Store	C	42.690228	-73.852482
Save-A-Lot	C	42.783421	-73.94631
Lollipops_Children's_Shop	C	42.728111	-73.761151
AT&T	C	42.757153	-73.758596
The_Artistry_of_Face	B	42.708518	-73.775371
Valero_Energy	C	42.699626	-73.821375
Speedway	C	42.739602	-73.761697
Oliva_Gourmet_Olive_Oils_&_Vinegars	C	42.684926	-73.840781
Price_Chopper_New_England	C	42.732359	-73.70479
Sanders_Nancy_F_N_P	A	42.758108	-73.777196
Vapor_Geekz	C	42.74448	-73.863053
Emeritus_At_Colonie_Manor	B	42.735305	-73.769257
Abele_Tractor_&_Equipment_Co	C	42.692203	-73.776816
Flights_of_Fantasy_Books_&_Games	C	42.710106	-73.804426
Catholic_Daughters_Of_The_Americas	A	42.737063	-73.833343
JRL_transportation	E	42.798483	-73.945884
Peregine_Senior_Living_at_Colonie	B	42.732709	-73.824165
Watervliet_Wine_&_Liquor	C	42.730396	-73.703416
Colour_Cosmetic_Studio	B	42.682792	-73.841953
Gulf_Oil	C	42.715533	-73.83099
VaNy's_Cocktails_and_Confections	B	42.746668	-73.759921
Albany_Braces	A	42.772632	-73.757994
Thayer_Richard_D_DDS	A	42.738913	-73.841115
Advance_Auto_Parts	C	42.737182	-73.701221
Warren_Tire	C	42.732167	-73.852915
Sandlake_Auto_Glass	D	42.67983	-73.858304
Vitoria_Adamo_Day_Spa	B	42.78161	-73.954001
Paesans_Pizza	B	42.690186	-73.865319
Dunkin'	B	42.71041	-73.816412
Blue_Ribbon_Bakery	E	42.780653	-73.90386
Wedekind_Motors	D	42.786842	-73.910767
Dunkin'	B	42.730404	-73.703549
Achievements	A	42.7317	-73.761607
Colonie_Youth_Center_Inc_Latham_Ridge_School	A	42.753569	-73.741518
D_&_D_Auto_Repairs	D	42.729964	-73.701933
CSL_Plasma	B	42.786301	-73.912726
Ocean_State_Job_Lot	C	42.784156	-73.918351
Designs_by_Paula_Lancaster	C	42.737293	-73.832203
Schenectady_Karate_&_Kobudo	A	42.763883	-73.91628
AT&T	C	42.771884	-73.892351
Namu	B	42.72802	-73.846344
GameStop	C	42.706134	-73.821436
Ruth's_Automotive	D	42.721692	-73.863093
Midas	D	42.683945	-73.793659
Edward_Jones	A	42.690397	-73.865435
KeyBank	C	42.775014	-73.700274
William_S_Jones_DMD	A	42.666989	-73.792514
Changes_Salon	B	42.787526	-73.740375
Utica_General_Peterbilt_Albany	C	42.697026	-73.823746
New_Comer_Cremations_&_Funerals	B	42.729014	-73.854321
Vera_Italiano	B	42.742516	-73.838464
Alfa_Romeo_of_Albany	D	42.688989	-73.799883
Chick-fil-A	B	42.745582	-73.80938
Grooming_by_Lori	B	42.750667	-73.887036
MassMututal	A	42.770303	-73.759444
Latham_Vapor_Outlet	C	42.7384	-73.762727
Latham_Ridge_School	A	42.753578	-73.741317
Ta_Da_Gifts	C	42.683953	-73.840796
BAPS_Shri_Swaminarayan_Mandir_Albany_NY	A	42.72088	-73.809268
PetSmart	C	42.75518	-73.765959
Mohamed_Zoser_Z_Psychiatrist	A	42.806675	-73.910172
Texas_de_Brazil	B	42.689018	-73.848512
KeyBank	C	42.677151	-73.826053
Buy_Buy_Baby	C	42.70624	-73.824988
Tina's_Corner_Cafe	B	42.689352	-73.774717
Joli	B	42.708796	-73.817206
Genstil_Tom	A	42.718708	-73.808169
Randy_Loren's_Dolce_Vita	B	42.783604	-73.906841
Apple_Retail_Store	C	42.688792	-73.849222
Dos_Hermanos_Taco_Shop	B	42.77085	-73.824312
Daughters_Of_Sarah_Nursing_Center	B	42.698565	-73.853564
Coco_P'z_Salontique	B	42.728924	-73.846924
ATAX_Albany	A	42.684423	-73.794142
Allstate_Insurance	C	42.73933	-73.736117
Subway_Plaza	C	42.75729	-73.758469
Mane_Solution	B	42.765279	-73.811062
Blowfish	B	42.68723	-73.858563
Grace_Bible_Church	A	42.803733	-73.732541
Plate_Journey_Nutrition	A	42.698116	-73.768217
Futia's_Formal_Wear	C	42.700058	-73.812225
Yankee_Candle	C	42.689226	-73.849194
Hoffman_Car_Wash	D	42.715131	-73.811168
Villa_Fresh_Italian_Kitchen	B	42.745823	-73.809074
Plaine_And_Son	C	42.779536	-73.903616
Via_Consulting	B	42.712738	-73.828042
Adirondack_Orthodontics	A	42.681559	-73.838076
Dominion_Equipment_Parts	C	42.749644	-73.889531
CED_Greentech	D	42.723463	-73.856421
Classy_Baskets	C	42.752534	-73.845258
Planet_Fitness	B	42.787455	-73.940389
Chipotle_Mexican_Grill	B	42.68291	-73.838421
Pediatric_Dental_Group_of_NY	A	42.726001	-73.7937
Sossner_Hal_DDS	A	42.828687	-73.89236
Mixed_Therapeutic_Modalities	B	42.757987	-73.780357
Good_News_Ministry_Of_The_Capitol_District	A	42.786319	-73.914643
First_New_York_Federal_Credit_Union	C	42.801422	-73.898679
AutoZone	C	42.781168	-73.954594
Whalen_Automotive	D	42.720752	-73.712921
Kingsway_Arms_Nursing_Center_Inc	B	42.77608	-73.913127
Lord_and_Taylor	C	42.6893	-73.848478
Pioneer_Bank	C	42.774279	-73.700282
West_Elm	C	42.684155	-73.838881
Stewart's_Shops	C	42.730449	-73.700882
Top_Custom_Jewelers	C	42.737928	-73.724337
King's_Royalty_Garage	D	42.794229	-73.951696
DeMarco's_Restaurant	B	42.741206	-73.859238
FYE	C	42.710745	-73.815748
Cohoes_Community_Center_Abram_Lansing	A	42.768684	-73.708668
MassMututal	A	42.718681	-73.808138
NY_Shooter_Supply	C	42.717177	-73.831821
Passport_Health	B	42.717217	-73.807705
M&T_Bank	C	42.727372	-73.75983
GNC_(General_Nutrition_Centers)	A	42.710577	-73.816359
Cohoes_High_School	A	42.774974	-73.718852
Rusty's	B	42.733097	-73.701262
Kings_Buffet	B	42.756455	-73.775575
Peebles_Island_State_Park	B	42.781848	-73.684915
Chase	C	42.77416	-73.892031
The_Book_Barn	C	42.739315	-73.736108
Super_8	B	42.763617	-73.93815
Burger_King	B	42.775366	-73.698028
Trustco_Bank	C	42.730608	-73.848352
Short_and_Stout_Tea	B	42.688166	-73.86186
Stewart's_Shops	C	42.803365	-73.900302
TJ's_Cafe	B	42.691061	-73.802
Kathleen's_Therapeutic_Massage_And_Day_Spa	B	42.772447	-73.936193
Jenna's_Salon	B	42.731255	-73.706407
Supercuts	B	42.816553	-73.890768
Quail_St_Market	C	42.663014	-73.776361
Safelite	D	42.732297	-73.849087
HD_Supply	C	42.696794	-73.8216
CNY_Healing_Arts	B	42.75984	-73.75973
Towne_Bowling_Academy	B	42.783324	-73.949306
Bath_&_Body_Works	A	42.70969	-73.816748
Fletcher_Flowers	C	42.734907	-73.762729
The_Tire_Warehouse	C	42.803662	-73.902119
Sommers_&_Magilton_Inc_Tax_Services	A	42.694998	-73.879465
Capital_Orthotic_Prosthetic_Associates	A	42.702548	-73.880986
Final_Word_Tattoo	B	42.769549	-73.892265
Fusco_Town_Park	B	42.737168	-73.909695
Grrreendog_Grooming_&_Spa	C	42.679497	-73.833581
Cork_&_Bottle	C	42.742528	-73.838418
Haven_Hair_Studio	B	42.701917	-73.814129
Krispy_Krunchy_Chicken	B	42.661983	-73.776801
B_and_J_Guns	C	42.723468	-73.840294
J&K_Hair_Salon	B	42.690606	-73.801687
Albany_Medical_Center_Division_of_Allergy_Asthma_and_Immunology	A	42.699407	-73.852061
Gus's_Hotdogs	B	42.73531	-73.701482
Radiant_Vitality_With_Monica_Smith	B	42.676884	-73.825356
Paintworx_Collision_Center	D	42.693521	-73.804473
Welsh_Cemetery	B	43.356071	-75.456576
Precision_Plumbing	A	42.680915	-73.8556
Different_Blend_Bakery	E	42.748587	-73.941741
Headliners_Barbershop	B	42.694774	-73.807276
Nitaya_Custom_Sewing	C	42.686671	-73.855733
Maggies_Gift_Shop	C	42.749513	-73.762446
Kennedy_M_Katherine_PHD	A	42.710343	-73.864097
Body_Time_Massage_Therapy	B	42.685666	-73.854545
Lishas_Kill_Reformed_Church_Of_Lishas_Kill_Albany_County_New_York	A	42.756154	-73.876014
Goodwill_Industries	C	42.703267	-73.817269
Re_Max_Capital	C	42.754338	-73.777569
OneMain_Financial	A	42.783417	-73.94426
WellNow_Urgent_Care	A	42.774097	-73.894084
Sneak_Peek_Keepsake_Ultrasound	A	42.744119	-73.837676
Trios_Pizzeria_&_Delicatessen	B	42.661077	-73.781941
Cook_Park	B	42.708059	-73.834632
Taco_Bell	B	42.714117	-73.814718
Sun_Capsule_Tanning_Center	B	42.783384	-73.94886
Albany_Pinebush_Preserve	B	42.728654	-73.910007
Capital_District_Colon_&_Rectal_Surgery_Assocs_PC	A	42.688081	-73.773164
Komatsu	C	42.726326	-73.851021
Veeder_Elementary_School	A	42.754517	-73.864536
T.J._Maxx	C	42.696017	-73.847266
Shakil_A_Virjee_DMD_PC	A	42.727013	-73.702401
AutoZone	C	42.800615	-73.926171
U-Haul	C	42.749135	-73.868262
Latham_76_Diner	B	42.74035	-73.762508
Cinnabon	B	42.690198	-73.852377
Sand_Creek_Animal_Hospital	A	42.71882	-73.807108
Notre_Dame_Bishop_Gibbons_School	A	42.781874	-73.91068
Verizon_Wireless	C	42.773166	-73.891904
Don's_Garage_of_Cohoes	D	42.777722	-73.716065
Gayne_Optical	A	42.804362	-73.904244
CAPITAL_KITCHEN_&_GRANITE_INC	C	42.73782	-73.761768
Country_Garden_Llc	C	42.774931	-73.880275
Against_All_Odds	C	42.690518	-73.852174
Ciao_Italia_Ristorante	B	42.723221	-73.936203
State_Farm	C	42.698486	-73.812055
Liberteks	C	42.685858	-73.853553
Big_and_Small_Dog_Care	C	42.746035	-73.863792
Chuck_E._Cheese's	B	42.754259	-73.766766
Best_Cleaners	E	42.747564	-73.760568
New_York_Oncology_Hematology_PC	A	42.77287	-73.751862
Delmonico's_Italian_Steakhouse	B	42.714943	-73.829157
Stewart's_Shops	C	42.782933	-73.892629
Michael_J_Maloney_DDS	A	42.740019	-73.737351
Dunkin'	B	42.736216	-73.761735
Galleria_7_Market	C	42.770891	-73.824297
Schenectady_County_Public_Library	B	42.818001	-73.885251
DePaula_Used_Cars	C	42.688983	-73.799909
All_Day_Breakfast_And_Cafe	B	42.689169	-73.848841
Shaker_Shed	C	42.739234	-73.824745
Amazing_Nail_Art	B	42.773643	-73.934988
Tint_World	D	42.68552	-73.79491
Peter_Bazanos_Ameriprise_Financial_Services	B	42.687949	-73.772987
Mavis_Discount_Tire	D	42.786176	-73.911177
University_at_Albany_State_University_of_New_York	A	42.685548	-73.824544
Pets_At_Ease	B	42.724812	-73.822079
Spotted_Zebra_Learning_Center	A	42.714475	-73.803302
Above_Grade_Level	A	42.746172	-73.869251
German_American_Club_of_Albany	C	42.698768	-73.817777
New_York_State_Restaurant_Assoc	B	42.741325	-73.840073
Peregrim_Kimberly_A	A	42.725984	-73.761071
Trane_Supply_Albany	C	42.69547	-73.820294
Ala_Shanghai_Chinese_Cuisine	B	42.746345	-73.758733
OTTO_CADILLAC_INC	C	42.728358	-73.843846
Citizens_Bank	C	42.707363	-73.775623
Health_Street	A	42.679666	-73.834685
Super_Clean_Coin_Wash	E	42.691604	-73.86872
Platinum_Kutz_3	B	42.792024	-73.917857
Rosemont_Playground	B	42.676107	-73.800937
Ideal_Image	B	42.712799	-73.814668
Capital_Radiology_Associates_PC	A	42.734954	-73.792956
Next_Step_Toward_Success	A	42.815924	-73.893915
D'Carlito_Pizza_&_Pasta	B	42.661971	-73.776794
Champs_Sports	C	42.710255	-73.816142
Pooh's_Corner_Inc	A	42.779666	-73.889394
Saint_Adalbert_Cemetery	B	42.772452	-73.937512
Stacy_James_Salon	B	42.699185	-73.812661
Zion_Lutheran_Cemetery	B	42.788255	-73.917681
Twist'N_Flip_Gymnastics	B	42.714561	-73.841615
Dalle_Accounting	A	42.725218	-73.702388
Deluxe_Nail_Spa	B	42.707393	-73.777052
Metro_Ford_Sales_Inc	C	42.770945	-73.891771
Best_Brains_learning_center	A	42.735959	-73.764406
Elite_Hair_and_Image_Salon	B	42.707375	-73.775605
Guilderland_Adult_Daycare	C	42.692336	-73.869444
lululemon_athletica	C	42.688689	-73.849126
Bumpy's_Polar_Freeze	B	42.775684	-73.898339
The_Pilates_Principle	B	42.725695	-73.760301
Johnson_Garner_P	A	42.688071	-73.773152
Suzanne_Prezio	C	42.708392	-73.779163
Mobil	C	42.766276	-73.814597
Morning_Star_Missonary_Baptist_Church	A	42.663269	-73.776239
LensCrafters	A	42.689751	-73.851467
Wet_Willy's_Car_Wash	D	42.738978	-73.761605
Carioto_Fruit_Dstrbtrs	C	42.720708	-73.717093
Natural_Progressions_Wellness_Center	A	42.715796	-73.83141
Olive_Garden	B	42.72281	-73.802188
New_Panda_Chinese_Take_Out	B	42.757265	-73.758593
Chevra_Kadisha_Of_The_Capital_District_Inc	A	42.686455	-73.782288
Oscar's	B	42.722699	-73.839056
Capital_Buffet	B	42.717514	-73.804145
Madison_Pizza	B	42.788918	-73.936709
The_Olde_Mercantile	C	42.773275	-73.701328
Capital_Customs	C	42.731277	-73.863329
Island_Spirits	C	42.773096	-73.68737
Hispanic_Outreach_Services_Of_The_Roman_Catholic_Diocese_Of_Albany	A	42.666346	-73.786144
Berkshire_Bank	C	42.77433	-73.895319
Wynwood_of_Niskayuna	B	42.801103	-73.897954
El_Charro_Mexican_Grille	B	42.68592	-73.853864
Lone_Pine_Town_Park	B	42.735815	-73.927477
Empire_Christian_Center_Ministries_Inc	A	42.713041	-73.82837
Southwoods_Pediatric_Dentistry	A	42.683749	-73.77124
Mercury_Insurance	C	42.755694	-73.821608
Sunoco	C	42.773473	-73.82505
D'Raymonds	B	42.707593	-73.774865
Albany_Light_Truck_&_Car_Repair	D	42.682067	-73.777393
T_&_T_Towing	C	42.770629	-73.701108
CRYO_Stay_Young_Latham	C	42.761903	-73.794893
Quantum1219	C	42.685078	-73.759775
Bella_Hair_Salon	B	42.718104	-73.804979
Levine_David_DDS	A	42.671856	-73.809526
Hans_Funeral_Home	B	42.674654	-73.818576
Capital_District_Secure_Juvenile_Detention_Center	A	42.753381	-73.818688
Pup_E_Cise	C	42.804946	-73.905781
Mark_Lawson_Antiques_Inc	C	42.721472	-73.798116
Sergey's_Pilates	B	42.737705	-73.842084
Everett_Auto_Repair	D	42.689621	-73.778394
Belanger_School_Of_Nursing	A	42.802898	-73.91573
Hannaford_Food_And_Drug	A	42.785018	-73.943836
Sbarro	B	42.689908	-73.849899
Hu's_House	B	42.718864	-73.833795
Soft_N_Cushy_Auto_Upholstery_&_Accessories	D	42.783194	-73.906623
Reed_Ference_DDS_M_DENT_Capital_Region_Periodontics_&_Dental_I	A	42.671166	-73.807373
Teri_Rudolph's_Dog_Training_Services	B	42.749235	-73.715661
BYE_i_Brewing	D	42.773519	-73.70138
Court_Club	B	42.714024	-73.809991
Hunan_Wok	B	42.80504	-73.904523
Deluxe_Nails_&_Spa	B	42.814756	-73.893037
State_Farm	C	42.751724	-73.942417
Sprint	C	42.773081	-73.892737
SureGlow	D	42.797571	-73.925356
Mariner_Finance	A	42.71804	-73.804903
Niskayuna_Community_Day_Care_Center_Sacc	A	42.797303	-73.891667
A_King's_Palace	B	42.796421	-73.947332
Boscov's	C	42.710213	-73.815869
Digestive_Disease_Associates_Of_Schenectady_Pc	A	42.802032	-73.900158
Aspen_Dental	A	42.758991	-73.766691
Hernia_Institute	A	42.726417	-73.70158
Hallmark_Cards	C	42.70982	-73.817273
U_S_Budokai_Karate_Association	A	42.693702	-73.774516
Mami's_Restaurant	B	42.799498	-73.948061
Mavis_Discount_Tire	D	42.789976	-73.936649
Ck	E	42.745272	-73.90268
DL_Nail_Bar	B	42.706819	-73.777786
The_Washington_Tavern	B	42.662102	-73.778701
New_Comer_Cremations_&_Funerals	B	42.738514	-73.729647
Starbucks	B	42.815741	-73.890916
White_House_Black_Market	C	42.684929	-73.840058
Armory_Nissan	C	42.680955	-73.793844
Ferguson	C	42.797514	-73.727623
Shaker_Road_Loudonville_Fire_Department_Station_2	A	42.72431	-73.772924
Ids_Life_Insurance_Co_of_New_York	C	42.715019	-73.876961
New_York_Power_Authority_Crescent_Plant	E	42.783996	-73.707648
Capital_Cardiology_Associates	A	42.683682	-73.771093
PetSmart	C	42.695975	-73.847053
Boght_Hills_School	A	42.774875	-73.757038
McDonald's	B	42.768923	-73.891722
Everyday_Gourmet	B	42.680999	-73.768175
Town_of_Colonie	A	42.760614	-73.870577
Shapiro_Linda_S_PHD	A	42.738917	-73.841283
Amsure	C	42.720144	-73.809996
Hot_Harry's_Fresh_Burritos	B	42.677262	-73.822894
Karizma_Hair_Studio	B	42.746301	-73.943046
Greka_Grill	B	42.689307	-73.848402
Bill's_Restaurant	B	42.773805	-73.692694
Hong_Kong_Bakery_&_Bistro	B	42.709506	-73.821795
Trustco_Bank	C	42.81503	-73.89302
Wendy's	B	42.702458	-73.814876
Cody_Wojdyla	C	42.680777	-73.763711
LEGO	C	42.689331	-73.849754
New_York_State_Liquor_Association	C	42.68066	-73.837933
Orthodox_Christian_Assoc_Of_Cohoes_N_Y_Inc	A	42.75471	-73.700863
Awards_By_Walsh's_&_Creative_Marketing	C	42.774271	-73.6973
Bark_&_Bubble	C	42.782576	-73.745065
Dunkin'	B	42.69516	-73.847602
Carman_Park	B	42.779252	-73.93041
Pearl_Grant_Richman's	C	42.68426	-73.839209
Keystone_Financial_Management	A	42.736877	-73.844779
Champs_Sports	C	42.690381	-73.85192
Cdy_Guilderland_Pinebush_Elementary	A	42.745973	-73.940608
Tokyo_Electron_America	C	42.69104	-73.833562
Audio_Obsessions	C	42.716234	-73.840148
Religious_of_the_Sacred_Heart	A	42.669296	-73.78696
Gap	C	42.688257	-73.848446
Keith_Cunningham_Ameriprise_Financial_Services	B	42.715213	-73.812995
BodySense_Massage_Therapy	B	42.805989	-73.907298
Bethel_Thrift_&_Donation_Center	C	42.782482	-73.94193
Hudson_Valley_Foot_Associates	A	42.689375	-73.774702
Goodyear_Wholesale_Tire_Center	C	42.728317	-73.860784
Roman_Catholic_Diocese_Of_Albany_N_Y	A	42.666351	-73.786141
PCC_Contracting	A	42.786711	-73.933388
Schenectady_Ski_School	B	42.784241	-73.888559
Sudy_Thai_Restaurant	B	42.782603	-73.949137
Stewart's_Shops	C	42.705852	-73.777049
Recovery_Sports_Grill	B	42.717624	-73.812696
Victoria's_Secret	C	42.689821	-73.851113
Portofinos_Ristorante	B	42.750208	-73.759356
Mallozzi's	E	42.779584	-73.956661
Capital_Care_Medical_Group	A	42.74241	-73.83849
First_Niagara	C	42.802933	-73.900569
Hair_Creations_By_Dana	B	42.757803	-73.779885
CVS	A	42.775246	-73.889599
Mr_Hui's	B	42.77493	-73.897363
Sushi_X_&_Lounge	B	42.739792	-73.762684
Tantrums_Spa_Boutique	B	42.6885	-73.84928
Pop's_Pizza	B	42.770676	-73.708681
Lavender_Nail_Spa	B	42.804304	-73.904132
Janet_Gioia_Cruise_Planners	B	42.780005	-73.933651
Art_By_Val_Robert	E	42.774928	-73.944331
Stewart's_Shops	C	42.772498	-73.824687
Christ_The_King_Early_Childhood_Education_Center	A	42.693515	-73.887387
St_Paul_the_Apostle_Church	A	42.780402	-73.906048
Taras_Optical	A	42.772621	-73.823248
Galish_Frasier_Diana_C	A	42.829806	-73.892244
Doug_Neil_Insurance_Agency	C	42.76221	-73.797639
New_York_Court_Listing	A	42.736616	-73.792759
Suzuki	C	42.767476	-73.888947
RE_MAX_Capital	A	42.687044	-73.858635
NY_Tag_&_Title_To_Go	A	42.695139	-73.807996
Concepts_In_Fitness_Equipt	B	42.714593	-73.828795
Empire_Financial_Advisors	A	42.753289	-73.781332
Avis_Rent_A_Car	C	42.710248	-73.816463
Bella_Napoli	B	42.737128	-73.762785
High_Bridge_Service_Center	C	42.771404	-73.923996
Citizens_Bank	C	42.666322	-73.790231
Nosh_NY_Delicatessen	C	42.686705	-73.853852
Hong_Kong_Custom_Tailors	D	42.71284	-73.827975
Boys_And_Girls_Club_Of_Schenectady_Steinmetz_Homes	A	42.791815	-73.922157
Pho_Yum	B	42.715043	-73.830671
Super_Auto_Care	C	42.750406	-73.86975
Jay_St_Video_Games	C	42.689538	-73.850985
KeyBank	C	42.707853	-73.776058
Our_Lady_of_Mercy	A	42.697498	-73.804437
Boss_it_Back	A	42.762239	-73.797652
Albany_International_Airport_Fire_Department	A	42.745548	-73.809388
Lighthouse_Massage_and_Wellness	B	42.720036	-73.807798
Otis_&_Oliver's	B	42.765249	-73.794738
Maximum_Title	C	42.741198	-73.83927
Taylor_Made_Baskets	C	42.722715	-73.911407
Maria_Natarelli_Ameriprise_Financial_Services	B	42.715309	-73.8129
PlanWell_Wealth_and_Risk_Management_MassMutual_Agency	C	42.770286	-73.759432
Supercuts	B	42.773131	-73.892756
Town_of_Colonie_Golf_Course	B	42.760955	-73.870705
Sasa_Mirkovic_Ameriprise_Financial_Services	B	42.715239	-73.812974
Quality_Inn	B	42.754529	-73.769771
Capital_Financial_Planning	A	42.685551	-73.842839
Albany_Pine_Bush_Preserve	B	42.718676	-73.864833
U-Haul	C	42.77795	-73.933941
Purgatory_Tattoo_Co	B	42.744074	-73.86354
Pregna_Fit	B	42.743548	-73.749206
Mick's_Pizza	B	42.774322	-73.703392
Village_of_Colonie	B	42.70954	-73.836447
Fixit_Man_Blog	E	42.662291	-73.779399
Shapes_&_Colours_Day_Spa	B	42.713759	-73.813256
Hertz	C	42.744287	-73.810994
Guerra_Family_Chiropractic	A	42.745186	-73.865049
The_Lost_Sock_Laundromat	E	42.772839	-73.688339
Pediatric_Dentistry_of_Albany	A	42.672993	-73.81322
Phillips_A_Hardware	C	42.692338	-73.803285
William_J_Freyer_Nationwide_Insurance	C	42.784678	-73.909477
Lions_Park	B	42.776939	-73.824292
Shamrock_II	B	42.693423	-73.773562
Verizon_Wireless_Authorized_Retailer	C	42.705896	-73.824642
State_Farm	C	42.772822	-73.753292
Plaza_Fitness_Performance	B	42.684786	-73.839771
Zoom_Tan	B	42.735618	-73.763779
Albany_Electrolysis	B	42.721597	-73.836871
Littleminds_Daycare	A	42.743549	-73.759114
Triniboy_Auto_Repair	D	42.789868	-73.94098
Great_Oak_Oral_Surgery_and_Dental_Implant_Center	A	42.683587	-73.847038
Northeastern_Fine_Jewelry	C	42.805423	-73.905535
Maloney's_Pub	B	42.796409	-73.921658
Stewart's_Shops	C	42.702394	-73.818297
Mathnasium	A	42.690751	-73.866635
Verizon_Wireless	C	42.689312	-73.85033
Laurel's_Floral	C	42.715335	-73.705294
Horan_Tony's_Barber_Shop	B	42.772935	-73.700796
Capital_Region_Physical_Therapy	A	42.69322	-73.87324
Camelot_Room	B	42.664182	-73.78531
Capital_Northeast_Martial_Arts	A	42.690945	-73.867739
Home_Outlet	C	42.738536	-73.726993
Paychex	C	42.712073	-73.873229
Russ_&_Rebel_Leathers	C	42.761943	-73.794877
Northern_Lights_Smoke_Shop	C	42.701574	-73.818691
The_Grandstand	B	42.769837	-73.914861
Capitaland_Tire	C	42.732432	-73.794915
Our_Savior_Lutheran_Church	A	42.704922	-73.809277
Fort_Hunter_Park	B	42.765335	-73.941312
State_Farm	C	42.766772	-73.887924
Uv_Image_Experts	C	42.807191	-73.913054
Fancy_Schmancy	C	42.732947	-73.761806
Bridges_Afterschool_Program_Llc	A	42.672293	-73.810262
Celadon_Thai_Restaurant	B	42.746825	-73.757892
Columbia_Plaza	C	42.76378	-73.754593
First_Teachers_Federal_Credit_Union	C	42.739797	-73.84162
AutoZone	C	42.756106	-73.758716
Wynnykiw_A_R_DDS	A	42.705633	-73.755015
Dave_&_Buster's	B	42.689887	-73.852346
Apex_Insurance_Agency	C	42.762055	-73.795459
Gulf_Oil	C	42.798153	-73.947023
Andy's_Trophies_&_Awards	C	42.783577	-73.75074
Albany_Amusement	E	42.724187	-73.700918
Mario's_Barbershop	B	42.81644	-73.892964
New_Apostolic_Church_Of_Saugerties_Ny	A	42.74253	-73.933899
Microtel_Inn_and_Suites	B	42.753057	-73.771342
Ambiance_Florals_&_Events	C	42.69499	-73.77237
Ford_of_Latham	C	42.763013	-73.752972
M_&_D_Mini_Mart_&_Deli	C	42.759844	-73.885245
Capital_Region_Sleep_Wake_Disorders_Ctr	A	42.709696	-73.864017
Cold_Stone_Creamery	B	42.683591	-73.840631
East_Coast_Tire	C	42.72951	-73.701841
Hertz	C	42.74572	-73.810024
Sweet_Treasures	C	42.752284	-73.759967
The_Scarantino_Agency	C	42.781514	-73.904854
APlus	C	42.757794	-73.758187
Vitality_Physicians_Group_Practice	A	42.709032	-73.863081
Marotta's_Towne_Pizza	B	42.762435	-73.939829
Kingsway_Home_Care_Service	B	42.776574	-73.911936
Morgan_Stanley	A	42.771886	-73.823919
Mobil	C	42.743501	-73.91757
Ariana	B	42.764145	-73.854333
Busino_Lawrence_J_DDS	A	42.684701	-73.837745
Stewart's_Shops	C	42.736859	-73.761069
Turnpike_Barber_Shop	B	42.688833	-73.861007
Wei_Wei_Acupuncture_P_C	A	42.701597	-73.819782
Brookdale_Senior_Living	B	42.779716	-73.842781
B_I_S_Copy_System	C	42.783219	-73.897546
Nana's_Kitchen	B	42.773239	-73.700716
Sylvan_Learning	A	42.710229	-73.864107
Cumberland_Farms	C	42.719535	-73.836143
Earl_B_Feiden_Appliance	D	42.746004	-73.761155
Thai_Thai_Bistro	B	42.816519	-73.891008
Golden_House	B	42.737764	-73.723858
Piercing_Pagoda	C	42.688475	-73.849236
Quality_Transmissions	D	42.710395	-73.710068
Surface_Beauty	B	42.778541	-73.932839
Madelaine's_Hair_Salon	B	42.687528	-73.861117
Knowledge_Network	A	42.715448	-73.805717
Carhartt	C	42.688512	-73.849239
Blue_Ribbon_Restaurant_&_Bakery	B	42.780656	-73.903862
Colony_Liquor_&_Wine_Distributors	C	42.727638	-73.854238
Nail_Palace	B	42.816481	-73.88886
Trinity_Church	A	42.724422	-73.701379
Netrition	A	42.704523	-73.877031
Hiro's_Japanese_Restaurant	B	42.738392	-73.855867
Wilhelm_&_Norman_PLLC	A	42.773526	-73.701355
Berkshire_Bank	C	42.732136	-73.762613
Phigans_Bar	B	42.703824	-73.77585
Metro_by_T_Mobile_Authorized_Dealer	C	42.73086	-73.703507
Christ_the_King_Church_Faith_Formation	A	42.694817	-73.887353
Professional_Service_Association	A	42.770086	-73.703705
Bank_of_America	C	42.747171	-73.761857
Dollar_General	C	42.762091	-73.753302
Eyedentity_Eyewear	A	42.701541	-73.813474
Charter_Industries	C	42.725476	-73.852164
Capital_District_Oral_&_Maxillofacial_Surgeons	A	42.683697	-73.77112
Geico	C	42.727429	-73.843422
The_Eric_Idea_Agency	E	42.755043	-73.882656
Hannaford_Supermarkets	C	42.782968	-73.943591
Saint_Patrick_Cemetery	B	42.736749	-73.726319
Leggings_USA	C	42.689533	-73.85127
Michaels_Stores	C	42.697109	-73.847532
Uncle_John_Diner	B	42.774181	-73.701659
KinderCare	A	42.813818	-73.890688
Francesca's	C	42.689349	-73.850425
Gary's_Garage	D	42.723429	-73.866613
Gomez_Neurology	A	42.717477	-73.809582
EmUrgentCare	A	42.782881	-73.941446
Cumberland_Farms	C	42.694152	-73.806472
Mme_Pirie's_Famise_Corset_&_Lingerie_Shop	C	42.68634	-73.854833
Watervliet_Pharmacy	A	42.731456	-73.705661
Sears_Home_Services	C	42.757538	-73.817632
Felthousen's_Florist_&_Greenhouse	C	42.815364	-73.886316
H&M_(Hennes_&_Mauritz)	C	42.709666	-73.816736
New_York_State_Chiropractic_Assn	A	42.775783	-73.850315
Ballston_Spa_National_Bank_(BSNB)	C	42.772599	-73.823169
Flowers_By_Jo_Ann	C	42.805197	-73.904901
Mohawk_Commons	C	42.774805	-73.891666
Bath_Fitter	E	42.732105	-73.848198
ProTek_Recycling	E	42.7373	-73.70754
Central_Park_Dental_Group	A	42.805876	-73.908262
Jay's_Certified_Auto_Repair	D	42.785884	-73.932256
Mohawk_Ambulance_Service	B	42.77562	-73.915327
Mammoth_Realty_Productions	C	42.722103	-73.832127
Coccadotts_Cake_Shop	E	42.726908	-73.761038
Lincoln_School	A	42.794926	-73.921973
Rollarama	B	42.774343	-73.936041
Hair_Journeys	B	42.733915	-73.850897
Hollister	C	42.689114	-73.849827
CapitalCare_Family_Practice_Guilderland	A	42.725827	-73.936064
Capital_Movers	E	42.697684	-73.798051
Edward_Jones	A	42.743486	-73.749083
Albany_Smiles	A	42.690349	-73.867574
Empire_Visionworks	A	42.783881	-73.919625
Association_Of_Public_Historians_Of_New_York	B	42.680047	-73.837425
Hair_Expressions	B	42.781402	-73.953426
Hilton_Piano_Center	C	42.709378	-73.8177
Jay_St_Video_Games	C	42.709358	-73.817177
St_Nicholas_Orthodox_Church	A	42.774742	-73.697204
Saati_Deli_&_Catering	B	42.726503	-73.761127
Davi_Nails	B	42.785565	-73.94165
Christ_the_King_School	B	42.682849	-73.779695
Union_Aquarium_and_Pet_Supls	B	42.805059	-73.904541
Keith_Aibel_DMD_Aibel_Endodontics	A	42.685431	-73.838965
Cocca's_Inn_&_Suites_Wolf_Road	B	42.709191	-73.822339
TheBodyWorks_Wellness_Center	A	42.715458	-73.805749
Disney_Store	C	42.689905	-73.849871
Boutros_Florist	C	42.706805	-73.777781
Chase	C	42.720794	-73.802191
New_York_&_Company	C	42.710555	-73.815471
Central_Market_Florist	C	42.782466	-73.955129
Ed's_Glass_Windshield_Repair_&_Replacement	D	42.787767	-73.941535
Ziebart	D	42.689445	-73.801274
USA_Gasoline	C	42.684044	-73.847891
Health_Street	A	42.774098	-73.894086
Taste_of_Italy_Pizza	B	42.748824	-73.763451
Kittredge_Equipment_Company	C	42.70135	-73.830204
Mercato's_III	B	42.762434	-73.798443
McDonald's	B	42.76691	-73.816094
Lapels_Dry_Cleaning	E	42.738408	-73.762792
Washington_Park	B	42.657066	-73.772235
Banfield_Pet_Hospital	A	42.772008	-73.892172
Cricket_Wireless	C	42.710054	-73.816574
Sicker_Cemetery	B	42.756808	-73.81076
Amy_Loucks_Stylist	B	42.700899	-73.820598
The_Century_House_an_Ascend_Hotel_Collection_Member	B	42.770885	-73.752373
Home2_Suites	B	42.718774	-73.799698
Iroquois_Middle_School	A	42.797993	-73.864022
Andrew_T_Frank_DMD_&_Associates	A	42.690351	-73.867597
The_Cookie_Factory	E	42.707405	-73.777071
Osborne_Mill_Nursery	C	42.705375	-73.781402
Goodyear_Auto_Service_Centers	D	42.746991	-73.760622
Shaker_High_School	A	42.735416	-73.74729
Faddegon's_Nursery	C	42.768213	-73.818463
Casa_Real	B	42.723112	-73.936234
Dollar_Tree	C	42.773409	-73.824064
Bet_Shraga_Hebrew_Academy	A	42.688964	-73.78273
Advanced_Property_Management	C	42.781818	-73.90523
High_Bridge_Pizza	B	42.769893	-73.915152
518_Insurance	C	42.69182	-73.802829
Beer_Bones_Taproom	B	42.728059	-73.761149
Jewish_Community_Center_Of_Schenectady_Inc_Rosendale_Elem	A	42.799078	-73.86645
Boncordo_Antonio_Dntst	A	42.713331	-73.782602
Hampton	B	42.679026	-73.836192
Shaker_Place_Rehabilitation_&_Nursing_Center	B	42.743422	-73.81369
Stewart's_Shops	C	42.724175	-73.84103
Afrim's_Sports_Park	B	42.7389	-73.826651
Visionworks	A	42.774918	-73.892877
New_York_Charter_Schools_Assoc	E	42.680777	-73.763692
Congregation_Sharei_Shomajin	A	42.801507	-73.900952
CrossFit	B	42.77555	-73.750573
Sunoco	C	42.764111	-73.801336
Albany_Med_Allergy_&_Asthma_Center	A	42.70117	-73.84947
Sherry_Lynn's_Gluten_Free	B	42.781595	-73.905724
Malecki_John_J_Rev	A	42.666992	-73.786757
Genoa_Importing	C	42.705851	-73.754235
Fred_Astaire_Dance_Studios	B	42.743836	-73.750305
Philip_Alexander_Jewelers	C	42.707525	-73.777377
Lansing_Park	B	42.769163	-73.709877
Charles_Strumfeld_DDS	A	42.77393	-73.701338
CK_Hairartist_At_Faccia_Bella	B	42.782006	-73.746044
Western_Diner	B	42.697121	-73.884934
MAACO	D	42.788529	-73.9351
West_Albany_News_Center	C	42.703079	-73.798268
Subway	B	42.757363	-73.758654
Cinnabon	B	42.710445	-73.815795
9Spices_Indian_Cuisine_&amp_Bar	B	42.718492	-73.83449
The_Vitamin_Shoppe	A	42.717196	-73.809784
Colonie_Town_Police_Department_Latham_New_York	A	42.736744	-73.792704
Zaitoon_Kitchen	B	42.747006	-73.758655
CAP_COM_Federal_Credit_Union	C	42.78357	-73.892454
Baba's_Delivery_Kitchen	C	42.76416	-73.854411
Perfect_Score_Tutoring_and_Test_Preparation	A	42.680768	-73.763777
Domino's_Pizza	B	42.746404	-73.76101
Scally_Wags_Dog_Salon	C	42.781542	-73.746311
Noble_Nails_&_Spa	B	42.722938	-73.936223
George's_Auto_Glass_&_Uphlstrng	D	42.737118	-73.723181
Zoom_Tan	B	42.727705	-73.761125
ProSource_of_Albany	C	42.696617	-73.8242
School_27_Park	B	42.673094	-73.816308
Evoke_Style	C	42.684703	-73.839873
Heerdt_William_A_PHD	A	42.668512	-73.785145
Uno_Pizzeria_&_Grill	B	42.689616	-73.849613
St_Peters_Hospital_Spine_&_Neurosurgery	A	42.769618	-73.8224
WinWholesale	C	42.783892	-73.907272
Vitoria_Adamo	B	42.7816	-73.954026
Five_Star_Nails	B	42.732053	-73.848244
Selby's_Auto_Service	D	42.732421	-73.70149
Mr_Subb	B	42.781028	-73.955395
GlaMaris_Beauty_by_Marissa	B	42.781594	-73.954028
American_Laser_Skincare	B	42.772966	-73.751662
Pet_Express_Inn	B	42.753646	-73.794959
Heritage_Therapeutic_Massage_&_Skin_Care	B	42.746066	-73.942997
Walgreens	A	42.705879	-73.775896
Pulmonary_&_Critical_Care_Services_PC	A	42.688069	-73.773163
Pleasant_Valley_School	A	42.799402	-73.940932
AAA	C	42.804391	-73.904424
Green_Garden_Asian_Spa	B	42.732348	-73.848599
Dunkin'	B	42.704046	-73.816329
Maple_Leaf_Childcare_Center_Inc	A	42.773361	-73.935458
Life_For_The_Nations_Church	A	42.665937	-73.853203
Creating_Space_Massage_&_Skincare	B	42.66671	-73.791475
Kinowski_Agency_Inc	C	42.781346	-73.953643
Fidelis_Care_Albany_Regional_Office	C	42.763288	-73.823366
Elhosn_Eye_&_Aesthetics	A	42.684743	-73.837735
Sonic	B	42.756432	-73.775561
Orangetheory_Fitness	B	42.748635	-73.763496
Kennedy_Optical	A	42.830053	-73.903409
Smith's_Colonie_Wine_&_Liquor_Store	C	42.723554	-73.839212
Clare_Bridge	B	42.779723	-73.842676
McDonald's	B	42.696541	-73.849249
Republic_Services	E	42.75179	-73.800968
Zack's_Duo_Barbershop	B	42.744011	-73.837687
Capital_District_Hematology_Oncology_Associates	A	42.77285	-73.751846
Willow_Creek_Equestrian	B	42.766796	-73.866041
Fratello's_Pizza_&_Pasta	B	42.70385	-73.775851
Subway	B	42.701069	-73.819309
SB_Computers	C	42.768115	-73.697396
LabCorp	A	42.727625	-73.759804
Latham_Auto_Body_Shop	D	42.738579	-73.791084
Mint_Models	C	42.759234	-73.759812
Capital_Region_Cars	C	42.782764	-73.907278
Penzey's_Spices	C	42.688514	-73.849278
Bellini's_Italian_Eatery	B	42.73111	-73.762134
Horizon_Foods	C	42.691877	-73.808168
La-Z-Boy	C	42.75176	-73.760546
Sams_Pharmacy_10_6440	A	42.757902	-73.762734
Gwu_Childcare_Development_Center	A	42.657835	-73.766607
AAMCO_Transmissions	D	42.686084	-73.796084
Custom_Auto_Radio_Dstrbtrs_of_Connecticut_Albny_Br	C	42.756759	-73.80776
Harmon_AutoGlass	C	42.814203	-73.939381
Dott_Garage	D	42.693594	-73.804751
Label_Shopper	C	42.762192	-73.797487
Bombay_Bar_And_Kitchen	B	42.703094	-73.815461
Retro_Fitness	B	42.733347	-73.853768
At_Home	C	42.697119	-73.8476
Spencer's	C	42.709157	-73.817496
Religious_Sisters_Of_Mercy	A	42.667551	-73.812002
The_Car_Buyers_Helpline	C	42.715581	-73.804383
Di_Napoli_Opticians	A	42.727415	-73.75984
Elderwood_Village_at_Colonie	B	42.735296	-73.769266
Campito_Plumbing_&_Heating	A	42.737848	-73.79437
Woodforest_National_Bank	C	42.695284	-73.84711
Sisters_of_St_Joseph	A	42.804952	-73.907462
Urgent_Care_Center_of_Latham	A	42.758199	-73.777659
La_Roca_Inconmovible_Church	A	42.684443	-73.797884
State_Farm	C	42.7125	-73.78202
Cbmc_Inc	A	42.77291	-73.825377
Champs	C	42.710353	-73.816557
Matchbox_Bar_&_Grill	B	42.773763	-73.70185
Burger_King	B	42.783685	-73.948409
Capital_Region_Ecumenical_Organization_Inc	A	42.666398	-73.78627
Uncle_Rico's_Pizza	B	42.816377	-73.890663
Best_Fitness	B	42.783763	-73.920303
Loudonville_Wine_&_Spirits	C	42.708536	-73.775399
Top_Shelf_Wine_&_Spirits	C	42.684851	-73.84107
Designs_In_Silk	C	42.719128	-73.80346
Charlize_Hair_Studio	B	42.773373	-73.689491
Papa's_Corner_Restaurant_&_Pizzeria	B	42.722654	-73.701446
Cohoes_Bowling_Arena	B	42.774219	-73.704308
Pinto_Thai_Kitchen	B	42.714057	-73.829388
The_Tile_Shop	A	42.718115	-73.803359
Berkshire_Bank	C	42.68473	-73.792272
S_M_Miller_&_Associates_Ameriprise_Financial_Services	B	42.688093	-73.773179
Dog's_Retreat	C	42.761233	-73.793063
TRACEY_FREIGHTLINER_OF_ALBANY_INC	C	42.702273	-73.829115
Complete_Nails	B	42.789082	-73.936892
Hairbeautique_Hair_Studio	B	42.731995	-73.710131
Cohoes_Public_Library	B	42.771998	-73.699422
Mckownville_Park	B	42.676902	-73.842635
Torrid	C	42.710225	-73.8167
Center_for_Rheumatology_LLP	A	42.686021	-73.842609
Quest_Diagnostics	A	42.753822	-73.761546
Capital_Luxury_Cars	C	42.729457	-73.853452
Primerica	A	42.708646	-73.862424
Teal_Wealth_Management_Ameriprise_Financial_Services	A	42.716931	-73.807664
Suny_At_Albany_Downtown_Campus	A	42.661528	-73.772299
The_Standard_Restaurant_&_Lounge	B	42.688969	-73.850195
Latham_Medical_Group	A	42.75895	-73.776966
Field_Notes	B	42.764266	-73.857364
Cash_For_Junk_Cars_Albany_NY	E	42.693297	-73.812631
Yoshi_Sushi	B	42.733931	-73.762818
Cohoes_Family_Care	A	42.774254	-73.70092
Movated_Auto_Detailing	C	42.714827	-73.841476
Family_Dollar_Stores	C	42.77359	-73.697267
Molar_Lab	A	42.719549	-73.80909
Hannaford_Supermarkets	C	42.783136	-73.891323
Stewart's_Shops	C	42.769076	-73.875205
L.L.Bean	C	42.709594	-73.817906
Herman_L_Bradt_Elementary_School	A	42.77203	-73.933158
Oldendorf_Medical_Services	A	42.698095	-73.768236
Tsl_Adventures_Niskayuna_Reformed_Church	A	42.776069	-73.831479
Pizza_Buono	B	42.803092	-73.900144
Seymours_Motorized_Sports	C	42.814718	-73.731798
Albany_International_Airport	E	42.746822	-73.800294
La_Quinta_Inns_&_Suites	B	42.750845	-73.759206
The_Spa_Wholesaler	C	42.72956	-73.704981
Krumkill_Stables	B	42.664646	-73.852057
Xtramart	C	42.770233	-73.893206
Sushi_Yummy	B	42.729128	-73.700341
Zoar_Financial	A	42.720034	-73.807764
Thomas_F_Wayne_Ameriprise_Financial_Services	A	42.687999	-73.773072
Sentry_Management	C	42.73825	-73.796763
AMERICAN_Diabetes_ASSOC	C	42.711394	-73.865712
Albany_Laser_Spa	B	42.718477	-73.807657
Goldstein_Collision_Center	D	42.72256	-73.837192
OrthoNY	A	42.758091	-73.777239
Donnie_Magoos	B	42.772115	-73.700564
Giorgio's_the_Salon	B	42.761872	-73.750453
Community_Care_Dermatology	A	42.758709	-73.776908
Fancy_Schmancy	C	42.689534	-73.866231
H&R_Block	A	42.727956	-73.846263
Mohawk_Golf_Club	B	42.804601	-73.888956
Tradeway_Auto_Sales	C	42.787093	-73.93435
Five_Guys	B	42.728408	-73.76076
Valoze_Greenhouses	C	42.789043	-73.736832
Firefly_Florist_And_Gift_Boutique	C	42.778585	-73.887012
Mercury_Insurance	C	42.761003	-73.81582
Stockyard_Bar_B_Q	B	42.700739	-73.830264
Sanctuary_Yoga_&_Wellness	B	42.744669	-73.838666
Her_UnderThings	C	42.686952	-73.858705
Severino_Auto_Sales_Inc	C	42.788311	-73.912468
Plumbers_&_Pipefitters_Training_School	A	42.735496	-73.793043
Cathy_Winter_Music	C	42.803042	-73.909567
NGR_New_Used_Tires_&_Auto_Repair	C	42.795794	-73.922099
St_Peter's_Bender_Lanoratory	A	42.702398	-73.825117
The_Ideal_U	B	42.681748	-73.83837
St_Pius_X_School	A	42.696539	-73.761782
Uno_Chicago_Grill	B	42.68957	-73.849732
Handy_Andy_Food_Stores	C	42.737338	-73.772774
Rizzuto_Bart_M_DDS	A	42.827761	-73.892448
Michael_Kowal_DDS	A	42.773204	-73.700737
Quest_Diagnostics	A	42.792062	-73.917737
All_Star_Driving_School	A	42.71504	-73.770188
Family_Dollar_Stores	C	42.737046	-73.701255
American_Diabetes_Association	A	42.707771	-73.861659
A_Gabrielle_Studio	B	42.740362	-73.792004
Catholic_Charities_Senior_And_Caregiver_Support_Services	A	42.666394	-73.786226
Repeat_Business_Systems	C	42.714903	-73.839573
Albany_Group_Dental_Practice	A	42.716242	-73.83067
Arby's	B	42.710579	-73.816425
21st_Century_Capital_Management	A	42.717067	-73.807667
Bob_Williams_Enterprises	C	42.767827	-73.888779
Fortune_Cookie	B	42.782947	-73.890718
Bloom_Well_Center	A	42.683052	-73.846996
The_Smile_Zone	A	42.725026	-73.823015
Amelia's_Italian_Eatery	B	42.784977	-73.909791
Scissors_III_&_Co_Hair_&_Nail_Design	B	42.71419	-73.829486
U-Haul	C	42.774068	-73.693465
Golf_Dome	B	42.756605	-73.78582
AA_Mazzone's_Auction_Service	C	42.755694	-73.943326
Latham_OB_Gyn_Associates	A	42.758318	-73.777467
Dollar_Rent_A_Car	C	42.746157	-73.810305
Church_Of_God_Of_Prophecy_Bible_Place	A	42.709035	-73.778865
Tom_&_Jerry's_Car_Wash	D	42.737045	-73.701222
Living_Hope_International_Ministries_Inc	A	42.757374	-73.797434
Allied_Building_Products	C	42.691849	-73.812743
Capital_District_Marine_Sales	C	42.773496	-73.684714
Michael_A_Perrino_DDS	A	42.764591	-73.915037
Draeger	D	42.688193	-73.797848
Shop_Rite_Fuel_Center	C	42.725244	-73.842533
Consumer_Directed_Choices	B	42.711384	-73.8657
Famous_Footwear	C	42.710511	-73.817008
Fluent_Voice	C	42.697384	-73.885534
Dick's_Sporting_Goods	C	42.689928	-73.853672
